,Unnamed: 0,Address,pincode,Taluk,Districtname,statename,Latitude,Longitude
1,1,"WJMW+7F7, Chandanathope, Mamoodu, Kerala 14, India",686012,Kottayam,Kottayam,KERALA,9.54856711111111,76.52230786666667
3,3,"98WW+WWQ, Valanjavazhy, Ambalapuzha, Kerala 688005, India",688005,Ambalappuzha,Alappuzha,KERALA,9.40768399,76.351707025
9,15,"MINI INDUSTRIAL ESTATE, PLOT NO .5, near POLICE STATION, Manarcadu, Kerala 686019, India",686019,Kottayam,Kottayam,KERALA,9.592533289090907,76.58230555090908
11,17,"Kochangadi, Chullickal, Kochi, Kerala 682002, India",682002,Kochi,Ernakulam,KERALA,9.957255232894736,76.25402236842105
14,20,"19/2084-E, Nambiapuram Rd, Palluruthy, Kochi, Kerala 682006, India",682006,Kochi,Ernakulam,KERALA,9.917652551851852,76.27326455925926
15,21,"Accelerated Freeze Drying Co. Ltd. (AFDC, R7CX+HQ6 P.O, Eramallur Ezhupunna Rd, Eramalloor, Ezhupunna, Kerala 688537, India",688537,Cherthala,Alappuzha,KERALA,9.82172572,76.30522974
16,22,"Binanipuram, Edayar, Kochi, Kerala 683502, India",683502,Paravur,Ernakulam,KERALA,10.087692555555556,76.30506273333334
19,27,"Near Pampady Gramapanchayth, NH- 220, Pampady Road, Pampady, Kottayam, Pampady, Kerala 686502, India",686502,Kottayam,Kottayam,KERALA,9.581621149411763,76.63691744941177
22,30,"Agappe Hills, Pattimattom PO, Kochi, Kerala 683562, India",683562,Aluva,Ernakulam,KERALA,10.034164772289158,76.42900358072289
27,41,"Akanadu, Mudakuzha P.O, Kurichilakodu, Akanad, Kochi, Vengoor West, Kerala 683546, India",683546,Kunnathunad,Ernakulam,KERALA,10.1428569,76.52744881481482
31,48,"Mookkannoor Ezhattumugham Rd, Mookkannoor, Kerala 683577, India",683577,Aluva,Ernakulam,KERALA,10.236465032954545,76.41597145568181
32,49,"X746+P3V, Jew Town Rd, Jew Town, Kappalandimukku, Mattancherry, Kochi, Kerala 682002, India",682002,Kochi,Ernakulam,KERALA,9.957255232894736,76.25402236842105
33,50,"P838+CP5, Kottaram Jn. Rd, Kadakkarappally, Kerala 688529, India",688529,Cherthala,Alappuzha,KERALA,9.705020973333331,76.3096675088889
34,51,"P.O, Kommady, Thumpoly, Alappuzha, Aryad South, Kerala 688008, India",688008,Ambalapuzha,Alappuzha,KERALA,9.521471733333334,76.3244164
35,52,"Alappuzha, Kerala, India",682002,Kochi,Ernakulam,KERALA,9.957255232894736,76.25402236842105
36,53,"Alappuzha, Kerala, India",688534,Cherthla,Alappuzha,KERALA,9.871729377142858,76.30438504
37,54,"Puthoor, Kerala 691507, India",691507,Kottarakkara,Kollam,KERALA,9.043139252830189,76.7161006773585
42,61,"Edappally Raghavan Pillai Road, Junction, Perandoor, Elamakkara, Kochi, Kerala 682026, India",682026,Ernakulam,Ernakulam,KERALA,10.01621266875,76.288820209375
43,62,"MLA Rd, Poochakkal, Cherthala, Panavally, Kerala 688526, India",688526,Cherthala,Alappuzha,KERALA,9.806103366981132,76.35243924716981
44,63,"Anchuthengu, Kerala, India",686012,Kottayam,Kottayam,KERALA,9.54856711111111,76.52230786666667
45,64,"2QHX+CR5, Thalavoor, Kerala 691560, India",691560,Kottarakara,Kollam,KERALA,9.04378430952381,76.78092363809523
47,67,"Parambithara Rd, Panampilly Nagar, Kochi, Kerala 682036, India",682036,Ernakulam,Ernakulam,KERALA,9.959980295833333,76.29498357083334
51,73,"V872+GG9, Keltron Rd, Aroor gram panchayat, Kochi, Kerala 688534, India",688534,Cherthla,Alappuzha,KERALA,9.871729377142858,76.30438504
52,74,"22/1177, Aroor - Thoppumpady Rd, N.H. 47, Edakochi, Kochi, Kerala 682010, India",682010,Kochi,Ernakulam,KERALA,9.9107678,76.29057865833333
53,75,"Arani, Tamil Nadu, India",682024,Ernakulam,Ernakulam,KERALA,10.01888763298969,76.30253450412371
55,77,"Thattaveli Palam, Velloor, Kerala 686605, India",686605,Vaikom,Kottayam,KERALA,9.795920142424242,76.44080179242424
60,84,"Road, Aroor gram panchayat, Kochi, Kerala 688534, India",688534,Cherthla,Alappuzha,KERALA,9.871729377142858,76.30438504
61,85,"Plot No. 39-B, CSEZ, Kakkanad, Kochi, Kakkanad, Kerala 682037, India",682037,Ernakulam,Ernakulam,KERALA,9.997384706451612,76.34072476129032
65,89,"XIII/831, Vikas Rd, Karuvelipady, Thoppumpady, Kochi, Kerala 682005, India",682005,Kochi,Ernakulam,KERALA,9.940253061111113,76.25960161388889
69,96,"Industrial development plot, Punnapra North, Alappuzha, Kerala 688003, India",688003,Ambalapuzha,Alappuzha,KERALA,9.468575348387096,76.33827430967742
73,100,"WGJW+H82, Neendakara - Chinnakkada Rd, Sakthikulangara North, Kollam, Kerala 691581, India",691581,Kollam,Kollam,KERALA,8.928226436363635,76.54678488181818
75,102,"2M96+9MP, Moonnumukku - Uppoodu Road, Mathilakom, Kizhakkekallada, Kerala 691502, India",691502,Kollam,Kollam,KERALA,9.008392784545457,76.65603456545455
76,103,"Velichappat, 3/217 B, Poickattussery, Chengamanad PO Ernakulam District Nedumbassery kurumaseri Road 589P+397, Aluva - Mala Rd, Kerala 683578, Aluva, Kerala 683585, India",683578,Paravur,Ernakulam,KERALA,10.155197839473685,76.30713587631578
78,105,"IX/45-N INDUSTRIAL DEVELOPMENT PLOT, Poovanthuruthu, Kerala 686012, India",686012,Kottayam,Kottayam,KERALA,9.54856711111111,76.52230786666667
79,106,"5V2R+RX3, Kakkanchery, Chelambra, Kerala 673636, India",673636,Tirurangadi,Malappuram,KERALA,11.118472538297873,75.8919613468085
80,107,"Pathirappally Omanappuzha Road, Pattukalam, Alappuzha, Kerala 688522, India",688522,Ambalapuzha,Alappuzha,KERALA,9.572168202777778,76.32190507222222
83,113,"Thoppumpady, W7M8+59J, Thoppumpady, Kochi, Kerala 682005, India",682005,Kochi,Ernakulam,KERALA,9.940253061111113,76.25960161388889
84,114,"V798+RQR, puthenthode, Kannamaly, Kochi, Kerala 682008, India",682008,Kochi,Ernakulam,KERALA,9.869597658064515,76.26596289354838
86,116,"D-47&48, Municipal Shopping Complex, AM Rd, Perumbavoor, Kerala 683542, India",683542,Kunnathunad,Ernakulam,KERALA,10.114937405454544,76.47808056363637
90,121,"29Q2+WHJ, Edappally - Pukkattupady Rd, Kollamkudimugal, Kangarappady, Kochi, Kerala 682021, India",682021,Ernakulam,Ernakulam,KERALA,10.029233765060242,76.3353045433735
91,123,"2947+MW7, Infopark Campus, Infopark, Kakkanad, Kerala 682030, India",682030,Ernakulam,Ernakulam,KERALA,51.13351584878049,133.02442981463415
93,126,"Pallichal Rd, Valummel, Kochi, Kerala 682005, India",682005,Kochi,Ernakulam,KERALA,9.940253061111113,76.25960161388889
98,134,"Mavady Post, Enathu Puthoor Rd, Kerala 691507, India",691507,Kottarakkara,Kollam,KERALA,9.043139252830189,76.7161006773585
100,138,"Kollam Kerala, Kerala 691507, India",691507,Kottarakkara,Kollam,KERALA,9.043139252830189,76.7161006773585
108,152,"EEC Market, Market P.O, Vazhappily, Muvattupuzha, Kerala 686673, India",686673,Muvattupuzha,Ernakulam,KERALA,9.98582857409836,76.58100003016393
109,153,"HMD BUILDING, 18/1640, Karicode, Koikkal, Kollam, Kerala 691004, India",691004,Kollam,Kollam,KERALA,8.904030673684211,76.62197661052632
110,154,"48/2510D4, 2nd Floor, Blastline Corporate Chamber,Pottakuzhi Elamakkakara (PO, Perandoor Rd, Mamangalam, Kaloor, Ernakulam, Kochi, Kerala 682026, India",682026,Ernakulam,Ernakulam,KERALA,10.01621266875,76.288820209375
114,159,"14/486, East, Pandikudy, Chullickal, Kochi, Kerala 682001, India",682001,Kochi,Ernakulam,KERALA,9.961975513432836,76.24336774328359
118,163,"J9C6+WCC, Kayippuram, Muhamma, Kerala 688525, India",688525,Cherthala,Alappuzha,KERALA,9.619357622727271,76.35883995454545
119,164,"P9V4+QVH, Pallipuram, Kerala 688541, India",688541,Cherthala,Alappuzha,KERALA,9.742432095238096,76.36193387142858
122,171,"XI /799, VIJAYAPURAM, Vadavathoor, Kottayam, Kerala 686010, India",686010,Kottayam,Kottayam,KERALA,9.590680228,76.56449500800001
132,187,"P.B. No.2, Koovappady P.O, Akanad, Kerala 683544, India",683544,Kunnathunad,Ernakulam,KERALA,10.166672573758866,76.50774667872341
133,188,"Coir park 1 Thiruvizha North Road, Post, Mayithara, Cherthala South, Kerala 688539, India",688539,Cherthala,Alappuzha,KERALA,9.66428288888889,76.34121377777778
134,189,"Broadway, Church St, Marine Drive, Ernakulam, Kochi, Kerala 682031, India",682031,Ernakulam,Ernakulam,KERALA,9.99692354,76.27468644
136,192,"Ponpuzha, Ithithanam Post, Changanacherry Near Saintgits college, Pathamuttom, Kottayam, Ithithanam, Kerala 686535, India",686535,Changanassery,Kottayam,KERALA,9.479609457894735,76.52609346315789
139,195,"2PCC+JGV, Thevalapuram, Neduvathoor, Kerala 691507, India",691507,Kottarakkara,Kollam,KERALA,9.043139252830189,76.7161006773585
140,197,"AS Road, J84M+GF5, Kanjikuzhy, Shertallay, Kerala 688524, India",688524,Cherthala,Alappuzha,KERALA,9.6891011625,76.33285069583334
141,198,"WGPV+RXG, Neendakara, Kollam, Kerala 691582, India",691582,Karunagapally,Kollam,KERALA,8.9475339,76.53934165
143,204,"Chemmeens Junction,Karuvekipady, Kochi-682005, Karuvelipady, Kazhuthumuttu, Thoppumpady, Kochi, Kerala 682005, India",682005,Kochi,Ernakulam,KERALA,9.940253061111113,76.25960161388889
145,208,"V8C7+3QX Cherukattu Industries, Aroor gram panchayat, Kochi, Kerala 688534, India",688534,Cherthla,Alappuzha,KERALA,9.871729377142858,76.30438504
146,209,"X6CJ+F69, Shanti Nagar, Perintalmanna, Kerala 679322, India",679322,Perinthalmanna,Malappuram,KERALA,10.977929251428572,76.22854857333334
149,214,"16B, CSEZ, Kakkanad, Kerala 682037, India",682037,Ernakulam,Ernakulam,KERALA,9.997384706451612,76.34072476129032
150,215,"Plot. No.41, 37, CSEZ, Kakkanad, Kochi, Kakkanad, Kerala 682037, India",682037,Ernakulam,Ernakulam,KERALA,9.997384706451612,76.34072476129032
151,216,"IV/833, MSP, Valavanad, Pollethai, Alappuzha, Kerala 688522, India",688522,Ambalapuzha,Alappuzha,KERALA,9.572168202777778,76.32190507222222
153,220,"Kochi, Kerala, India",682024,Ernakulam,Ernakulam,KERALA,10.01888763298969,76.30253450412371
154,221,"Kochi, Kerala, India",682002,Kochi,Ernakulam,KERALA,9.957255232894736,76.25402236842105
155,222,"Kochi, Kerala, India",688524,Cherthala,Alappuzha,KERALA,9.6891011625,76.33285069583334
156,223,"Federal Park, Vennala, Ernakulam, Kochi, Kerala 682028, India",682028,Ernakulam,Ernakulam,KERALA,9.99670085,76.32102778
157,224,"Kochi, Kerala, India",688534,Cherthla,Alappuzha,KERALA,9.871729377142858,76.30438504
158,225,"Poorna Nagar Park,, 4952+GWW, Periyar Nagar, Aluva, Kerala 683101, India",683101,Aluva,Ernakulam,KERALA,10.095680780412373,76.36233782061856
159,226,"PLOT no 63, Edayar, Kerala 683502, India",683502,Paravur,Ernakulam,KERALA,10.087692555555556,76.30506273333334
160,227,"20/46B, Near I.O.C Petrol Pump, Palluruthy Veli, Aroor - Thoppumpady Rd, Palluruthy, Kochi, Kerala 682006, India",682006,Kochi,Ernakulam,KERALA,9.917652551851852,76.27326455925926
161,228,"G83H+F9Q, Aarattuvazhi, Kanjiramchira, Aryad South, Alappuzha, Kerala 688007, India",688007,Ambalapuzh A,Alappuzha,KERALA,9.510326070833331,76.3268778625
162,230,"Coimbatore, Tamil Nadu, India",682024,Ernakulam,Ernakulam,KERALA,10.01888763298969,76.30253450412371
163,231,"Building No.X11, Pattanakkad, Cherthala, Pattanakkad, Kerala 688531, India",688531,Cherthala,Alappuzha,KERALA,9.725622914130437,76.31563821847826
164,232,"Kalyan Villa, Vellakinar Rd, Vellakkinar, Alappuzha, Kerala 688001, India",688001,Ambalapuzha,Alappuzha,KERALA,9.49638391904762,76.33209264761905
165,233,"TP-12/498K, Varanad PO, Cherthala, Pin: 688539, Alappuzha, Cherthala, Kerala 688524, India",688539,Cherthala,Alappuzha,KERALA,9.66428288888889,76.34121377777778
166,234,"J88R+699, Kanjikuzhy, Kanjikkuzhi, Kerala 688525, India",688525,Cherthala,Alappuzha,KERALA,9.619357622727271,76.35883995454545
167,235,"Chingavanam, Kerala 686007, India",686007,Kottayam,Kottayam,KERALA,9.531553366666667,76.5150448
168,236,"Coonoor, Tamil Nadu, India",682002,Kochi,Ernakulam,KERALA,9.957255232894736,76.25402236842105
173,241,"14-B, CSEZ, Kakkanad, Kerala 682037, India",682037,Ernakulam,Ernakulam,KERALA,9.997384706451612,76.34072476129032
175,244,"Kozhikode, Kerala, India",682024,Ernakulam,Ernakulam,KERALA,10.01888763298969,76.30253450412371
177,249,"9/22 HA IDA, Nalam Mile, ALUVA, Kerala 683112, India",683112,Kunnathunad,Ernakulam,KERALA,10.08974094375,76.39621829375
178,250,"682037, CSEZ, Kochi, Kakkanad, Kerala 682037, India",682037,Ernakulam,Ernakulam,KERALA,9.997384706451612,76.34072476129032
179,251,"Valavanadu, Kalavoor P.O., Kanjikuzhy, Ward 1, Alappuzha, Kerala 688522, India",688522,Ambalapuzha,Alappuzha,KERALA,9.572168202777778,76.32190507222222
186,266,"39/1384 Four Star Buildings Chittoor Road Valanjambalam, Ernakulam South, Kochi, Kerala 682016, India",682016,Ernakulam,Ernakulam,KERALA,9.965396735294116,76.28713604901961
187,267,"Nambiapuram, Palluruthy, Kochi, Kerala 682006, India",682006,Kochi,Ernakulam,KERALA,9.917652551851852,76.27326455925926
188,268,"Parakkamugal Infopark Rd, Infopark Campus, Kochi, Kakkanad, Kerala 682030, India",682030,Ernakulam,Ernakulam,KERALA,51.13351584878049,133.02442981463415
192,277,"Industrial Development Plot, Poovanthuruthu, Kottayam, Kerala 686012, India",686012,Kottayam,Kottayam,KERALA,9.54856711111111,76.52230786666667
194,279,"7G3C+5GX, Thattarambalam, Mavelikara, Kannamangalam North, Kerala 690103, India",690103,Mavelikkara,Alappuzha,KERALA,9.250708,76.51850396153846
197,283,"Kurichy, Thuruthy, Kerala 686532, India",686532,Changanassery,Kottayam,KERALA,9.502805928070176,76.51869062982456
198,285,"Kodikuthimala, Ashokapuram, Edathala, Aluva, Kerala 683101, India",683101,Aluva,Ernakulam,KERALA,10.095680780412373,76.36233782061856
200,288,"CCSB Rd, Civil Station Ward, Alappuzha, Kerala 688001, India",688001,Ambalapuzha,Alappuzha,KERALA,9.49638391904762,76.33209264761905
201,289,"Lane 1, VRWA, near State Bank of India, Vyttila, Ernakulam, Kochi, Kerala 682019, India",682019,Ernakulam,Ernakulam,KERALA,9.96996995974026,76.31541058961038
206,297,"WRP4+F59, Konnathu Mukku - Mathayi Mukku Rd, Chepra, Kerala 691520, India",691520,Kottarakkara,Kollam,KERALA,8.947908536734694,76.79522364897959
208,301,"SDF 16A, IVth Floor, CSEZ, Kakkanad, Kochi, Kakkanad, Kerala 682037, India",682037,Ernakulam,Ernakulam,KERALA,9.997384706451612,76.34072476129032
211,305,"423 A South vellarapilly, po, Kochi, Thekkumbhagom, Kerala 683580, India",683580,Aluva,Ernakulam,KERALA,10.13932176153846,76.40794163846154
213,307,"WHH6+WJW, Kavanad, Sakthikulangara North, Kollam, Kerala 691003, India",691003,Kollam,Kollam,KERALA,8.915929604166667,76.55627739166667
218,315,"Xix/318 Kanjirakkadu, Rayonpuram P.O, Perumbavoor Kochi- 683543, Kerala, Ernakulam, Perumbavoor, Kerala 683543, India",683543,Kunnathunad,Ernakulam,KERALA,10.1228594125,76.48358803125
219,316,"Willingdon Island, Kochi, Kerala 682003, India",682003,Kochi,Ernakulam,KERALA,9.960447846153846,76.27093469230769
222,320,"Near KSEB, 68/1637A, Mariakutty John Rd, near Power House Road, Power House Junction, Kacheripady, Kochi, Kerala 682018, India",682018,Ernakulam,Ernakulam,KERALA,9.991596463636364,76.28133009181818
224,322,"Room No:40/5476, First Floor,Ruquia Chamber, TD Rd, Padma Junction, Pullepady, Kochi, Kerala 682035, India",682035,Ernakulam,Ernakulam,KERALA,9.979283159183671,76.28271734081633
229,329,"Door No. XI/408, NH-66, Cheriakadavu, Kannamaly, Cheriakadavu, Kannamaly, Kochi, Kerala 682008, India",682008,Kochi,Ernakulam,KERALA,9.869597658064515,76.26596289354838
230,330,"29/2089 State Highway 15 Tripunithura, Road, Thykoodam, Vyttila, Kochi, Kerala 682019, India",682019,Ernakulam,Ernakulam,KERALA,9.96996995974026,76.31541058961038
231,331,"Eramalloor,, Chandiroor, Alappuzha, Kerala 688537, India",688537,Cherthala,Alappuzha,KERALA,9.82172572,76.30522974
232,332,"M899+27Q Perumpara Juction, Po, Kuruppan Kulangara, Cherthala, Cherthala South, Kerala 688539, India",688539,Cherthala,Alappuzha,KERALA,9.66428288888889,76.34121377777778
233,333,"S.N.V. Road, Kannadikavala, Aryakara, Muhamma, Kerala 688525, India",688525,Cherthala,Alappuzha,KERALA,9.619357622727271,76.35883995454545
235,335,"1150c, Subhash Chandra Bose Rd, Jawahar Nagar, Elamkulam, Kochi, Kerala 682020, India",682020,Ernakulam,Ernakulam,KERALA,9.96861736259542,76.30114694656488
236,336,"6/140, Synagogue Ln, Jew Town, Kappalandimukku, Mattancherry, Kochi, Kerala 682002, India",682002,Kochi,Ernakulam,KERALA,9.957255232894736,76.25402236842105
237,337,"Press Kottadayil Building, Near North,, Lakeshore Hospital, Nettoor, Maradu, Kochi, Kerala 682040, India",682040,Kanayannur,Ernakulam,KERALA,9.923889512121212,76.31571828181819
241,342,"beach, Civil Station Ward, Alappuzha, Kerala 688012, India",688012,Ambalapuzha,Alappuzha,KERALA,9.490780478571429,76.32486257142857
242,343,"AV Building, Cherattukuzhi Road, Down Hill, Malappuram, Kerala 676519, India",676519,Ernad,Malappuram,KERALA,11.05071221125,76.03817599
243,345,"R8MQ+C3G, Cherthala - Arookutty Rd, Panavally, Kerala 688526, India",688526,Cherthala,Alappuzha,KERALA,9.806103366981132,76.35243924716981
244,346,"Aravankara - Mini Ootty - Arimbramala Rd, Pookkottur, Kerala 676517, India",676517,Ernad,Malappuram,KERALA,11.081878113043478,76.06632696956521
246,348,"R8C3+Q4R Between konkery bridge and Railway cross, Vattathara, Ezhupunna, Kerala 688537, India",688537,Cherthala,Alappuzha,KERALA,9.82172572,76.30522974
248,351,"GKS COMPLEX, 4/450 , AROOKUTTY FERRY ROAD , AROOR 688534, Aroor gram panchayat, Kochi, Kerala 688534, India",688534,Cherthla,Alappuzha,KERALA,9.871729377142858,76.30438504
264,374,"MGHX+HMC, Industrial Estate Rd, Ettumanoor, Kerala 686631, India",686631,Kottayam,Kottayam,KERALA,9.673597835897436,76.55975298397436
265,375,"Pallichal Road, Valummel, Pallichal, Kochi, Kerala 682005, India",682005,Kochi,Ernakulam,KERALA,9.940253061111113,76.25960161388889
267,377,"Mallikassery, Kerala 686577, India",686577,Meenachil,Kottayam,KERALA,9.640891316,76.737008176
268,379,"2nd Floor,307/C6,KSIE Building Cochin InternationalContainer Freight Staton, Old Anavathil Jn ICTT Road, P.O, Udyogamandal, Kalamassery, Kochi, Kerala 683501, India",683501,Ernakulam,Ernakulam,KERALA,10.065396075,76.305478
270,382,"3F3J+62X, Vengola, Kerala 683556, India",683556,Kunnathunad,Ernakulam,KERALA,10.083125960465116,76.47373215813954
276,394,"5CFP+MQ4, Enchackal Kavala, Kalady, Kerala 683574, India",683574,Aluva,Ernakulam,KERALA,10.182817160958905,76.45845344931507
279,400,"II/750A, Industrial Development Area, Aroor gram panchayat, Kochi, Kerala 688534, India",688534,Cherthla,Alappuzha,KERALA,9.871729377142858,76.30438504
280,401,"Peringuzha, XJ52+MH5, Perumpalloor P.O., Peringuzha, Ernakulam, Muvattupuzha, Kerala 686673, India",686673,Muvattupuzha,Ernakulam,KERALA,9.98582857409836,76.58100003016393
286,410,"ATC Building, Moolepadam Nagar Road HMT Junction, Kalamassery, HMT Junction, Moolepadam Nagar, South Kalamassery, Kalamassery, Kochi, Kerala 683104, India",683104,Kanayannur,Ernakulam,KERALA,10.057542963636363,76.31917809090909
287,411,"Aluva - Mala Rd, Ayroor, Attupuram, Kerala 683579, India",683579,Paravur,Ernakulam,KERALA,10.180445387272728,76.31635012181819
288,413,"1/335, Rose St, Fort Nagar, Fort Kochi, Kochi, Kerala 682001, India",682001,Kochi,Ernakulam,KERALA,9.961975513432836,76.24336774328359
289,414,"Plot No: 15, KINFRA HI-TECH Park, Opp Co-operative Medical College, P.O, HMT Colony, North Kalamassery, Kalamassery, Kochi, Kerala 683503, India",683503,Kanayannur,Ernakulam,KERALA,10.0582879625,76.337153153125
291,418,"XXX7+GXF, Edappally - Panvel Hwy, Kerala 676508, India",676508,Tirurangadi,Malappuram,KERALA,11.054313333333331,75.93619846
294,424,"Kerala, India",682002,Kochi,Ernakulam,KERALA,9.957255232894736,76.25402236842105
300,432,"XCVM+QPG, Aikaranad North, Kerala 682310, India",682310,Kunnathunad,Ernakulam,KERALA,9.98790642,76.430152955
302,435,"Project Colony Road, Industrial Development Area, Aroor, Aroor gram panchayat, Kochi, Kerala 688534, India",688534,Cherthla,Alappuzha,KERALA,9.871729377142858,76.30438504
303,436,"National Highway 47, Chandiroor, Kerala 688535, India",688535,Cherthala,Alappuzha,KERALA,9.8564922,76.32294531666666
306,439,"B.7, HMT Rd, Industrial Estate, P.O, Kalamassery, Kochi, Kerala 683503, India",683503,Kanayannur,Ernakulam,KERALA,10.0582879625,76.337153153125
312,447,"23G4+J3V, Malappuram, Kerala 676528, India",676528,Tirurangadi,Malappuram,KERALA,11.029406320930232,76.03106219069767
314,450,"Illikkal Kallu, Illikkal Kallu Rd, Moonnilavu, Poonjar Vadakkekara, Kerala 686586, India",686586,Meenachil,Kottayam,KERALA,9.7493429375,76.78570731875
316,452,"Sakthikulangara, Kollam, Kerala 691581, India",691581,Kollam,Kollam,KERALA,8.928226436363635,76.54678488181818
318,454,"W779+J78, Nambiapuram Rd, Palluruthy, Kochi, Kerala 682006, India",682006,Kochi,Ernakulam,KERALA,9.917652551851852,76.27326455925926
321,458,"35/2265A, Infra House, BC Lane, Church Rd, Pallinada, Palarivattom, Kochi, Kerala 682025, India",682025,Ernakulam,Ernakulam,KERALA,10.000372668965516,76.30783643448275
322,459,"XVI/235, Choornikkara, Aluva, Kerala 683106, India",683106,Aluva,Ernakulam,KERALA,10.080344491666668,76.34267441666667
323,460,"3W93+54W, Chemmad-Thalappara Rd, Muttichira, Moonniyur, Kerala 676311, India",676311,Tirurangadi,Malappuram,KERALA,11.06098252,75.89344396
324,461,"V8P2+375, Aroor gram panchayat, Kochi, Kerala 688534, India",688534,Cherthla,Alappuzha,KERALA,9.871729377142858,76.30438504
326,463,"Kanjirakkad, Perumbavoor, Kerala 683543, India",683543,Kunnathunad,Ernakulam,KERALA,10.1228594125,76.48358803125
328,465,"SN Junction , Kayal Road Muhamma, J988+P9V, Post, Aryakara, Alappuzha, Muhamma, Kerala 688525, India",688525,Cherthala,Alappuzha,KERALA,9.619357622727271,76.35883995454545
335,482,"6HWM+972, Kochalummoodu, Vettiyar, Mavelikara, Kerala 690108, India",690108,Mavelikkara,Alappuzha,KERALA,9.249809575,76.5772071375
336,483,"F8PQ+R47, Municipal Stadium Ward, Vellakkinar, Alappuzha, Kerala 688011, India",688011,Ambalapuzha,Alappuzha,KERALA,9.494271704545454,76.34375952727272
340,490,"Kalavamkodam Post Office, Thankey Jn. - Saktheeshwaram, Alappuzha, Kerala 688524, India",688524,Cherthala,Alappuzha,KERALA,9.6891011625,76.33285069583334
343,496,"Thanneermukkom Alleppey, Verungumchuvad, Cherthala, Thanneermukkom, Kerala 688527, India",688527,Cherthala,Alappuzha,KERALA,9.663949954545457,76.37130390909091
344,497,"V7PW+VQF, Aroor gram panchayat, Kochi, Kerala 688534, India",688534,Cherthla,Alappuzha,KERALA,9.871729377142858,76.30438504
349,502,"Industrial development Plot, Poovanthuruthu, Kottayam, Kerala 686012, India",686012,Kottayam,Kottayam,KERALA,9.54856711111111,76.52230786666667
350,503,"CCSB Rd, Kodiveedu, Alappuzha, Kerala 688001, India",688001,Ambalapuzha,Alappuzha,KERALA,9.49638391904762,76.33209264761905
351,504,"10°08'13. 76°27'43.0""E, 3rd Cross Road, Vallom, Ezhattumugham, Chelamattom part, Kerala 683550, India",683550,Kunnathunad,Ernakulam,KERALA,10.156458604347826,76.44930727391304
352,505,"5F22+6XR, opposite Reliance Petrol Pump, P.O, Okkal, Kalady, Ernakulam, Kerala 683550, India",683550,Kunnathunad,Ernakulam,KERALA,10.156458604347826,76.44930727391304
362,524,"XPM5+V56, Pezhookonam, Cheerankavu, Kollam, Kerala 691505, India",691505,Kottarakkara,Kollam,KERALA,8.989406912745098,76.7210242754902
364,528,"National Highway Bye Pass, Kannadi Kadu Service Rd, Adjacent to Hotel Wyte Fort, Jaya Nagar, Maradu, Kochi, Kerala 682304, India",682304,Ernakulam,Ernakulam,KERALA,9.938877706666666,76.32558967666667
366,530,"Kaipattoor, Mekalady, Kalady, Kerala 683574, India",683574,Aluva,Ernakulam,KERALA,10.182817160958905,76.45845344931507
370,534,"Door No. 39/1607, Maria Complex, Kannamthottathil Road, Valanjambalam, Eroor Rd, Kappattikavu, Eroor North, Eroor, Kochi, Kerala 682306, India",682306,Ernakulam,Ernakulam,KERALA,9.968037122972971,76.33532464099099
371,535,"C942+67H, Neerkunnam, Vandanam, Kerala 688005, India",688005,Ambalappuzha,Alappuzha,KERALA,9.40768399,76.351707025
374,541,"Thrissur, Kerala, India",688534,Cherthla,Alappuzha,KERALA,9.871729377142858,76.30438504
376,544,"Kannan Devan Hills, Kerala, India",686012,Kottayam,Kottayam,KERALA,9.54856711111111,76.52230786666667
385,563,"Basin Rd, Marine Drive, Ernakulam, Kochi, Kerala 682031, India",682031,Ernakulam,Ernakulam,KERALA,9.99692354,76.27468644
387,565,"Chanthapallam, Cheriakadavu, Kannamaly, Kochi, Kerala 682008, India",682008,Kochi,Ernakulam,KERALA,9.869597658064515,76.26596289354838
389,567,"M8QW+X2C, Nedumbrakkad, Alleppey, Cherthala, Kerala 688524, India",688524,Cherthala,Alappuzha,KERALA,9.6891011625,76.33285069583334
390,568,"Poonthope Ward, Rahul Nivas, Kommady, Alappuzha, Aryad South, Kerala 688006, India",688006,Ambalapuzha,Alappuzha,KERALA,9.525584704,76.338968536
391,570,"Kerala, India",686012,Kottayam,Kottayam,KERALA,9.54856711111111,76.52230786666667
392,571,"Kerala, India",688524,Cherthala,Alappuzha,KERALA,9.6891011625,76.33285069583334
393,572,"G89H+M6C, Kommady, Kaichoondi, Alappuzha, Aryad South, Kerala 688008, India",688008,Ambalapuzha,Alappuzha,KERALA,9.521471733333334,76.3244164
394,573,"Kerala, India",688534,Cherthla,Alappuzha,KERALA,9.871729377142858,76.30438504
395,574,"VHPR+QVM, Parameswar Nagar, Kollam, Kerala 691001, India",691001,Kollam,Kollam,KERALA,8.886722971739129,76.59831395
397,576,"F8WJ+464, CCNB Rd, Market Ward, Alappuzha, Kerala 688001, India",688001,Ambalapuzha,Alappuzha,KERALA,9.49638391904762,76.33209264761905
400,579,"28X9+FFJ, Salem-Ernakulam Highway, South Kalamassery, Kalamassery, Kochi, Kerala 682039, India",682039,Ernakulam,Ernakulam,KERALA,10.004646666666668,76.34727148333334
404,583,"Uliyakovil West, Uliyakovil, Kollam, Kerala 691019, India",691019,Kollam,Kollam,KERALA,8.903712925,76.613172375
409,590,"ARWA-B-29, Vishwam Nagar, Palluruthy, Kochi, Kerala 682006, India",682006,Kochi,Ernakulam,KERALA,9.917652551851852,76.27326455925926
410,591,"59M9+8X8, Angamaly South, Angamaly, Kerala 683573, India",683573,Aluva,Ernakulam,KERALA,10.180255566666666,76.38579883333334
411,592,"No. 1/511-A, 47, Old NH17, Kundannoor, Maradu, Ernakulam, Kochi, Kerala 682304, India",682304,Ernakulam,Ernakulam,KERALA,9.938877706666666,76.32558967666667
413,594,"mookkannoor, Angamaly, Mookkannoor, Kerala 683577, India",683577,Aluva,Ernakulam,KERALA,10.236465032954545,76.41597145568181
414,595,"Cholayil Tower, Parappur, Main Rd, Kottakkal, Kerala 676503, India",676503,Tirur,Malappuram,KERALA,10.998304046031746,76.01255696507937
415,597,"Kottakkal, Kerala, India",688534,Cherthla,Alappuzha,KERALA,9.871729377142858,76.30438504
416,598,"KINFRA FOOD PROCESSING PARK PLOT NO. 13-A & 12-B, Kakkanchery, Kerala 673635, India",673635,Tirurangadi,Malappuram,KERALA,51.479168,118.8666109
418,602,"Kakkodu, Punalur, Kerala 691331, India",691331,Pathanapuram,Kollam,KERALA,9.0145371,76.94054313
419,603,"18/24, Thoppumpady, Kochi, Kerala 682005, India",682005,Kochi,Ernakulam,KERALA,9.940253061111113,76.25960161388889
420,604,"Kuthiathodu, Kodamthuruth, Kerala, India",688534,Cherthla,Alappuzha,KERALA,9.871729377142858,76.30438504
421,605,"Kuttanad, Kuttanad Taluk, Kerala",688534,Cherthla,Alappuzha,KERALA,9.871729377142858,76.30438504
422,606,"2853+PHQ Kuttukaran Centre, Mamangalam - Anchumana Temple Rd, Sonia Nagar, Edappally, Kochi, Kerala 682025, India",682025,Ernakulam,Ernakulam,KERALA,10.000372668965516,76.30783643448275
426,612,"school padi, Pathapiriyam, Manjeri, Kerala 676123, India",676123,Ernad,Malappuram,KERALA,11.159140234246577,76.13659382465754
427,615,"Synagogue Ln, Jew Town, Kappalandimukku, Mattancherry, Kochi, Kerala 682002, India",682002,Kochi,Ernakulam,KERALA,9.957255232894736,76.25402236842105
429,620,"Industrial Estate, South Kalamassery, Kalamassery, Industrial Estate, South Kalamassery, Kalamassery, Kochi, Kerala 683104, India",683104,Kanayannur,Ernakulam,KERALA,10.057542963636363,76.31917809090909
434,626,"CMC-3/79H, Madakkan's Building, North of Manorama Junction, Cherthala, Velorvattom, Alappuzha, Cherthala, Kerala 688524, India",688524,Cherthala,Alappuzha,KERALA,9.6891011625,76.33285069583334
435,627,"34/1000, Old NH 47, Edappally Junction, Nethaji Nagar, Edappally, Kochi, Kerala 682024, India",682024,Ernakulam,Ernakulam,KERALA,10.01888763298969,76.30253450412371
446,648,"Jaihind Nagar Rd, Meprathupady, Vengola, Kerala 683556, India",683556,Kunnathunad,Ernakulam,KERALA,10.083125960465116,76.47373215813954
447,649,"Old Market Rd, Angamaly, Kerala 683572, India",683572,Paravur,Ernakulam,KERALA,10.193383310687024,76.38335938931299
448,651,"HB-07, Panampilly Nagar Ave, Main Avenue, Panampilly Nagar, Ernakulam, Kochi, Kerala 682036, India",682036,Ernakulam,Ernakulam,KERALA,9.959980295833333,76.29498357083334
453,658,"10/326,, Cheerankavu - Puthoor Rd, Kerala 691505, India",691505,Kottarakkara,Kollam,KERALA,8.989406912745098,76.7210242754902
454,660,"QV5R+P72, Thalapady JHC, Kinya, Kerala 575023, India",688524,Cherthala,Alappuzha,KERALA,9.6891011625,76.33285069583334
457,664,"38J8+87Q, Edayar, Kerala 683502, India",683502,Paravur,Ernakulam,KERALA,10.087692555555556,76.30506273333334
458,665,"South Vellarappilly P O, Aluva, Thekkumbhagom, Kerala 683580, India",683580,Aluva,Ernakulam,KERALA,10.13932176153846,76.40794163846154
459,666,"Maliyekkal, Kerala 676525, India",676525,Nilambur,Malappuram,KERALA,11.176431966666668,76.32507196
460,667,"Mudickal Perumbavoor, Ernakulam, Marampally, Kerala 683547, India",683547,Kunnathunad,Ernakulam,KERALA,10.091076425925923,76.43058615555556
464,671,"Jubilee Rd, Pallippuram, Angadipuram, Perintalmanna, Kerala 679322, India",679322,Perinthalmanna,Malappuram,KERALA,10.977929251428572,76.22854857333334
465,673,"Cherthala - Arookutty Rd, South, Poochakkal, Kerala 688526, India",688526,Cherthala,Alappuzha,KERALA,9.806103366981132,76.35243924716981
469,677,"B-32 KINFRA Industries Park, Nellad, Mazhuvannoor, Kerala 686669, India",686669,Kunnathunad,Ernakulam,KERALA,10.007340951592356,76.52786276496816
470,679,"IV/446A, Valavanadu, Pollathtai P.O, Kalavoor, Alappuzha, Kerala 688522, India",688522,Ambalapuzha,Alappuzha,KERALA,9.572168202777778,76.32190507222222
472,682,"Mayithara, Cherthala, Kerala, India",682002,Kochi,Ernakulam,KERALA,9.957255232894736,76.25402236842105
478,693,"2M5F+H2J, pulinthanam east-cheempara-mavudy Rd, Pothanicad, Kerala 686671, India",686671,Kothamangalam,Ernakulam,KERALA,10.007979096875,76.6938778125
481,697,"Varanam ,Puthanangadi, Krishnakripa, Cherthala, Kerala 688524, India",688524,Cherthala,Alappuzha,KERALA,9.6891011625,76.33285069583334
482,698,"2C5X+758, Engineering College Road, Kadayirippu, Kerala 682311, India",682311,Kunnathunad,Ernakulam,KERALA,9.986131800632911,76.47020598227847
486,702,"KINFRA Rd, Nellad, Mazhuvannoor, Kerala 686669, India",686669,Kunnathunad,Ernakulam,KERALA,10.007340951592356,76.52786276496816
487,704,"Oil Mill Road, Behind S&S Supermarket, SH 16 Erumathala P O, Chunangamveli Aluva, Aramanakkunnu, Edathala, Kochi, Kerala 683112, India",683112,Kunnathunad,Ernakulam,KERALA,10.08974094375,76.39621829375
488,705,"HP9G+9W5, NH183, Vazhoor, Kerala 686504, India",686504,Changanassery,Kottayam,KERALA,9.565303158928572,76.70881164821428
489,707,"ENKE Chambers, Gopala Prabhu Rd, Near MG Road, Shenoys, Kochi, Kerala 682035, India",682035,Ernakulam,Ernakulam,KERALA,9.979283159183671,76.28271734081633
491,709,"Tristen tower, Market Rd, Kombara, Kacheripady, Kochi, Kerala 682018, India",682018,Ernakulam,Ernakulam,KERALA,9.991596463636364,76.28133009181818
495,717,"kallungakadavu, channanicadu, GGWW+Q2V P.O, Kottayam, Kerala 686533, India",686533,Kottayam,Kottayam,KERALA,9.527813314285716,76.54438353571427
498,723,"Azizi Junction, MRT House, Social Welfare Technical School Rd, Aluva, Kerala 683101, India",683101,Aluva,Ernakulam,KERALA,10.095680780412373,76.36233782061856
499,724,"G8RH+V3F, National Highway 47, Pathirappally, Poomkavu, Alappuzha, Kerala 688521, India",688521,Ambalapuzha,Alappuzha,KERALA,9.534986122222222,76.3284427
502,730,"WJ7X+CF9, Thaha Jct Rd, Peroor, Kerala 691004, India",691004,Kollam,Kollam,KERALA,8.904030673684211,76.62197661052632
505,735,"Koovappady, Koodalapad, Perumbavoor, Koovappady, Kerala 683544, India",683544,Kunnathunad,Ernakulam,KERALA,10.166672573758866,76.50774667872341
506,736,"Pavizham Building, Koovappady, Kerala 683544, India",683544,Kunnathunad,Ernakulam,KERALA,10.166672573758866,76.50774667872341
507,737,"Narendran Polymers, Kalluvathukkal - Chirakkara Rd, Kalluvathukkal, Kerala 691578, India",691578,Kollam,Kollam,KERALA,8.833145,76.7392505375
508,738,"Narendran Rubbers, P.O, Chandanathope, Kottamkara, Kerala 691014, India",691014,Kollam,Kollam,KERALA,8.931472825,76.64248342222223
510,740,"near, Vazhicherry Rd, Vazhicherry Ward, Sea View Ward, Alappuzha, Kerala 688001, India",688001,Ambalapuzha,Alappuzha,KERALA,9.49638391904762,76.33209264761905
513,743,"40/4607C, Basin Rd, Market, Kochi, Kerala 682035, India",682035,Ernakulam,Ernakulam,KERALA,9.979283159183671,76.28271734081633
514,744,"WJ6W+JPW, Thaha Jct Rd, TKMC.P.O, Peroor, Kollam, Kerala 691004, India",691004,Kollam,Kollam,KERALA,8.904030673684211,76.62197661052632
515,745,"NAVEEN EXIM TRADE ASSOCIATES, 18/1082-D, Manayil, E.S.I ROAD, E.S.I. Rd, Palluruthy, Kochi, Kerala 682006, India",682006,Kochi,Ernakulam,KERALA,9.917652551851852,76.27326455925926
516,746,"12/597, Jawahar Rd, Koovapadam, Chullickal, Kochi, Kerala 682002, India",682002,Kochi,Ernakulam,KERALA,9.957255232894736,76.25402236842105
520,751,"CC 6/704, Bazaar Rd, Mattancherry, Kochi, Kerala 682002, India",682002,Kochi,Ernakulam,KERALA,9.957255232894736,76.25402236842105
523,758,"23, CSEZ, Kakkanad, Kochi, Kakkanad, Kerala 682030, India",682030,Ernakulam,Ernakulam,KERALA,51.13351584878049,133.02442981463415
526,761,"Nilamel, Kerala, India",682024,Ernakulam,Ernakulam,KERALA,10.01888763298969,76.30253450412371
529,764,"Pongamthanam, Vakathanam, Kerala 686538, India",686538,Changanassery,Kottayam,KERALA,9.508244727272729,76.56852196363636
534,772,"EP 9/92, 93, Lakshan Veedu Rd, Eramalloor, Ezhupunna, Kerala 688537, India",688537,Cherthala,Alappuzha,KERALA,9.82172572,76.30522974
537,776,"Industrial Development Plot, Nethaji Road, HG2H+43R, Poovanthuruthu, Kottayam, Kerala 686012, India",686012,Kottayam,Kottayam,KERALA,9.54856711111111,76.52230786666667
538,777,"X745+PW4, Synagogue Ln, Jew Town, Kappalandimukku, Mattancherry, Kochi, Kerala 682002, India",682002,Kochi,Ernakulam,KERALA,9.957255232894736,76.25402236842105
540,780,"29Q4+XG6, Kangarappady, Kochi, Kerala 682021, India",682021,Ernakulam,Ernakulam,KERALA,10.029233765060242,76.3353045433735
543,787,"A. S. Road, Kommady, Kaichoondi, Alappuzha, Aryad South, Kerala 688007, India",688007,Ambalapuzh A,Alappuzha,KERALA,9.510326070833331,76.3268778625
552,805,"East of NH, Pathirappally, Aikyabharatham, Alappuzha, Kerala 688521, India",688521,Ambalapuzha,Alappuzha,KERALA,9.534986122222222,76.3284427
554,807,"Pandikkad, Kerala 676521, India",676521,Ernad,Malappuram,KERALA,11.106106162790695,76.21800619534883
555,808,"17/34, Kuttoolangadi - Parammal Rd, Azhinjilam, Ramanattukara, Kozhikode, Kerala 673632, India",673632,Ernad,Malappuram,KERALA,51.5183605,118.3310501
556,810,"4CXG+Q99, Kanjoor, Kerala 683575, India",683575,Aluva,Ernakulam,KERALA,10.138994753191488,76.43064241702128
558,815,"N.H 17, Peruvaram Rd, near KALLARAKKAL TEMPLE, North Paravur, Kerala 683513, India",683513,Paravur,Ernakulam,KERALA,10.134285372463768,76.23096863043479
559,816,"Plassanal Pravithanam Rd, Nariyanganam, Kerala 686579, India",686579,Meenachil,Kottayam,KERALA,9.712446453333332,76.75880779333333
560,817,"Kochi,, V7PW+8X2, Aroor gram panchayat, Kochi, Kerala 688534, India",688534,Cherthla,Alappuzha,KERALA,9.871729377142858,76.30438504
565,823,"W9RF+FRJ, Thiruvankulam - Chottanikkara Rd, Thrippunithura, Thiruvankulam, Kochi, Kerala 682305, India",682305,Kanayannur,Ernakulam,KERALA,9.939008104761903,76.37087710158731
566,826,"HGQG+4R8, Vellapally Ln, Eerayil Kadavu, Kottayam, Kerala 686004, India",686004,Kottayam,Kottayam,KERALA,9.58203488,76.54092101
570,831,"Mini Industrial Estate, Manarcad, Kottayam, Manarcadu, Kerala 686019, India",686019,Kottayam,Kottayam,KERALA,9.592533289090907,76.58230555090908
573,836,"Valavanadu, P.O, Kalavoor, Alappuzha, Kerala 688522, India",688522,Ambalapuzha,Alappuzha,KERALA,9.572168202777778,76.32190507222222
574,838,"Ailara, Anchal, Kollam, Ayilara, Kerala 691001, India",691001,Kollam,Kollam,KERALA,8.886722971739129,76.59831395
575,839,"AS Road, 688 007, Kommady, Thumpoly, Alappuzha, Aryad South, Kerala 688008, India",688008,Ambalapuzha,Alappuzha,KERALA,9.521471733333334,76.3244164
579,846,"Poilakada Rd, Asramam, Kollam, Kerala 691001, India",691001,Kollam,Kollam,KERALA,8.886722971739129,76.59831395
583,853,"Kinfra Hi-Tech Park Main Rd, HMT Colony, North Kalamassery, HMT Kalamassery, Kochi, Kerala 683503, India",683503,Kanayannur,Ernakulam,KERALA,10.0582879625,76.337153153125
586,857,"R8Q5+8HG, Salem - Kochi Hwy, Chandiroor, Kerala 688535, India",688535,Cherthala,Alappuzha,KERALA,9.8564922,76.32294531666666
587,858,"Pallipuram p.o, Pallippuram Thycattussery Road, Pallipuram, Kerala 688541, India",688541,Cherthala,Alappuzha,KERALA,9.742432095238096,76.36193387142858
589,860,"R8F4+6MQ, Rd, Neendakara, Eramalloor, Ezhupunna, Kerala 688537, India",688537,Cherthala,Alappuzha,KERALA,9.82172572,76.30522974
590,861,"Premier Marine Foods, V835+8C7, National Highway 47, Chandiroor, Kochi, Kerala 688535, India",688535,Cherthala,Alappuzha,KERALA,9.8564922,76.32294531666666
593,864,"23/1804, Binny Rd, Vishwam Nagar, Palluruthy, Kochi, Kerala 682006, India",682006,Kochi,Ernakulam,KERALA,9.917652551851852,76.27326455925926
595,866,"X83H+P32, SH15, Chambakkara, Upasana Nagar, Vyttila, Kochi, Kerala 682304, India",682304,Ernakulam,Ernakulam,KERALA,9.938877706666666,76.32558967666667
600,875,"VI/35, Jew Town, Kappalandimukku, Mattancherry, Kochi, Kerala 682002, India",682002,Kochi,Ernakulam,KERALA,9.957255232894736,76.25402236842105
601,876,"No: 3, Balaji Street Bypass Road, M.M.C.Colony, MGM Nagar, Avaniyapuram, Tamil Nadu 12, India",688524,Cherthala,Alappuzha,KERALA,9.6891011625,76.33285069583334
605,880,"271/CMC 5, Nedumprakkad, P85X+MC8, Cherthala, Kerala 688524, India",688524,Cherthala,Alappuzha,KERALA,9.6891011625,76.33285069583334
606,881,"4F2Q+7GR, Vattakattupady, Perumbavoor, Kerala 683542, India",683542,Kunnathunad,Ernakulam,KERALA,10.114937405454544,76.47808056363637
612,888,"Beach Road, Valanjavazhy, Kerala 688005, India",688005,Ambalappuzha,Alappuzha,KERALA,9.40768399,76.351707025
615,893,"39PM+XQ2, Sanjo Gardens, Kulakkad, Kerala 683112, India",683112,Kunnathunad,Ernakulam,KERALA,10.08974094375,76.39621829375
618,897,"VHGX+VFG, KP Appan Rd, Kilikollore.P.O, Mundakkal Village, Kollam, Kerala 691001, India",691001,Kollam,Kollam,KERALA,8.886722971739129,76.59831395
619,898,"R8V5+M94, Chandiroor, Kerala 688535, India",688535,Cherthala,Alappuzha,KERALA,9.8564922,76.32294531666666
621,900,"Airapuram, Kerala 683556, India",683556,Kunnathunad,Ernakulam,KERALA,10.083125960465116,76.47373215813954
622,901,"Mattathil Muhamma, Aryakara, Alappuzha, Muhamma, Kerala 688525, India",688525,Cherthala,Alappuzha,KERALA,9.619357622727271,76.35883995454545
623,902,"W74W+75F, Aroor Thoppumpady Rd, NH 47, Bakery, Edakochi, Kochi, Kerala 682010, India",682010,Kochi,Ernakulam,KERALA,9.9107678,76.29057865833333
625,905,"22/1377, Old NH, Edakochi, Kochi, Kerala 682010, India",682010,Kochi,Ernakulam,KERALA,9.9107678,76.29057865833333
629,909,"G8CJ+JX3, Thalavady, Thiruvilak, Vyasapuram, Alappuzha, Aryad South, Kerala 688008, India",688008,Ambalapuzha,Alappuzha,KERALA,9.521471733333334,76.3244164
632,914,"Sai Buildings, Convent Road, T.D. Road, Convent Junction, Near Laboratory Junction, Shenoys, Kochi, Kerala 682011, India",682011,Ernakulam,Ernakulam,KERALA,9.989242117391305,76.29452373188406
636,923,"5VHR+J8C, Neelangoth, Kerala 673637, India",673637,Ernad,Malappuram,KERALA,11.173863454285714,75.90456773285715
637,924,"V7P6+FFH, SH66, Cheriakadavu, Kannamaly, Chellanam, Kochi, Kerala 682008, India",682008,Kochi,Ernakulam,KERALA,9.869597658064515,76.26596289354838
639,926,"WJ7W+J26, Peroor, Kottamkara, Kerala 691005, India",691005,Kollam,Kollam,KERALA,8.91188756590909,76.63882659886363
640,927,"Vikas Rd, Karuvelipady, Thoppumpady, Kochi, Kerala 682002, India",682002,Kochi,Ernakulam,KERALA,9.957255232894736,76.25402236842105
642,929,"Binanipuram, Edayar, Dubai, Kerala 683502, India",683502,Paravur,Ernakulam,KERALA,10.087692555555556,76.30506273333334
646,934,"W7M8+3R3, Thoppumpady, Kochi, Kerala 682005, India",682005,Kochi,Ernakulam,KERALA,9.940253061111113,76.25960161388889
647,935,"Aroor gram panchayat, Kochi, Kerala 688534, India",688534,Cherthla,Alappuzha,KERALA,9.871729377142858,76.30438504
648,936,"Sakthikulangara North, Kollam, Kerala 691581, India",691581,Kollam,Kollam,KERALA,8.928226436363635,76.54678488181818
650,939,"Ettumanoor, Kerala 686631, India",686631,Kottayam,Kottayam,KERALA,9.673597835897436,76.55975298397436
651,940,"Pallichal Rd, parry junction, Thoppumpady, Kochi, Kerala 682005, India",682005,Kochi,Ernakulam,KERALA,9.940253061111113,76.25960161388889
652,941,"Neelamperoor - Kavalam Rd, Kavalam, Eara, Kerala 686534, India",686534,Kuttanad,Alappuzha,KERALA,9.499139,76.50628865625
656,948,"CHINGOLI, P.O,KARTHIKAPALLY, Haripad, Karthikapally, Kerala 690532, India",690532,Karthikappally,Alappuzha,KERALA,9.244080327272728,76.45276533636364
659,951,"XII/293, Off, Chithrappuzha-Ponjassery Rd, Kizhakkambalam, Ernakulam, Kerala 683562, India",683562,Aluva,Ernakulam,KERALA,10.034164772289158,76.42900358072289
667,963,"Eriyad, Porur, Kerala 679328, India",679328,Nilambur,Malappuram,KERALA,11.18633303508772,76.23256802105263
669,965,"Kakkanad, 7/838(B, Seaport - Airport Rd, Vidya Nagar Colony, Thrikkakara, Kochi, Kerala 682021, India",682021,Ernakulam,Ernakulam,KERALA,10.029233765060242,76.3353045433735
671,970,"Door number VI, 26, Jew Town Rd, Jew Town, Kappalandimukku, Mattancherry, Kochi, Kerala 682002, India",682002,Kochi,Ernakulam,KERALA,9.957255232894736,76.25402236842105
672,971,"Cherthala, Kerala, India",682024,Ernakulam,Ernakulam,KERALA,10.01888763298969,76.30253450412371
678,981,"V834+2GJ, Chandiroor, Kerala 688535, India",688535,Cherthala,Alappuzha,KERALA,9.8564922,76.32294531666666
680,983,"6/207, AB Salem Rd, Jew Town, Kappalandimukku, Mattancherry, Kochi, Kerala 682002, India",682002,Kochi,Ernakulam,KERALA,9.957255232894736,76.25402236842105
686,992,"Perumanoor P.K.Road, Chacola Colony, Thevara, Kochi, Kerala 682015, India",682015,Ernakulam,Ernakulam,KERALA,9.948697107692308,76.29266132307693
688,997,"P2MW+H75, Changaramkulam, Kerala 679591, India",679591,Ponnani,Malappuram,KERALA,10.73268803809524,76.05281176666666
692,1003,"Decent Jun, Palathara, Kollam, Kerala 691577, India",691577,Kollam,Kollam,KERALA,8.896176114285716,76.66051566785714
693,1004,"A-20, Mangadu Rd, Mangad, Kollam, Kerala 691015, India",691015,Kollam,Kollam,KERALA,8.910343165384615,76.6223384
694,1005,"Vyloppilly Ln, Azad Road, Kaloor, Ernakulam, Kerala 682017, Kathrikadavu, Kaloor, Ernakulam, Kochi, Kerala 682017, India",682017,Ernakulam,Ernakulam,KERALA,9.994298565853658,76.29345620243902
695,1006,"WJFQ+R27, Kilikkollur, Chandanathope, Kottamkara, Kerala 691004, India",691004,Kollam,Kollam,KERALA,8.904030673684211,76.62197661052632
696,1007,"P.O. Cherthala, S.N.Puram, Cherthala, Kanjikkuzhi, Kerala 688582, India",688582,Cherthala,Alappuzha,KERALA,9.632050252,76.314780238
697,1008,"1572, S Thamaraparambu Rd, Thamaraparambu, Fort Kochi, Kochi, Kerala 682001, India",682001,Kochi,Ernakulam,KERALA,9.961975513432836,76.24336774328359
699,1011,"X78M+P3P, Paliyam Rd, Pallimukku, Ernakulam, Kochi, Kerala 682016, India",682016,Ernakulam,Ernakulam,KERALA,9.965396735294116,76.28713604901961
700,1012,"Mannam Rd, Changanassery, Kerala 686102, India",686102,Changanassery,Kottayam,KERALA,9.43689048275862,76.53501334137931
713,1032,"2PX7+7GC, Puthoor, Kerala 691507, India",691507,Kottarakkara,Kollam,KERALA,9.043139252830189,76.7161006773585
714,1034,"2PQ6+2JG, Thekkumpuram Puthoor PO Kottarakara, Puthoor, Kerala 691507, India",691507,Kottarakkara,Kollam,KERALA,9.043139252830189,76.7161006773585
716,1037,"St.Mary's Cashew Factory, Kottarakkara Sasthamcotta Rd, Puthoor, Kerala 691507, India",691507,Kottarakkara,Kollam,KERALA,9.043139252830189,76.7161006773585
717,1039,"2X3J+7GF, Kollam - Tenkasi Rd, Edamon Sathram, Edamon, Kerala 691307, India",691307,Pathanapuram,Kollam,KERALA,8.991363025,76.993489925
718,1040,"WP95+FRF, Nallila Rd, Puliyila, Kerala 691515, India",691515,Kollam,Kollam,KERALA,8.927581720930233,76.71007295116279
727,1051,"383G+HXF, Kairali Nagar, South Kalamassery, HMT Kalamassery, Kochi, Kerala 682022, India",682022,Ernakulam,Ernakulam,KERALA,10.045582269230769,76.34736526153846
733,1059,"Pandit Karuppan Rd, Mattummal Junction, Mattummal, Thevara, Kochi, Kerala 682013, India",682013,Ernakulam,Ernakulam,KERALA,9.939321175,76.29993070833333
737,1065,"5FF3+V99, Mekalady, Kalady, Kerala 683574, India",683574,Aluva,Ernakulam,KERALA,10.182817160958905,76.45845344931507
742,1070,"3rd Floor, Syda Building,Kochi, Kaloor - Kadavanthara Rd, Kaloor, Ernakulam, Kochi, Kerala 682017, India",682017,Ernakulam,Ernakulam,KERALA,9.994298565853658,76.29345620243902
746,1076,"Aryakara, Muhamma, Kerala 688525, India",688525,Cherthala,Alappuzha,KERALA,9.619357622727271,76.35883995454545
747,1077,"Industrial Development Plot, PO, Poovanthuruthu, Kottayam, Kerala 686012, India",686012,Kottayam,Kottayam,KERALA,9.54856711111111,76.52230786666667
748,1078,"ID Plot, Poovanthuruthu, Kottayam, Kerala 686012, India",686012,Kottayam,Kottayam,KERALA,9.54856711111111,76.52230786666667
750,1081,"FIRST FLOOR, TVJ ESTATE, 1516E NHG LANE, LPS Rd, Ponnurunni, Vyttila, Kochi, Kerala 682019, India",682019,Ernakulam,Ernakulam,KERALA,9.96996995974026,76.31541058961038
751,1082,"Kinfra Biotechnology And Industrial Zone, Medical College - NAD Road, HMT Colony, North Kalamassery, Kalamassery, Kalamassery, Kochi, Kochi, Kerala 683503, India",683503,Kanayannur,Ernakulam,KERALA,10.0582879625,76.337153153125
752,1083,"Thalavady Rd, Thalavady, Aikyabharatham, Alappuzha, Aryad South, Kerala 688006, India",688006,Ambalapuzha,Alappuzha,KERALA,9.525584704,76.338968536
753,1085,"3GHV+626, Methala, Rayamangalam, Kerala 683545, India",683545,Kunnathunad,Ernakulam,KERALA,10.109719963636364,76.52310976666666
755,1087,"Tamil Nadu, India",688534,Cherthla,Alappuzha,KERALA,9.871729377142858,76.30438504
756,1088,"KP Road, WJ5C+95H, Kilikolloor, Mangad, Kollam, Kerala 691004, India",691004,Kollam,Kollam,KERALA,8.904030673684211,76.62197661052632
757,1089,"HG2G+QPW, Unnamed Road, Poovanthuruthu, Kerala 686012, India",686012,Kottayam,Kottayam,KERALA,9.54856711111111,76.52230786666667
758,1090,"X759+6R8, Willingdon Island, Kochi, Kerala 682003, India",682003,Kochi,Ernakulam,KERALA,9.960447846153846,76.27093469230769
760,1095,"Pattanakad, P.O, Cherthala, Pattanakkad, Kerala 688531, India",688531,Cherthala,Alappuzha,KERALA,9.725622914130437,76.31563821847826
761,1096,"59RJ+3WP, Unnamed Road, Angamaly, Kerala 683572, India",683572,Paravur,Ernakulam,KERALA,10.193383310687024,76.38335938931299
767,1105,"V7QW+9J8, Aroor gram panchayat, Kochi, Kerala 688534, India",688534,Cherthla,Alappuzha,KERALA,9.871729377142858,76.30438504
771,1112,"R8P3+PJM Aroor gram panchayat, Chandiroor, Kochi, Kerala 688534, India",688534,Cherthla,Alappuzha,KERALA,9.871729377142858,76.30438504
775,1120,"2nd Floor, Cherupushpam Building, Near ICICI Bank, Opp M. G. Road, Shipyard Quarters Road, Cheriyakadavanthra, Atlantis, Ravipuram, Panampilly Nagar, Kochi, Kerala 682015, India",682015,Ernakulam,Ernakulam,KERALA,9.948697107692308,76.29266132307693
776,1121,"Coir Park, Thiruvizha North Road, Mayithara, Cherthala, Cherthala South, Kerala 688539, India",688539,Cherthala,Alappuzha,KERALA,9.66428288888889,76.34121377777778
777,1122,"327G+XWF, Oorakam, Kerala 676519, India",676519,Ernad,Malappuram,KERALA,11.05071221125,76.03817599
779,1127,"HQCR+3V5, Kanjirappally, Kerala 686507, India",686507,Kanjirappally,Kottayam,KERALA,9.558497567123288,76.79145172602739
781,1129,"WHHV+XV8, Neeravil, Kerala 691601, India",691601,Kollam,Kollam,KERALA,8.937750675,76.6044615125
785,1136,"A.S Road, Kommady, Alappuzha, Aryad South, Kerala 688007, India",688007,Ambalapuzh A,Alappuzha,KERALA,9.510326070833331,76.3268778625
786,1138,"Nilgiris, Tamil Nadu, India",682024,Ernakulam,Ernakulam,KERALA,10.01888763298969,76.30253450412371
787,1139,"VIII/946 Navaratna House Jawahar Road, Pandikudi Rd, Pandikudy, Shanthi Nagar Housing Colony, Mattancherry, Kochi, Kerala 682002, India",682002,Kochi,Ernakulam,KERALA,9.957255232894736,76.25402236842105
798,1155,"P.O,Pin-688525, Muhamma, Kerala 688538, India",688525,Cherthala,Alappuzha,KERALA,9.619357622727271,76.35883995454545
807,1169,"Neendakara, Kollam, Kerala 691582, India",691582,Karunagapally,Kollam,KERALA,8.9475339,76.53934165
808,1171,"5/124-B,Erumathala P.O, Nalamile, Edathala, Aluva, Kerala 683112, India",683112,Kunnathunad,Ernakulam,KERALA,10.08974094375,76.39621829375
809,1172,"Vettoor-cherunniyoor, Kerala, India",682024,Ernakulam,Ernakulam,KERALA,10.01888763298969,76.30253450412371
811,1175,"Manarcadu Thengana Road, Thalappady, Kottayam, Kerala 686019, India",686019,Kottayam,Kottayam,KERALA,9.592533289090907,76.58230555090908
812,1176,"41/2797, Chittoor Rd, Kacheripady, Ernakulam, Kochi, Kerala 682018, India",682018,Ernakulam,Ernakulam,KERALA,9.991596463636364,76.28133009181818
819,1184,"Plot 45/25, MLA Rd, CSEZ, Kakkanad, Kochi, Kakkanad, Kerala 682037, India",682037,Ernakulam,Ernakulam,KERALA,9.997384706451612,76.34072476129032
820,1185,"Kalavamkodam, Cherthala, Cherthala, Kerala 688536, India",688536,Cherthala,Alappuzha,KERALA,9.717896142424244,76.3362480181818
826,1197,"23/575, Kattakayam Rd, Pala, Kerala 686575, India",686575,Meenachil,Kottayam,KERALA,9.719589849206349,76.68607506666666
828,1200,"Kinfra Park Kakkanad, Infopark Campus, Kochi, Kakkanad, Kerala 682042, India",682042,Kanayannur,Ernakulam,KERALA,10.009905475,76.362559725
829,1201,"Zehra Trading Co, Jew Town Road, Kappalandimukku, Mattancherry, Kochi, Kerala, Marakkadavu, Kappalandimukku, Mattancherry, Kochi, Kerala 682002, India",682002,Kochi,Ernakulam,KERALA,9.957255232894736,76.25402236842105
830,1202,"Coimbatore, Tamil Nadu, India",682002,Kochi,Ernakulam,KERALA,9.957255232894736,76.25402236842105
833,1209,"IX/338, Bank Rd, Aluva, Kochi, Aluva, Kerala 683101, India",683101,Aluva,Ernakulam,KERALA,10.095680780412373,76.36233782061856
839,1216,"VI/1017/22,47,EZHAVA SAMAJAM SHOPPING COMPLEX, North Paravur, Kerala 683513, India",683513,Paravur,Ernakulam,KERALA,10.134285372463768,76.23096863043479
840,1217,"WJC8+2J9, Mangad, Kollam, Kerala 691015, India",691015,Kollam,Kollam,KERALA,8.910343165384615,76.6223384
842,1219,"BUILDING NO.13 PEEKEYZ TOWER ROOM NO.130-133 GROUND FLOOR KURIYODAM - AYIKKARAPPADI P.O, Kerala 673637, India",673637,Ernad,Malappuram,KERALA,11.173863454285714,75.90456773285715
849,1230,"Mundakkal, Kollam, Kerala 691001, India",691001,Kollam,Kollam,KERALA,8.886722971739129,76.59831395
850,1231,"Aroor Industrial Estate, NH 47, Aroor gram panchayat, Kochi, Kerala 688534, India",688534,Cherthla,Alappuzha,KERALA,9.871729377142858,76.30438504
859,1243,"Kochi,, V7MW+MJ2, Aroor gram panchayat, Kochi, Kerala 688534, India",688534,Cherthla,Alappuzha,KERALA,9.871729377142858,76.30438504
861,1245,"Nadakadavu Rd, Palluruthy, Kochi, Kerala 682006, India",682006,Kochi,Ernakulam,KERALA,9.917652551851852,76.27326455925926
863,1248,"X7MW+PM5, Kathrikadavu, Kaloor, Ernakulam, Kochi, Kerala 682017, India",682017,Ernakulam,Ernakulam,KERALA,9.994298565853658,76.29345620243902
872,1261,"Edayar, Aluva, Kerala 683502, India",683502,Paravur,Ernakulam,KERALA,10.087692555555556,76.30506273333334
880,1277,"SAYED MOHAMED COMPLEX, 41/711A, C P Ummer Rd, Shenoys, Kochi, Kerala 682035, India",682035,Ernakulam,Ernakulam,KERALA,9.979283159183671,76.28271734081633
884,1281,"Salafi Masjid Cultural Complex, Service Rd, NH Bye Pass, Vyttila, Ernakulam, Kochi, Kerala 682019, India",682019,Ernakulam,Ernakulam,KERALA,9.96996995974026,76.31541058961038
890,1287,"Door No 42, Ayyappan Kovil, 869, Chittoor Rd, Cemetery Junction, Kacheripady, Kochi, Kerala 682018, India",682018,Ernakulam,Ernakulam,KERALA,9.991596463636364,76.28133009181818
893,1292,"Ex. Carrit Moran building 2nd floor Near Ernakulam wharf main gate, AG Milne Rd, Willingdon Island, Kochi, Kerala 682003, India",682003,Kochi,Ernakulam,KERALA,9.960447846153846,76.27093469230769
894,1293,"Ernakulam, Kerala, India",682002,Kochi,Ernakulam,KERALA,9.957255232894736,76.25402236842105
897,1296,"1st Floor, Bank Junction, St. George Complex, Angamaly, Kerala 683572, India",683572,Paravur,Ernakulam,KERALA,10.193383310687024,76.38335938931299
899,1299,"Duro flex, opp. Fire Station, Chungam, Alappuzha, Kerala 688011, India",688011,Ambalapuzha,Alappuzha,KERALA,9.494271704545454,76.34375952727272
902,1305,"RCQ9+3VJ, Keecheri, Kerala 682315, India",682315,Ernakulam,Ernakulam,KERALA,9.858566190983607,76.40145338852459
910,1323,"41/2846, C2, 41, St Vincent Rd, Ernakulam North, Kacheripady, Ernakulam, Kochi, Kerala 682018, India",682018,Ernakulam,Ernakulam,KERALA,9.991596463636364,76.28133009181818
911,1324,"#XIX/4, A12, Kareyeli Vallam Road, Vallom, Perumbavoor, Kerala 683542, India",683542,Kunnathunad,Ernakulam,KERALA,10.114937405454544,76.47808056363637
913,1326,"Saraf House, Marar Rd, Willingdon Island, Kochi, Kerala 682003, India",682003,Kochi,Ernakulam,KERALA,9.960447846153846,76.27093469230769
914,1327,"Door No: 7165/32/817A, Ward 42, Garden Spring, South of Pipeline Jn, P.O, Erna, Palarivattom, Kochi, Kerala 682025, India",682025,Ernakulam,Ernakulam,KERALA,10.000372668965516,76.30783643448275
916,1330,"X78X+XRC, Kadavanthra Junction, Elamkulam, Kochi, Kerala 682020, India",682020,Ernakulam,Ernakulam,KERALA,9.96861736259542,76.30114694656488
920,1337,"Mini Industrial Estate Koivila, Thevalakkara, Kerala 691590, India",691590,Karunagappally,Kollam,KERALA,8.988204466666668,76.57658943333334
921,1338,"udayamperoor, Kochupally, Udayamperoor, Thrippunithura, Ernakulam, Manakunnam, Kerala 682307, India",682307,Kanayannur,Ernakulam,KERALA,9.8812524175,76.37517342999999
931,1353,"Near private Bus stand , P.M State Highway, Muvattupuzha, XHHP+WC5, Kizhakkekara, Ernakulam, Muvattupuzha, Kerala 686661, India",686661,Muvattupuzha,Ernakulam,KERALA,9.979858823265308,76.58176287020407
934,1357,"Karur, Tamil Nadu, India",686012,Kottayam,Kottayam,KERALA,9.54856711111111,76.52230786666667
936,1359,"PC59+3FV, Vaikom - Vechoor Rd, Thalayazham, Kerala 686607, India",686607,Vaikom,Kottayam,KERALA,9.71175730952381,76.41841635714286
938,1362,"Kanjirappalli Elikkulam Rd, Kanjirapally P.O, Kokkappally, Kanjirappally, Kerala 686507, India",686507,Kanjirappally,Kottayam,KERALA,9.558497567123288,76.79145172602739
940,1364,"Door No. 1, 1st Floor, Kanthy Arcade, Kottankavu - Arakkakadavu Rd, Arakkakadavu, Vennala, Kochi, Kakkanad, Kerala 682028, India",682028,Ernakulam,Ernakulam,KERALA,9.99670085,76.32102778
944,1372,"Kottakkal, Kerala, India",682024,Ernakulam,Ernakulam,KERALA,10.01888763298969,76.30253450412371
945,1373,"Kottakkal, Kerala, India",682002,Kochi,Ernakulam,KERALA,9.957255232894736,76.25402236842105
958,1389,"6/92, Jew Town Rd, Jew Town, Kappalandimukku, Mattancherry, Kochi, Kerala 682002, India",682002,Kochi,Ernakulam,KERALA,9.957255232894736,76.25402236842105
960,1391,"W7J5+G4W, Anamangad, Aliparamba, Kerala 679357, India",679357,Perintalmanna,Malappuram,KERALA,10.944097342307693,76.30212904615384
963,1397,"38P4+R2F, Binanipuram, Edayar, Kochi, Kerala 683502, India",683502,Paravur,Ernakulam,KERALA,10.087692555555556,76.30506273333334
968,1404,"1st Floor, X872+C56 Combine Centre, KP Vallon Rd, Kadavanthra Junction, Giri Nagar, Kadavanthra, Kochi, Kerala 682020, India",682020,Ernakulam,Ernakulam,KERALA,9.96861736259542,76.30114694656488
972,1410,"Malampuzha-I, Kerala, India",682002,Kochi,Ernakulam,KERALA,9.957255232894736,76.25402236842105
975,1413,"Meenachil, Kerala 686575, India",686575,Meenachil,Kottayam,KERALA,9.719589849206349,76.68607506666666
976,1414,"Charamangalam Mayithara.P.O, Kanjikuzhy, Cherthala, Kerala 688539, India",688539,Cherthala,Alappuzha,KERALA,9.66428288888889,76.34121377777778
979,1417,"3HX6+XQJ, Asamannoor - Panichayam - Kottavathil Rd, Panichayam, Asamannoor, Kerala 683549, India",683549,Kunnathunad,Ernakulam,KERALA,10.10500877,76.547910502
982,1420,"Plant II/722/D,, Industrial Estate, Aroor, Aroor gram panchayat, Alleppey, Kochi, Kerala 688534, India",688534,Cherthla,Alappuzha,KERALA,9.871729377142858,76.30438504
983,1421,"40 / 2064-A, Mr. Light Tower Thozhuthinkal lane Anjumana Temple Road, Mamangalam - Anchumana Temple Rd, Sonia Nagar, Edappally, Kochi, Kerala 682024, India",682024,Ernakulam,Ernakulam,KERALA,10.01888763298969,76.30253450412371
985,1423,"Mullassery, Kerala, India",686012,Kottayam,Kottayam,KERALA,9.54856711111111,76.52230786666667
989,1430,"X ray junction, M8GR+FGG, Chakkarakulam, Cherthala, Kerala 688524, India",688524,Cherthala,Alappuzha,KERALA,9.6891011625,76.33285069583334
995,1441,"Ernad Taluk, Plot No 23/A, Inkel City Rd, Panakkad, Malappuram, Kerala 676519, India",676519,Ernad,Malappuram,KERALA,11.05071221125,76.03817599
1000,1450,"Kinfra Industrial Park, Kakkanchery, Kerala 673634, India",673634,Tirurangadi,Malappuram,KERALA,11.14419870909091,75.88203877878787
1001,1451,"Market Landing Rd, Market, Kottayam, Kerala 686001, India",686001,Kottayam,Kottayam,KERALA,9.590939220930233,76.52573586744185
1003,1454,"XF9C+F5W, Aikaranad South, Kerala 682311, India",682311,Kunnathunad,Ernakulam,KERALA,9.986131800632911,76.47020598227847
1012,1469,"PLOT NO.19&20 KSIDC MAGA, INDUSTRIAL GROWTH CENTRE, Food Park Road, Pallipuram, Kerala 688541, India",688541,Cherthala,Alappuzha,KERALA,9.742432095238096,76.36193387142858
1015,1472,"VHWV+89R, Asramam, Kollam, Kerala 691002, India",691002,Kollam,Kollam,KERALA,8.897319366666666,76.59297653333334
1024,1483,"Roy cashew factory, Kundara, Kerala 691515, India",691515,Kollam,Kollam,KERALA,8.927581720930233,76.71007295116279
1025,1484,"22/327,IDA,Angamaly South.P.O, CK Colony, Angamaly South, Angamaly, Kerala 683573, India",683573,Aluva,Ernakulam,KERALA,10.180255566666666,76.38579883333334
1034,1505,"HGQM+9J9, near Lourde Church, Collectorate, Kottayam, Kerala 686002, India",686002,Kottayam,Kottayam,KERALA,9.58903118,76.53411470333333
1037,1508,"3HX5+7HG, Odakkali Nedungapra Krariyely Rd, Odakkali, Kerala 683549, India",683549,Kunnathunad,Ernakulam,KERALA,10.10500877,76.547910502
1049,1526,"Industrial Estate, Mayithara, Cherthala, Alappuzha, J8XP+FGH, 11th Mile, Mayithara, Alappuzha, Cherthala South, Kerala 688536, India",688536,Cherthala,Alappuzha,KERALA,9.717896142424244,76.3362480181818
1061,1541,"St Benedict Rd, Near North Railway Station, Kacheripady, Ernakulam, Kochi, Kerala 682018, India",682018,Ernakulam,Ernakulam,KERALA,9.991596463636364,76.28133009181818
1062,1542,"Mini Muthoottu Tech Tower, opposite Gokulam Park Inn Hotel, Kaloor, Ernakulam, Kochi, Kerala 682017, India",682017,Ernakulam,Ernakulam,KERALA,9.994298565853658,76.29345620243902
1071,1555,"S, Arattukadavu Rd., Industrial Estate, South Kalamassery, Kalamassery, Kochi, Kerala 683104, India",683104,Kanayannur,Ernakulam,KERALA,10.057542963636363,76.31917809090909
1072,1556,"Tamil Nadu, India",682002,Kochi,Ernakulam,KERALA,9.957255232894736,76.25402236842105
1074,1559,"38Q8+6CR, Muppathadom, Edayar, Kerala 683110, India",683110,Paravur,Ernakulam,KERALA,10.106830633333333,76.3292302
1077,1568,"Parambil Buildings, Olassa P. O, Olassa, Kerala 686014, India",686014,Kottayam,Kottayam,KERALA,9.617703522727274,76.47939103181818
1079,1571,"IX/18 C, Kurisungal JN, Kanjirappally, Kottayam, Kanjirappally, Kerala 686507, India",686507,Kanjirappally,Kottayam,KERALA,9.558497567123288,76.79145172602739
1084,1577,"MES Building, Judges Ave, RBI Junction, Kaloor, Kochi, Kerala 682017, India",682017,Ernakulam,Ernakulam,KERALA,9.994298565853658,76.29345620243902
1085,1578,"15A, Biotechnology Zone, Kinfra Hi-Tech Park, HMT Colony, North Kalamassery, Kalamassery, Kochi, Kerala 683503, India",683503,Kanayannur,Ernakulam,KERALA,10.0582879625,76.337153153125
1091,1584,"XII/1429, Market Rd, Nadackal, Erattupetta, Kerala 686121, India",686121,Meenachil,Kottayam,KERALA,9.692869868421052,76.77764492631579
1096,1591,"Theatrumpady Road, 683545, Kuruppampady, Rayamangalam, Kerala 683545, India",683545,Kunnathunad,Ernakulam,KERALA,10.109719963636364,76.52310976666666
1106,1604,"Civil Line Rd, Sonia Nagar, Palarivattom, Kochi, Kerala 682025, India",682025,Ernakulam,Ernakulam,KERALA,10.000372668965516,76.30783643448275
1111,1610,"Poovanthuruthu, Kerala Industrial Development Plot, Poovanthuruthu, Kerala 686012, India",686012,Kottayam,Kottayam,KERALA,9.54856711111111,76.52230786666667
1116,1618,"WJFX+F5J, Peroor, Kottamkara, Kerala 691014, India",691014,Kollam,Kollam,KERALA,8.931472825,76.64248342222223
1117,1619,"Chetticadu, Pathirappally, P O, Thumpoly, Alappuzha, Aryad South, Kerala 688521, India",688521,Ambalapuzha,Alappuzha,KERALA,9.534986122222222,76.3284427
1120,1623,"Anakkara, Kerala, India",682024,Ernakulam,Ernakulam,KERALA,10.01888763298969,76.30253450412371
1121,1624,"594R+3Q2, Nedumbassery, Kerala 683111, India",683111,Aluva,Ernakulam,KERALA,10.153445285714286,76.3904808
1122,1625,"Ground Floor, Anna Building, Next to Benelli, Service Road West, NH 66, Old NH 47, Thykoodam, Vyttila, Ernakulam, Kochi, Kerala 682019, India",682019,Ernakulam,Ernakulam,KERALA,9.96996995974026,76.31541058961038
1125,1629,"Kurichy - Eara - Kavalam Rd, Kurichy, Chingavanam, Kerala 686532, India",686532,Changanassery,Kottayam,KERALA,9.502805928070176,76.51869062982456
1132,1645,"Valanjavazhy, Ambalapuzha, Kerala 688005, India",688005,Ambalappuzha,Alappuzha,KERALA,9.40768399,76.351707025
1138,1654,"No.40, 9603, Chittoor Rd, old mymoon cinema, Pullepady, Kochi, Kerala 682018, India",682018,Ernakulam,Ernakulam,KERALA,9.991596463636364,76.28133009181818
1144,1662,"Vattapparambu, Mallussery, Kerala 683579, India",683579,Paravur,Ernakulam,KERALA,10.180445387272728,76.31635012181819
1150,1673,"Hill Palace Rd, near RCM EYE hospital, Thrippunithura, Ernakulam, Kochi, Kerala 682301, India",682301,Ernakulam,Ernakulam,KERALA,9.946698106896552,76.34776633655173
1152,1675,"Near A.I.M.S, Ponekkara, Edappally, Kochi, Kerala 682041, India",682041,Kanayannur,Ernakulam,KERALA,9.9560633125,76.391855675
1154,1678,"Capital Cashew Exports mangadu,mangadu, po, Mangad, Kollam, Kerala 691015, India",691015,Kollam,Kollam,KERALA,8.910343165384615,76.6223384
1155,1679,"Rubber Park Industrial Estate Airapuram, Valayanchirangara, Kochi, Airapuram, Kerala 683556, India",683556,Kunnathunad,Ernakulam,KERALA,10.083125960465116,76.47373215813954
1156,1680,"5th Floor, Chilton Towers, NH 47, Koonamthai, Edappally, Kochi, Kerala 682024, India",682024,Ernakulam,Ernakulam,KERALA,10.01888763298969,76.30253450412371
1158,1682,"Stadium 33/343, Vellakinar, Ward Rd, Vellakkinar, Alappuzha, Kerala 688001, India",688001,Ambalapuzha,Alappuzha,KERALA,9.49638391904762,76.33209264761905
1163,1687,"W1, 370, Sayed Mohammed Rd, Edavanakkad, Vypin, Kochi, Kerala 682502, India",682502,Kochi,Ernakulam,KERALA,10.091907816666668,76.20725101666666
1166,1690,"389C+89G, East Eloor, Travancore Cochin Chemicals Colony, Kalamassery, Kochi, Kerala 683501, India",683501,Ernakulam,Ernakulam,KERALA,10.065396075,76.305478
1170,1697,"1st Floor, NH Bypass, near QRS, opp. Adidas, Sonia Nagar, Padivattom, Edappally, Kochi, Kerala 682024, India",682024,Ernakulam,Ernakulam,KERALA,10.01888763298969,76.30253450412371
1172,1699,"Edathala, Aluva, Kerala, India",682002,Kochi,Ernakulam,KERALA,9.957255232894736,76.25402236842105
1174,1701,"Peter's Modern Rice Mill, Angamaly South, Angamaly, Kerala 683573, India",683573,Aluva,Ernakulam,KERALA,10.180255566666666,76.38579883333334
1181,1708,"KINFRA Park, Kakkanchery, Kozhikode, Kerala 673635, India",673635,Tirurangadi,Malappuram,KERALA,51.479168,118.8666109
1183,1710,"Blue bell Building, Kuzhikkattumoola - Nilampathinja Mughal Rd, Kalappurakkal, Kusumagiri, Kakkanad, Kerala 682030, India",682030,Ernakulam,Ernakulam,KERALA,51.13351584878049,133.02442981463415
1191,1721,"D.No.6/1209, (Old 7, 324-A, Darusalam Rd, Panayapilly East, Kochangadi, Chullickal, Kochi, Kerala 682002, India",682002,Kochi,Ernakulam,KERALA,9.957255232894736,76.25402236842105
1196,1728,"Power House Rd, Cherthala, Kerala 688524, India",688524,Cherthala,Alappuzha,KERALA,9.6891011625,76.33285069583334
1199,1732,"Door No: 16/275, Aroor gram panchayat, Kochi, Kerala 688537, India",688537,Cherthala,Alappuzha,KERALA,9.82172572,76.30522974
1206,1742,"X755+W37, Star Junction, Mattancherry, Kochi, Kerala 682002, India",682002,Kochi,Ernakulam,KERALA,9.957255232894736,76.25402236842105
1209,1746,"Leela Tower, 3rd Floor, Subhash Chandra Bose Road, Jawahar Nagar Ave, Ponnurunni, Vyttila, Ernakulam, Kochi, Kerala 682019, India",682019,Ernakulam,Ernakulam,KERALA,9.96996995974026,76.31541058961038
1221,1762,"Vallom, Chelamattom part, Kerala 683550, India",683550,Kunnathunad,Ernakulam,KERALA,10.156458604347826,76.44930727391304
1222,1763,"KUNCHARATH, POOCHAKKAL P.O, Cherthala - Arookutty Rd, Poochakkal, Panavally, Kerala 688526, India",688526,Cherthala,Alappuzha,KERALA,9.806103366981132,76.35243924716981
1224,1766,"12, Kollad-Puthuppally Rd, Poovanthuruthu, Kerala 686012, India",686012,Kottayam,Kottayam,KERALA,9.54856711111111,76.52230786666667
1226,1770,"Kalarcode, Punnapra North, Alappuzha, Kerala 688003, India",688003,Ambalapuzha,Alappuzha,KERALA,9.468575348387096,76.33827430967742
1227,1771,"Karur, Tamil Nadu, India",682002,Kochi,Ernakulam,KERALA,9.957255232894736,76.25402236842105
1229,1773,"Chingavanam, Kerala 686531, India",686531,Changanacherry,Kottayam,KERALA,9.5105107,76.52202866666666
1230,1774,"Kerala, India",682024,Ernakulam,Ernakulam,KERALA,10.01888763298969,76.30253450412371
1234,1778,"Kottaram Tower, Payyapilly Rd, Near MG Road, Kacheripady, Kochi, Kerala 682035, India",682035,Ernakulam,Ernakulam,KERALA,9.979283159183671,76.28271734081633
1235,1779,"Cm complex, 2826+4MQ, Kalavath Rd, Palarivattom, Kochi, Kerala 682025, India",682025,Ernakulam,Ernakulam,KERALA,10.000372668965516,76.30783643448275
1237,1784,"11th Mile, Vydiarangadi.P.O., Peringave Rd, Ramanattukara, Kerala 673633, India",673633,Eranad,Malappuram,KERALA,51.5876618,118.4566692
1238,1787,"KULANGARA ROAD, KODAMPUZHA FAROOK COLLEGE, 5RRQ+RW2, PO, Kozhikode, Kerala 673632, India",673632,Ernad,Malappuram,KERALA,51.5183605,118.3310501
1241,1792,"Convent Rd, Chinnakada, Kollam, Kerala 691001, India",691001,Kollam,Kollam,KERALA,8.886722971739129,76.59831395
1245,1798,"Plot No. 26, Kinfra Techno Industrial Park, Chelembra, P.O, Kakkanchery, Malappuram, Kozhikode, Kerala 673636, India",673636,Tirurangadi,Malappuram,KERALA,11.118472538297873,75.8919613468085
1246,1799,"Mampad, Kerala, India",682024,Ernakulam,Ernakulam,KERALA,10.01888763298969,76.30253450412371
1261,1824,"Mooledom, HG3H+89V, Kollad-Puthuppally Rd, Poovanthuruthu, Kerala 686004, India",686004,Kottayam,Kottayam,KERALA,9.58203488,76.54092101
1264,1829,"Binanipuram Road, 38G4+V3P, Muppathadom, Edayar, Kerala 682020, India",682020,Ernakulam,Ernakulam,KERALA,9.96861736259542,76.30114694656488
1266,1831,"NH966A, Kothad, Kochi, Kerala 682027, India",682027,Ernakulam,Ernakulam,KERALA,6.6519492,-72.7346516
1273,1843,"Pallickal, Kerala, India",688524,Cherthala,Alappuzha,KERALA,9.6891011625,76.33285069583334
1275,1846,"27WQ+M57, Chittoor - Cheranallur Rd, Amrita Nagar, Edappally, Ernakulam, Kochi, Kerala 682034, India",682034,Ernakulam,Ernakulam,KERALA,10.050370233333332,76.29097818333334
1277,1850,"12/2, Kaveekunnu, Anthiyalam, Pala, Kerala 686574, India",686574,Meenachil,Kottayam,KERALA,9.722305693333334,76.66728714
1278,1851,"Tanur Madathil Rd, near Stadium, Thazhepalam, Tirur, Kerala 676107, India",676107,Tirur,Malappuram,KERALA,10.9207365,75.915944225
1280,1855,"MES Bus Stop, SH 16, Aluva, Kerala 683112, India",683112,Kunnathunad,Ernakulam,KERALA,10.08974094375,76.39621829375
1282,1857,"Ground Floor, Indo Persian NJK Square, Valanjambalam, Sahodaran Ayyappan Rd, Ravipuram, Ernakulam South, Ernakulam, Kochi, Kerala 682036, India",682036,Ernakulam,Ernakulam,KERALA,9.959980295833333,76.29498357083334
1286,1862,"20, 1007, Nambiapuram Rd, Palluruthy, Kochi, Kerala 682006, India",682006,Kochi,Ernakulam,KERALA,9.917652551851852,76.27326455925926
1290,1868,"3P45+P43, Adisamangalam Temple Rd, Thekkumchery, Kerala 691507, India",691507,Kottarakkara,Kollam,KERALA,9.043139252830189,76.7161006773585
1292,1871,"MIE Mini Industrial Estate, Valavoor, Vallichira, Kerala 686635, India",686635,Meenachil,Kottayam,KERALA,9.750672510714285,76.62233675714285
1297,1882,"11/390A Vishakapuram, Mangalapuram, PO, Kanjikuzhy, Thamarachal, Muhamma, Kerala 688525, India",688525,Cherthala,Alappuzha,KERALA,9.619357622727271,76.35883995454545
1299,1886,"P. H WARD, AS ROAD, Kommady, Alappuzha, Aryad South, Kerala 688001, India",688001,Ambalapuzha,Alappuzha,KERALA,9.49638391904762,76.33209264761905
1309,1902,"Kanjikuzhi, Kottayam, Kerala 686002, India",686002,Kottayam,Kottayam,KERALA,9.58903118,76.53411470333333
1310,1903,"4CXG+C9C, Kanjoor, Kerala 683575, India",683575,Aluva,Ernakulam,KERALA,10.138994753191488,76.43064241702128
1322,1923,"Door No. 49, 1849, Cheranalllur Rd, Ponekkara, PO, Kochi, Kerala 682041, India",682041,Kanayannur,Ernakulam,KERALA,9.9560633125,76.391855675
1327,1929,"Vyabharabavan Bldg. Ground floor NH road, Dt, Puthanathani, Kerala 676552, India",676552,Tirur,Malappuram,KERALA,10.902934205042015,76.05797082941177
1331,1934,"CHX3+3RC, Changanassery Bypass, Kunnakkad, Fathimapuram, Changanassery, Kerala 686101, India",686101,Changanassery,Kottayam,KERALA,9.447470443010753,76.5399100483871
1332,1936,"Thekkady, Kumily, Kerala, India",682024,Ernakulam,Ernakulam,KERALA,10.01888763298969,76.30253450412371
1335,1941,"Tiruppur, Tamil Nadu, India",682002,Kochi,Ernakulam,KERALA,9.957255232894736,76.25402236842105
1336,1942,"WWMP+M2M, Thalakkadathur, Tirur, Kerala 676103, India",676103,Tirur,Malappuram,KERALA,10.922471227333332,75.954607818
1337,1943,"Panthackal - Chirangara Road, Panthackal,, Paduapuram P.O, Angamaly, Kerala 683576, India",683576,Aluva,Ernakulam,KERALA,10.2298903375,76.37638655416666
1340,1946,"34/136 A,C,H Florence, NH Ln, Edappally, Kochi, Kerala 682024, India",682024,Ernakulam,Ernakulam,KERALA,10.01888763298969,76.30253450412371
1341,1947,"United tower 2nd floor .opposit highway hypermarket, Mannarkkad Rd, KSHB Colony, Perintalmanna, Kerala 679322, India",679322,Perinthalmanna,Malappuram,KERALA,10.977929251428572,76.22854857333334
1353,1969,"Palace Rd, near UCO BANK, Changanassery, Aramanapady, Kottayam, Changanassery, Kerala 686101, India",686101,Changanassery,Kottayam,KERALA,9.447470443010753,76.5399100483871
1361,1981,"# Ponnurunni, Convent Road, X8F6+9FM, Near Bank of India, Vyttila, Ernakulam, Kochi, Kerala 682035, India",682035,Ernakulam,Ernakulam,KERALA,9.979283159183671,76.28271734081633
1366,1987,"Chennampilly Ln, Cheranallur, Kochi, Kerala 682034, India",682034,Ernakulam,Ernakulam,KERALA,10.050370233333332,76.29097818333334
1369,1990,"385V+JCW, HMT Colony, North Kalamassery, HMT Kalamassery, Kochi, Kerala 683503, India",683503,Kanayannur,Ernakulam,KERALA,10.0582879625,76.337153153125
1372,1993,"XII/107F, K.K.Paraman memorial Building, Karimpadam Junction, Chennamagalam, Bharanimukku, North Paravur, Chendamangalam, Kerala 683512, India",683512,Paravur,Ernakulam,KERALA,10.17219863,76.23224746
1375,1996,"573R+R6P, Kunnukara, Kerala 683578, India",683578,Paravur,Ernakulam,KERALA,10.155197839473685,76.30713587631578
1377,1998,"I-289/A,M.S. Lane Adivaram, N.A.D.P.O, Aluva - 683 563, Edathala, Kerala 683563, India",683563,Aluva,Ernakulam,KERALA,10.075254055555556,76.36353904444444
1379,2000,"Chengannur, Kerala 689124, India",689124,Chengannur,Alappuzha,KERALA,9.335987914285717,76.59384022857142
1380,2001,"XC62+3W9, Ambalamugal, Kochi, Kerala 682302, India",682302,Kunnathunad,Ernakulam,KERALA,9.974506077777775,76.37953952222222
1382,2003,"V7PX+W8H, Aroor - Thoppumpady Rd, Aroor gram panchayat, Kochi, Kerala 688534, India",688534,Cherthla,Alappuzha,KERALA,9.871729377142858,76.30438504
1385,2007,"Erakari Road Vayalar 7/528 A KALYANI, Vayalar, Kerala 688524, India",688524,Cherthala,Alappuzha,KERALA,9.6891011625,76.33285069583334
1387,2009,"X78R+4XF, S Over Bridge, Ernakulam South, Kochi, Kerala 682016, India",682016,Ernakulam,Ernakulam,KERALA,9.965396735294116,76.28713604901961
1395,2022,"2nd Floor, Chirayath Building, Opp KUFOS UG Ladies Hostel, Vytila Aroor Bye Pass Road, Service Road West, NH 47, NH 66, Madavana, Panangad, Ernakulam, Kochi, Kerala 682506, India",682506,Ernakulam,Ernakulam,KERALA,9.90249192,76.31610951
1396,2024,"Calicut Airport Rd, Padinharathara, Karipur, Kerala 673647, India",673647,Tirurangadi,Malappuram,KERALA,11.1203880375,75.9348672875
1397,2025,"3FW2+WGG, Ponjassery, Kerala 683547, India",683547,Kunnathunad,Ernakulam,KERALA,10.091076425925923,76.43058615555556
1398,2026,"Edappally, Kochi, Kerala 682024, India",682024,Ernakulam,Ernakulam,KERALA,10.01888763298969,76.30253450412371
1401,2030,"Door No: G 2102, Jawaharlal Nehru International Stadium, Jawaharlal Nehru International Stadium, Kaloor, Kochi, Kerala 682017, India",682017,Ernakulam,Ernakulam,KERALA,9.994298565853658,76.29345620243902
1402,2031,"67/977, North Park St Vincent Road, Kacheripadi Ernakulam, North, North Kaloor, Kacheripady, Kochi, Kerala 682018, India",682018,Ernakulam,Ernakulam,KERALA,9.991596463636364,76.28133009181818
1403,2032,"PARSA'S, Building No 828A, PO, opp. Central Coir Research Institute, Kalavoor, Alappuzha, Kerala 688522, India",688522,Ambalapuzha,Alappuzha,KERALA,9.572168202777778,76.32190507222222
1404,2034,"NETTIPADAM ROAD, X78P+RV9, Mahatma Gandhi Rd, Valanjambalam, Ernakulam, Kochi, Kerala 682016, India",682016,Ernakulam,Ernakulam,KERALA,9.965396735294116,76.28713604901961
1407,2038,"Pulluvazhi, 683541, XV/642, Thombra Road, Rayamangalam, Kerala 683547, India",683541,Kunnathunad,Ernakulam,KERALA,10.047371096774194,76.52621409354838
1408,2039,"FFRV+436, Kurichy - Eara - Kavalam Rd, Eara, Kerala 686534, India",686534,Kuttanad,Alappuzha,KERALA,9.499139,76.50628865625
1416,2050,"M8PJ+6X8, Nedumbrakkad, Cherthala, Kerala 688524, India",688524,Cherthala,Alappuzha,KERALA,9.6891011625,76.33285069583334
1420,2057,"near Calicut University, 4VRM+RWV hajiyar valavu, Kozhikode, Thenhipalam, Kerala 673636, India",673636,Tirurangadi,Malappuram,KERALA,11.118472538297873,75.8919613468085
1421,2058,"Sundaram Finance Building, 44C7+7W5, Calicut Rd, Karuvambram, Manjeri, Kerala 676517, India",676517,Ernad,Malappuram,KERALA,11.081878113043478,76.06632696956521
1423,2061,"I D Plot No.90, P.O, Poovanthuruthu, Kottayam, Kerala 686012, India",686012,Kottayam,Kottayam,KERALA,9.54856711111111,76.52230786666667
1426,2064,"Br:XLI/3842,Carmel Buildings, Banerji Rd, Kacheripady, Kochi, Kerala 682018, India",682018,Ernakulam,Ernakulam,KERALA,9.991596463636364,76.28133009181818
1429,2068,"JANITOR EXIM, Bund road, Arakkakadavu, Vennala, Kochi, Kakkanad, Kerala 682028, India",682028,Ernakulam,Ernakulam,KERALA,9.99670085,76.32102778
1430,2069,"Building No. 1/65 B, Near Ramantukara Highschool, Vaidyarangadi, Ramanatukara, Kozhikode, Kerala 673633, India",673633,Eranad,Malappuram,KERALA,51.5876618,118.4566692
1433,2075,"Mini Industrial Estate, Mattoor, Kalady, Kerala 683574, India",683574,Aluva,Ernakulam,KERALA,10.182817160958905,76.45845344931507
1434,2076,"Kc coconut products, Kumminiparamba, Padinharathara, Karipur, Kerala 673638, India",673638,Ernad,Malappuram,KERALA,11.14718034158416,75.96500935445545
1440,2085,"Perinagala, P.O, Pallikkara, Kochi, Kerala 683565, India",683565,Kunnathunad,Ernakulam,KERALA,10.016749102325582,76.41687551860464
1441,2086,"Paliyam Rd, Koottukadu, Chendamangalam, Paliyam, Kerala 683521, India",683521,Paravur,Ernakulam,KERALA,6.4784866,-73.118309
1446,2091,"Bus Stop, Thodaparambu, Pooppani Rd, Perumbavoor, Kerala 683543, India",683543,Kunnathunad,Ernakulam,KERALA,10.1228594125,76.48358803125
1450,2096,"Panichayam Rd, Odakkali, Kerala 683549, India",683549,Kunnathunad,Ernakulam,KERALA,10.10500877,76.547910502
1451,2097,"WJ4C+CG6, Mangad, Kollam, Kerala 691019, India",691019,Kollam,Kollam,KERALA,8.903712925,76.613172375
1452,2098,"Building NO-41, 2371, Medical Centre Rd, Kochi, Chakkalakkal, Palarivattom, Ernakulam, Kochi, Kerala 682028, India",682028,Ernakulam,Ernakulam,KERALA,9.99670085,76.32102778
1453,2099,"Madurai, Tamil Nadu, India",682002,Kochi,Ernakulam,KERALA,9.957255232894736,76.25402236842105
1455,2102,"Canal Rd, near ST.James Church, Chambakkara, Poonithura, Maradu, Kochi, Kerala 682038, India",682038,Ernakulam,Ernakulam,KERALA,9.951825921428572,76.32976080714285
1457,2104,"VII/594, Jews St, Jew Town, Kappalandimukku, Mattancherry, Kochi, Kerala 682002, India",682002,Kochi,Ernakulam,KERALA,9.957255232894736,76.25402236842105
1468,2121,"Palani, Tamil Nadu, India",686012,Kottayam,Kottayam,KERALA,9.54856711111111,76.52230786666667
1476,2134,"688/1, 2nd Floor, Kunjalu's Place, PT Usha Rd, Shenoys, Kochi, Kerala 682011, India",682011,Ernakulam,Ernakulam,KERALA,9.989242117391305,76.29452373188406
1477,2135,"N, Meethiyans Tower, 4/361, North Kalamassery, Kalamassery, Kochi, Kerala 683104, India",683104,Kanayannur,Ernakulam,KERALA,10.057542963636363,76.31917809090909
1478,2136,"Kyomtha Seminary Rd, Thrippunithura, Kochi, Kerala 682305, India",682305,Kanayannur,Ernakulam,KERALA,9.939008104761903,76.37087710158731
1482,2144,"MK Arcade, near Tirurangadi Oriental School, Tirurangadi, Kerala 676306, India",676306,Tirurangadi,Malappuram,KERALA,11.045838703308824,75.92468943676471
1513,2197,"Karukutty P.O,Angamaly,Cochin,Kerala-683576 (Near Sree Krishna Temple), Karukutty, Angamaly, Kerala 683576, India",683576,Aluva,Ernakulam,KERALA,10.2298903375,76.37638655416666
1514,2198,"Synthite Taste Park No. XI 312G, Pancode Near Kolenchery, Kochi, Aikaranad North, Kerala 682310, India",682310,Kunnathunad,Ernakulam,KERALA,9.98790642,76.430152955
1515,2200,"1428028, Kanjiramattom Thalayolaparambu Rd, Gama Junction, Kanjiramattom, Kerala 682315, India",682315,Ernakulam,Ernakulam,KERALA,9.858566190983607,76.40145338852459
1516,2202,"Gujarati Rd, opp: Santhi Lal sweet house, Nalumadam, Mattancherry, Kochi, Kerala 682002, India",682002,Kochi,Ernakulam,KERALA,9.957255232894736,76.25402236842105
1518,2204,"1st floor, inQ Tower, Opp, EMC NH Bypass, Kesaveeyam, Palarivattom, Kochi, Kerala 682025, India",682025,Ernakulam,Ernakulam,KERALA,10.000372668965516,76.30783643448275
1527,2214,"XV/635, MALAMURY, PULLUVAZHI P. O, Perumbavoor, Kerala 683541, India",683541,Kunnathunad,Ernakulam,KERALA,10.047371096774194,76.52621409354838
1528,2215,"W9WG+76J, Kochi - Madurai - Dhanushkodi Rd, Thiruvankulam, Thrippunithura, Kochi, Kerala 682305, India",682305,Kanayannur,Ernakulam,KERALA,9.939008104761903,76.37087710158731
1530,2220,"Vadakkencherry, Kerala, India",686012,Kottayam,Kottayam,KERALA,9.54856711111111,76.52230786666667
1533,2224,"3933+743, Karippassery, North Kalamassery, Kalamassery, Kochi, Kerala 682033, India",682033,Kanayannur,Ernakulam,KERALA,10.0430806875,76.31714245625
1534,2225,"Mudiclal Depot Road, Mudickal, Kerala 683547, India",683547,Kunnathunad,Ernakulam,KERALA,10.091076425925923,76.43058615555556
1536,2228,"Wayanad, Kerala, India",682024,Ernakulam,Ernakulam,KERALA,10.01888763298969,76.30253450412371
1539,2232,"Wayanad, Kerala, India",682002,Kochi,Ernakulam,KERALA,9.957255232894736,76.25402236842105
1547,2246,"27CR+27P, Elamakkara, Kochi, Kerala 682026, India",682026,Ernakulam,Ernakulam,KERALA,10.01621266875,76.288820209375
1549,2248,"5CFM+HQH, Mattoor, Kalady, Kerala 683574, India",683574,Aluva,Ernakulam,KERALA,10.182817160958905,76.45845344931507
1559,2263,"BMK international ,13/725 D pipeline road,Thoppil ,Thrikkakara ,Ernakulam, Pin, Marottichuvadu, Edappally, Kochi, Kerala code :682021, India",682021,Ernakulam,Ernakulam,KERALA,10.029233765060242,76.3353045433735
1562,2270,"Kanjirappally, Kerala 686507, India",686507,Kanjirappally,Kottayam,KERALA,9.558497567123288,76.79145172602739
1564,2273,"Kochangadi Rd, Kochangadi, Chullickal, Kochi, Kerala 682002, India",682002,Kochi,Ernakulam,KERALA,9.957255232894736,76.25402236842105
1565,2274,"Kaichoondi, Alappuzha, Aryad South, Kerala 688006, India",688006,Ambalapuzha,Alappuzha,KERALA,9.525584704,76.338968536
1570,2284,"Perumpanachy Thottakkad Road Thottackad, Perumpanachy, Kerala 686536, India",686536,Changanassery,Kottayam,KERALA,9.4773755375,76.58214364166666
1572,2286,"Pallippuram P. O., Cherthala, Kelamangalam, Alleppey, Kerala 688541, India",688541,Cherthala,Alappuzha,KERALA,9.742432095238096,76.36193387142858
1573,2287,"306, Neospace, KINFRA Techno Industrial Park, Kakkanchery, Kakkanchery, Kerala 673635, India",673635,Tirurangadi,Malappuram,KERALA,51.479168,118.8666109
1574,2288,"kottiyam, NH 47, Kollam, Kottiyam, Kerala 691571, India",691571,Kollam,Kollam,KERALA,8.862876898076923,76.67408270384615
1577,2292,"Kaloor - Kadavanthara Rd, Kathrikadavu, Kaloor, Kochi, Kerala 682017, India",682017,Ernakulam,Ernakulam,KERALA,9.994298565853658,76.29345620243902
1583,2299,"P.O, 1/508, Ponjassery, A M Thomas Rd, Perumbavoor, Ponjassery, Kerala 683547, India",683547,Kunnathunad,Ernakulam,KERALA,10.091076425925923,76.43058615555556
1584,2300,"Golden Plaza, Chittoor Rd, opp. Mymoon Theatre, Padma Junction, Kacheripady, Ernakulam, Kochi, Kerala 682018, India",682018,Ernakulam,Ernakulam,KERALA,9.991596463636364,76.28133009181818
1589,2307,"SRCM MANJERI CENTRE, Ajantha Building, C H Bypass, Kuthukal, Manjeri, Kerala 676121, India",676121,Ernad,Malappuram,KERALA,11.122318839583333,76.11755346666666
1590,2308,"Okkal, Kalady, Chelamattom part, Kerala 683544, India",683544,Kunnathunad,Ernakulam,KERALA,10.166672573758866,76.50774667872341
1592,2310,"18/18, Near BPCL Petrol Pump Puthya Road, Vadagode P.O., Mundanpalam, Kollamkudimugal, Kangarappady, Kochi, Kakkanad, Kerala 682021, India",682021,Ernakulam,Ernakulam,KERALA,10.029233765060242,76.3353045433735
1594,2313,"Factory at :18/789, Development Area, Binanipuram, Edayar, Kochi, Kerala 683502, India",683502,Paravur,Ernakulam,KERALA,10.087692555555556,76.30506273333334
1595,2314,"VI/450, Manickamangalam, Kalady, Kerala 683574, India",683574,Aluva,Ernakulam,KERALA,10.182817160958905,76.45845344931507
1598,2320,"Kakkadampuram, Bus Stop, Kondotty - Tirurangadi Rd, Abdul Rahiman Nagar, Kerala 676305, India",676305,Tirurangadi,Malappuram,KERALA,11.067039103141362,75.96129557801048
1603,2328,"TAK-Industrial Complex Eara, North P.O, Neelamperoor, Kerala 68653, India",688534,Cherthla,Alappuzha,KERALA,9.871729377142858,76.30438504
1604,2329,"Rd, Ashokapuram, Edayapuram, Aluva, Kerala 683101, India",683101,Aluva,Ernakulam,KERALA,10.095680780412373,76.36233782061856
1614,2345,"Nedumbassery, XI/300-B, VIP Road, opp. Cochin International Airport, Kochi, Nedumbassery, Kerala 683572, India",683572,Paravur,Ernakulam,KERALA,10.193383310687024,76.38335938931299
1617,2350,"Machingal, Down Hill, Malappuram, Kerala, India",688534,Cherthla,Alappuzha,KERALA,9.871729377142858,76.30438504
1619,2352,"Salem-Kanyakumari Highway, Service Rd, Karukutty, Angamaly, Kerala 683576, India",683576,Aluva,Ernakulam,KERALA,10.2298903375,76.37638655416666
1623,2358,"W9VF+77R, Temple Road, opp. Public Library, Thrippunithura, Thiruvankulam, Kochi, Kerala 682305, India",682305,Kanayannur,Ernakulam,KERALA,9.939008104761903,76.37087710158731
1625,2362,"Cherthala, plot no:36, KSIDC Mega Food Park, Industrial growth centre, Pallipuram, Kerala 688541, India",688541,Cherthala,Alappuzha,KERALA,9.742432095238096,76.36193387142858
1627,2367,"Anithottam near Bsnl tower, Kanjirappally, Kerala 686507, India",686507,Kanjirappally,Kottayam,KERALA,9.558497567123288,76.79145172602739
1628,2368,"41/1852, Veekshanam Rd, North Kaloor, Kacheripady, Kochi, Kerala 682018, India",682018,Ernakulam,Ernakulam,KERALA,9.991596463636364,76.28133009181818
1629,2369,"Nilgiris, Tamil Nadu, India",682002,Kochi,Ernakulam,KERALA,9.957255232894736,76.25402236842105
1630,2370,"Q8CV+H94, Thycattussery, Kerala 688528, India",688528,Cherthala,Alappuzha,KERALA,9.77657956875,76.34386003125
1633,2375,"3CXM+XFV, Kerala 683547, India",683547,Kunnathunad,Ernakulam,KERALA,10.091076425925923,76.43058615555556
1635,2377,"MANOOR-CHEKANUR, ROAD, KOTTEERI, Vattamkulam, Kerala 679578, India",679578,Ponnani,Malappuram,KERALA,10.795239843181818,76.0287652090909
1637,2381,"AP/XII-157,Chandiroor P O, 688537, Chandiroor, Cherthala, Kerala 688537, India",688537,Cherthala,Alappuzha,KERALA,9.82172572,76.30522974
1652,2405,"Marottichode-Pothiyakkara, Mattoor, Kalady, Kerala 683574, India",683574,Aluva,Ernakulam,KERALA,10.182817160958905,76.45845344931507
1666,2428,"# 368, 4, th cross, Vaiyapuri Nagar, Gandhi Puram, Karur, Tamil Nadu 2, India",682002,Kochi,Ernakulam,KERALA,9.957255232894736,76.25402236842105
1669,2431,"Opp.South Indian Bank, St.John's Dayara Complex, SH 1, Chingavanam, Kottayam, Chingavanam, Kerala 686531, India",686531,Changanacherry,Kottayam,KERALA,9.5105107,76.52202866666666
1676,2444,"15/58, Desom, Aluva, Kerala 683102, India",683102,Aluva,Ernakulam,KERALA,10.120711972131147,76.33862614918033
1680,2452,"Nediyuzhathil Tower, 1333 A, 40, Cannon Shed Rd, Shenoys, Kochi, Kerala 682011, India",682011,Ernakulam,Ernakulam,KERALA,9.989242117391305,76.29452373188406
1681,2453,"XV/1056, Mylavila, Kerala 691302, India",691302,Kollam,Kollam,KERALA,8.855673983333332,76.71191655
1683,2457,"X3XP+P8V, Kerala 676503, India",676503,Tirur,Malappuram,KERALA,10.998304046031746,76.01255696507937
1684,2459,"5CVJ+3GV, Ezhattumugham, Kerala 683574, India",683574,Aluva,Ernakulam,KERALA,10.182817160958905,76.45845344931507
1688,2463,"Calicut Rd, Thurakkal, Manjeri, Kerala 676517, India",676517,Ernad,Malappuram,KERALA,11.081878113043478,76.06632696956521
1696,2477,"ACM Valley Vazhakunnu Pulipadam, Mampad, Kerala 676542, India",676542,Nilambur,Malappuram,KERALA,11.24328006744186,76.19810685581396
1697,2478,"MGP 7, 674, Shanmukhavilasam Road, North, Komalapuram, Aaryad, Mannanchery, Alappuzha, Kerala 688538, India",688538,Mararikulam,Alappuzha,KERALA,9.57088650909091,76.34889931818181
1698,2480,"11/701, Tirur, Thirunavaya, Kerala 676108, India",676108,Tirur,Malappuram,KERALA,10.85767042173913,75.951353
1699,2481,"Pudussery Building, Kaloor, Kochi, Kerala 682017, India",682017,Ernakulam,Ernakulam,KERALA,9.994298565853658,76.29345620243902
1701,2483,"Ambunad Malaidumthuruthu, Cochin, Aluva, Kerala 683561, India",683561,Aluva,Ernakulam,KERALA,6.4428692100000005,-73.33767202
1704,2488,"Poocholamad, Kannamangalam, Kerala 676304, India",676304,Tirurangadi,Malappuram,KERALA,11.056520428688524,75.98326629672131
1705,2489,"THE BUILDING 9 degree N 76 degree E, Desabhimani Rd, Kaloor, Kochi, Kerala 682017, India",682017,Ernakulam,Ernakulam,KERALA,9.994298565853658,76.29345620243902
1708,2494,"Vithayathil Building, 10/563, Meleth Road, Vikas Nagar, Maradu, Kochi, Kerala 682304, India",682304,Ernakulam,Ernakulam,KERALA,9.938877706666666,76.32558967666667
1714,2502,"8/1488 Hari Pai Compound, Gujarati Rd, Kappalandimukku, Mattancherry, Kochi, Kerala 682002, India",682002,Kochi,Ernakulam,KERALA,9.957255232894736,76.25402236842105
1717,2507,"near Aarattukadavu Road, Kumaranalloor, Kottayam, Kerala 686016, India",686016,Kottayam,Kottayam,KERALA,9.616360489285714,76.53554135357143
1725,2519,"Kozhikode - Malappuram - Palakkad Hwy, Pathaikkara, Perintalmanna, Kerala 679322, India",679322,Perinthalmanna,Malappuram,KERALA,10.977929251428572,76.22854857333334
1727,2522,"39/6181, Alappatt Cross Road, Ravipuram, Ravipuram, Perumanoor, Kochi, Kerala 682015, India",682015,Ernakulam,Ernakulam,KERALA,9.948697107692308,76.29266132307693
1730,2525,"F8XM+CFC, Vazhicherry Ward, Sea View Ward, Alappuzha, Kerala 688001, India",688001,Ambalapuzha,Alappuzha,KERALA,9.49638391904762,76.33209264761905
1732,2527,"Chennai, Tamil Nadu, India",682024,Ernakulam,Ernakulam,KERALA,10.01888763298969,76.30253450412371
1733,2528,"Chennai, Tamil Nadu, India",682002,Kochi,Ernakulam,KERALA,9.957255232894736,76.25402236842105
1734,2529,"20/150, neelamperoor, p.o, Kurichy, Chingavanam, Kerala 686534, India",686534,Kuttanad,Alappuzha,KERALA,9.499139,76.50628865625
1735,2530,"Road, Mankuzhy, Nethaji Nagar, Edappally, Kochi, Kerala 682024, India",682024,Ernakulam,Ernakulam,KERALA,10.01888763298969,76.30253450412371
1736,2531,"Kochi, Kerala, India",686012,Kottayam,Kottayam,KERALA,9.54856711111111,76.52230786666667
1737,2532,"4/147B Devikripa, Fact Road North Kalamassery Near To Ganapathy Temple, behind Bmart Supermarket, North Kalamassery, Kalamassery, Kochi, Kerala 683104, India",683104,Kanayannur,Ernakulam,KERALA,10.057542963636363,76.31917809090909
1738,2533,"Peeliyadu Road, near Amrita Hospital, Amrita Nagar, Edappally, Kochi, Kerala 682041, India",682041,Kanayannur,Ernakulam,KERALA,9.9560633125,76.391855675
1739,2534,"Coimbatore, Tamil Nadu, India",688534,Cherthla,Alappuzha,KERALA,9.871729377142858,76.30438504
1745,2547,"30/641B, Vandipetta Road, near SBI Bank, Poonithura, Maradu, Ernakulam, Kochi, Kerala 682038, India",682038,Ernakulam,Ernakulam,KERALA,9.951825921428572,76.32976080714285
1749,2552,"X7MR+XGG, Kathrikadavu, Kaloor, Ernakulam, Kochi, Kerala 682017, India",682017,Ernakulam,Ernakulam,KERALA,9.994298565853658,76.29345620243902
1753,2557,"Lemon Grass Avenue, Syrian Church Rd, Kunnathery Thikavu, Aluva, Kerala 683101, India",683101,Aluva,Ernakulam,KERALA,10.095680780412373,76.36233782061856
1754,2558,"Noah's Ark, Suit No. 189, NH47 Near Kochi International Airport Jn, Nedumbassery, Angamaly South, Kochi, Angamaly, Kerala 683573, India",683573,Aluva,Ernakulam,KERALA,10.180255566666666,76.38579883333334
1755,2559,"5574+2MX, Elankur, Kerala 676122, India",676122,Ernad,Malappuram,KERALA,11.122068132142855,76.15194397142858
1758,2562,"Building no 12/123, Kuzhimattom, Kerala 686533, India",686533,Kottayam,Kottayam,KERALA,9.527813314285716,76.54438353571427
1762,2566,"Geshmack Naturelle, PO, Pancode, Vadavucode, Aikaranad North, Kerala 682310, India",682310,Kunnathunad,Ernakulam,KERALA,9.98790642,76.430152955
1764,2569,"J8WQ+93V, Post Office Rd, Charamangalam, Mayithara, Cherthala, Kerala 688539, India",688539,Cherthala,Alappuzha,KERALA,9.66428288888889,76.34121377777778
1770,2577,"Neerakkal Building, Muttuchira, Kottayam, Muttuchira, Kerala 686613, India",686613,Vaikom,Kottayam,KERALA,9.7491363125,76.4823580125
1774,2581,"T.B Junction, Angamaly, Angamaly, Kerala 683572, India",683572,Paravur,Ernakulam,KERALA,10.193383310687024,76.38335938931299
1783,2602,"3rd Floor ,V.E Arcade, Palarivattom JN., Sonia Nagar, Palarivattom, Kochi, Kerala 682020, India",682020,Ernakulam,Ernakulam,KERALA,9.96861736259542,76.30114694656488
1784,2603,"Kasmisons Arcade, Mahatma Gandhi Rd, near Padma, Mulavukad, Kochi, Kerala 682035, India",682035,Ernakulam,Ernakulam,KERALA,9.979283159183671,76.28271734081633
1786,2606,"GGJ8+7R5, Chingavanam, Kerala 686007, India",686007,Kottayam,Kottayam,KERALA,9.531553366666667,76.5150448
1787,2607,"Appanchira, Kaduthuruthy, Kerala 686604, India",686604,Vaikom,Kottayam,KERALA,9.758229066666669,76.49950541111112
1789,2609,"Koduvayur, Kerala, India",682024,Ernakulam,Ernakulam,KERALA,10.01888763298969,76.30253450412371
1790,2610,"Postal Box, No. 7, Keltron Rd, Aroor gram panchayat, Kochi, Kerala 688534, India",688534,Cherthla,Alappuzha,KERALA,9.871729377142858,76.30438504
1792,2612,"Assamanoor, P.O, Odakkali Nedungapra Krariyely Rd, Perumbavoor, Kerala 683549, India",683549,Kunnathunad,Ernakulam,KERALA,10.10500877,76.547910502
1795,2615,"Bank Rd, Periyar Nagar, Aluva, Kerala 683101, India",683101,Aluva,Ernakulam,KERALA,10.095680780412373,76.36233782061856
1798,2618,"Industrial Development Plot, VI/188B, North Champannoor, Angamaly, Kerala 683573, India",683573,Aluva,Ernakulam,KERALA,10.180255566666666,76.38579883333334
1800,2620,"Machingal, Down Hill, Malappuram, Kerala, India",686012,Kottayam,Kottayam,KERALA,9.54856711111111,76.52230786666667
1802,2622,"Ground Floor, PNVM Arcade, North End, Madhava Pharmacy Junction, Providence Rd, Banerji Rd, Kacheripady, Ernakulam, Kochi, Kerala 682018, India",682018,Ernakulam,Ernakulam,KERALA,9.991596463636364,76.28133009181818
1803,2623,"Airport Rd, Kochi, Nedumbassery, Kerala 683111, India",683111,Aluva,Ernakulam,KERALA,10.153445285714286,76.3904808
1804,2624,"Malabar Timber Industries, Karimugal, Kerala 682303, India",682303,Kunnathunad,Ernakulam,KERALA,9.999956208333332,76.39698640416667
1805,2625,"Sh 1, Kodimatha, Kodimatha, Kottayam, Kerala 686001, India",686001,Kottayam,Kottayam,KERALA,9.590939220930233,76.52573586744185
1809,2629,"Mulakulam North, Piravom, Kerala 686664, India",686664,Muvattupuzha,Ernakulam,KERALA,9.876670519512194,76.48430996341463
1813,2633,"Kalamabattuchira,Ithithanam P. O, Changanassery, Ithithanam, Kerala 686535, India",686535,Changanassery,Kottayam,KERALA,9.479609457894735,76.52609346315789
1821,2643,"NH544, Koonamthai, Edappally, Ernakulam, Kochi, Kerala 682024, India",682024,Ernakulam,Ernakulam,KERALA,10.01888763298969,76.30253450412371
1825,2647,"13/751-2,Koikkara Building, Koikkara Lane Eden Lane, Marottichuvadu - Thoppil Rd, Thrikkakara, Edappally, Kochi, Kerala 682021, India",682021,Ernakulam,Ernakulam,KERALA,10.029233765060242,76.3353045433735
1826,2649,"DC Road, Poovanthuruthu, Kerala 686012, India",686012,Kottayam,Kottayam,KERALA,9.54856711111111,76.52230786666667
1827,2650,"WJGJ+GVP, Kerala 686672, India",686672,Muvattupuzha,Ernakulam,KERALA,9.924969829166669,76.6025811875
1828,2651,"18/341A, MADATHIVELIYIL, Kalavoor, Alappuzha, Kerala 688522, India",688522,Ambalapuzha,Alappuzha,KERALA,9.572168202777778,76.32190507222222
1829,2653,"33/1784, Madathiparambil Building, B-2, Puthiya Road, P.O, Vennala, Kochi, Kerala 682028, India",682028,Ernakulam,Ernakulam,KERALA,9.99670085,76.32102778
1833,2658,"2nd floor, Sunu Plaza, Mangayil School Road, Maradu, Kochi, Kerala 682304, India",682304,Ernakulam,Ernakulam,KERALA,9.938877706666666,76.32558967666667
1836,2662,"N.A ARCADE, Govt. Veterinary Hospital Rd, CHELARI, Thenhipalam, Chelari, Kerala 673636, India",673636,Tirurangadi,Malappuram,KERALA,11.118472538297873,75.8919613468085
1840,2668,"Valakom, Kerala 691532, India",691532,Kottarakkara,Kollam,KERALA,8.94924200625,76.84236991875
1846,2679,"Malabar rice mill, Mattoor, Kalady, Kerala 683574, India",683574,Aluva,Ernakulam,KERALA,10.182817160958905,76.45845344931507
1855,2690,"NH. 17, 27/456, Toll Junction, Metro Pillar No. 386, near TecQ Mobiles, Edappally North, PO, Ernakulam, Alappuzha, Kerala 682024, India",682024,Ernakulam,Ernakulam,KERALA,10.01888763298969,76.30253450412371
1860,2696,"Athirampuzha Junction, MG9P+C3M, near Juma Masjid, Athirampuzha, Kottayam, Athirampuzha, Kerala 686562, India",686562,Kottayam,Kottayam,KERALA,9.6723036,76.54058719333332
1863,2702,"Shavuot Agric Building No XII /667-B Valanjandakku road, Olakettiambalam, Perungala, Kerala 690510, India",690510,Chengannur,Alappuzha,KERALA,9.20028885,76.53534655
1882,2732,"XI/357, Kidagoor, Kerala 683572, India",683572,Paravur,Ernakulam,KERALA,10.193383310687024,76.38335938931299
1883,2734,"TCL Ceramics Limited, 26, CSEZ, Kakkanad, Kerala 682037, India",682037,Ernakulam,Ernakulam,KERALA,9.997384706451612,76.34072476129032
1897,2757,"TD Rd, Thuravoor, Thuravoor Thekku, Kerala 688540, India",688540,Cherthala,Alappuzha,KERALA,9.773458592857144,76.30215857142858
1903,2767,"Viswas Foods, Ramapuram - Aimcombu Rd, Marangadu, Vellilappally, Kerala 686574, India",686574,Meenachil,Kottayam,KERALA,9.722305693333334,76.66728714
1906,2771,"Kallikkadu Road, Malabar Street, Elamkulam, Kerala 679340, India",679340,Perintalmanna,Malappuram,KERALA,10.912338255555555,76.23797407777778
1907,2773,"4WPQ+2GM, EMEA College - Airport Rd, Karipur, Kerala 673647, India",673647,Tirurangadi,Malappuram,KERALA,11.1203880375,75.9348672875
1908,2774,"P K House Farook College, PO, Kozhikode, Kerala 673632, India",673632,Ernad,Malappuram,KERALA,51.5183605,118.3310501
1910,2777,"76GF+GVC, Nilambur, Kerala 679329, India",679329,Nilambur,Malappuram,KERALA,11.285370839490447,76.23027299235669
1911,2778,"29/1713, Bund Rd, Thykoodam, Vyttila, Ernakulam, Kochi, Kerala 682019, India",682019,Ernakulam,Ernakulam,KERALA,9.96996995974026,76.31541058961038
1919,2791,"Aruvithura Crossway Rd, Aruvithura, Erattupetta, Kerala 686121, India",686121,Meenachil,Kottayam,KERALA,9.692869868421052,76.77764492631579
1921,2794,"101, Rajdhani Towers, Workshop St, Sirupooluvapatti, Khaderpet, Rayapuram, Tiruppur, Tamil Nadu 641 60, India",688524,Cherthala,Alappuzha,KERALA,9.6891011625,76.33285069583334
1927,2801,"Old Muvattupuzha Rd, Perumbavoor, Kerala 683542, India",683542,Kunnathunad,Ernakulam,KERALA,10.114937405454544,76.47808056363637
1928,2802,"Second Floor, Valiyaveetil Buildings, NH 544 (Old NH, 47, Kochi - Salem Hwy, Edappally Toll, Nethaji Nagar, Edappally, Ernakulam, Kochi, Kerala 682024, India",682024,Ernakulam,Ernakulam,KERALA,10.01888763298969,76.30253450412371
1929,2803,"35/2229/B, Vazhi, B1, Palli Pradakshina Rd, Pallinada, Palarivattom, Kochi, Kerala 682025, India",682025,Ernakulam,Ernakulam,KERALA,10.000372668965516,76.30783643448275
1931,2805,"386X+V58, HMT Colony Rd, HMT Colony, North Kalamassery, Kalamassery, Ernakulam, Kochi, Kerala 683503, India",683503,Kanayannur,Ernakulam,KERALA,10.0582879625,76.337153153125
1932,2806,"KINFRA Road, Nellad, Mazhuvannoor, Kerala 686669, India",686669,Kunnathunad,Ernakulam,KERALA,10.007340951592356,76.52786276496816
1944,2829,"6/49 - A2, Thrikkakara, Mundampalam, Kochi, Kakkanad, Kerala 682021, India",682021,Ernakulam,Ernakulam,KERALA,10.029233765060242,76.3353045433735
1949,2836,"X7JP+6FP, Adv Easwara Iyer Rd, Shenoys, Kochi, Kerala 682018, India",682018,Ernakulam,Ernakulam,KERALA,9.991596463636364,76.28133009181818
1952,2840,"Kannur, Kerala, India",682002,Kochi,Ernakulam,KERALA,9.957255232894736,76.25402236842105
1954,2842,"MASHREQ TRADE CENTRE CALICUT ROAD, Perintalmanna, Kerala 679322, India",679322,Perinthalmanna,Malappuram,KERALA,10.977929251428572,76.22854857333334
1958,2849,"4F5M+JG5, Perumbavoor, Kerala 683542, India",683542,Kunnathunad,Ernakulam,KERALA,10.114937405454544,76.47808056363637
1959,2850,"Coimbatore, Tamil Nadu, India",686012,Kottayam,Kottayam,KERALA,9.54856711111111,76.52230786666667
1961,2852,"Vrindavan Tower, 10/485-G, West Kadungalloor, Aluva, Kerala 683110, India",683110,Paravur,Ernakulam,KERALA,10.106830633333333,76.3292302
1962,2853,"EP 3/60, Thadicadu, Anchal, Arackal, Kerala 691306, India",691306,Pathanapuram,Kollam,KERALA,8.91761572457143,76.91935525
1965,2863,"V7MQ+CV6, Joras (Market) Rd, North Kumbalangi, Kumbalangi, Kochi, Kerala 682007, India",682007,Kochi,Ernakulam,KERALA,9.873862835294116,76.28911113529412
1968,2867,"KOLLPPALLY, KALAVAMKODAM P O CHERTHALA, ALAPPUZHA DIST, Kerala 688524, India",688524,Cherthala,Alappuzha,KERALA,9.6891011625,76.33285069583334
1969,2868,"Malayalam nagar TKMC, PO, Vadakkanazhikam, Karicode, Peroor, Kollam, Kerala 691005, India",691005,Kollam,Kollam,KERALA,8.91188756590909,76.63882659886363
1970,2869,"11/138, AB-10, Satellite Twp, Padamughal, Kakkanad, Kochi, Kakkanad, Kerala 682030, India",682030,Ernakulam,Ernakulam,KERALA,51.13351584878049,133.02442981463415
1972,2871,"Metro Pillar 450, PO Bus Stop, 2nd Floor, National Residency Complex, Bank Jn, Bank Junction, Mamangalam, Edappally, Ernakulam, Kochi, Kerala 682024, India",682024,Ernakulam,Ernakulam,KERALA,10.01888763298969,76.30253450412371
1987,2893,"No. 6/858-M, 2nd Floor, Suite No. 552, Valamkottil Towers, Judgemukku, Thrikkakara, Kakkanad, Kochi, Kerala 682021, India",682021,Ernakulam,Ernakulam,KERALA,10.029233765060242,76.3353045433735
1998,2912,"V/388C PIPELINE JUNCTION EDAPALLY, Edappally - Pukkattupady Rd, Thrikkakara, PO, Kochi, Kerala 682021, India",682021,Ernakulam,Ernakulam,KERALA,10.029233765060242,76.3353045433735
1999,2914,"8/253A, MNF BUILDING , KAPPUMTHALA P.O, Muttuchira, Kerala 686613, India",686613,Vaikom,Kottayam,KERALA,9.7491363125,76.4823580125
2004,2921,"2FVR+QR2, Rubber Park Rd, Airapuram, Kerala 683556, India",683556,Kunnathunad,Ernakulam,KERALA,10.083125960465116,76.47373215813954
2010,2931,"45/279, Koothapady Road, Anjumuri, Thammanam, Anjumuri, Kuthappady, Thammanam, Kochi, Kerala 682032, India",682032,Ernakulam,Ernakulam,KERALA,9.983836255,76.311535635
2018,2946,"48GC+GGX, Aluva - Paravoor Rd, Malikampeedika, Kerala 683511, India",683511,Paravur,Ernakulam,KERALA,10.119306989583333,76.29334000833333
2023,2954,"Kangayam, Tamil Nadu, India",682002,Kochi,Ernakulam,KERALA,9.957255232894736,76.25402236842105
2026,2958,"2MC7+CW9, Paingottoor, Kerala 686671, India",686671,Kothamangalam,Ernakulam,KERALA,10.007979096875,76.6938778125
2036,2971,"mac agro tech, Kavanur, Kerala 673639, India",673639,Ernad,Malappuram,KERALA,11.22386355755814,76.05105861802325
2038,2974,"Teejay Estate, Palarivattom Junction, Sonia Nagar, Palarivattom, Ernakulam, Kochi, Kerala 682025, India",682025,Ernakulam,Ernakulam,KERALA,10.000372668965516,76.30783643448275
2046,2989,"XII/240,Hemadri Building, Thirunalloor, P.O, Cherthala, Thirunallur, Kerala 688541, India",688541,Cherthala,Alappuzha,KERALA,9.742432095238096,76.36193387142858
2047,2990,"Payyal, JN, Nedungapra, Vengoor, Kerala 683545, India",683545,Kunnathunad,Ernakulam,KERALA,10.109719963636364,76.52310976666666
2051,2994,"67/5093, Door No. 17B, DD Oceano Mall, Marine Drive, Kochi, Kerala 682031, India",682031,Ernakulam,Ernakulam,KERALA,9.99692354,76.27468644
2059,3004,"Door No 16 / 138 1st Floor, Karappillil Building Opp Margin Free Market, Pallithazham Junction, PO, Pallithazham, Mulanthuruthy, Kerala 682314, India",682314,Ernakulam,Ernakulam,KERALA,9.904187420689656,76.39910738275861
2067,3019,"Perinchoor Rd, Pookkottumpadam, Amarambalam, Kerala 679332, India",679332,Nilambur,Malappuram,KERALA,11.1941912,76.29018178518518
2071,3024,"Factory: Industrial Area, Binanipuram, Edayar, Binanipuram, Edayar, Aluva , Cochin, Kerala 683502, India",683502,Paravur,Ernakulam,KERALA,10.087692555555556,76.30506273333334
2074,3030,"66RH+J3, Mampad, Kerala 676542, India",676542,Nilambur,Malappuram,KERALA,11.24328006744186,76.19810685581396
2078,3035,"Vengoor, P.O., Perumbavoor, Kochi, Kerala 683546, India",683546,Kunnathunad,Ernakulam,KERALA,10.1428569,76.52744881481482
2091,3051,"Karthala, thozhuvanoor P. O, Valanchery, Athavanad, Kerala 676552, India",676552,Tirur,Malappuram,KERALA,10.902934205042015,76.05797082941177
2092,3052,"3/254 C Pallipuram, P.O, Pin:688541, Cherthala, Pallipuram, Kerala 688541, India",688541,Cherthala,Alappuzha,KERALA,9.742432095238096,76.36193387142858
2101,3065,"Choice Rd, near Choice company, Janatha Nagar, Palluruthy, Kochi, Kerala 682006, India",682006,Kochi,Ernakulam,KERALA,9.917652551851852,76.27326455925926
2103,3068,"DOOR NO:VII / 151A KUMMINIPARAMBA PO Karipur, Kondotty, Karipur, Kerala 673638, India",673638,Ernad,Malappuram,KERALA,11.14718034158416,75.96500935445545
2106,3072,"Karuvarakundu-Perinthalmanna Road, Melattur, 37JV+732, Malappuram District, Edappatta, Kerala 679326, India",679326,Perintalmanna,Malappuram,KERALA,11.053314714285715,76.29075262428572
2108,3075,"HG3H+27F, Poovanthuruthu, Kerala 686012, India",686012,Kottayam,Kottayam,KERALA,9.54856711111111,76.52230786666667
2118,3091,"Anjilippa, Kanjirappally, Kerala 686518, India",686518,Kanjirapally,Kottayam,KERALA,9.531795412962962,76.82251328518518
2119,3093,"175 2A2, Koolipalayam Ring Rd, Vigneshwara Nagar, po, Tiruppur, Tamil Nadu 2, India",682002,Kochi,Ernakulam,KERALA,9.957255232894736,76.25402236842105
2128,3107,"Synthite Valley, Kadayiruppu, Kadayirippu - Pattimattom Rd, Kadayiruppu, Kadayirippu, Kerala 682311, India",682311,Kunnathunad,Ernakulam,KERALA,9.986131800632911,76.47020598227847
2131,3110,"Tiruppur, Tamil Nadu, India",688524,Cherthala,Alappuzha,KERALA,9.6891011625,76.33285069583334
2133,3112,"Office no:6, Second floor, Ompalyil Building,Block Junction, Kolenchery, Kerala 682311, India",682311,Kunnathunad,Ernakulam,KERALA,9.986131800632911,76.47020598227847
2150,3142,"KSIDC Mega Food Park Pallippuram, Cherthala, Pallipuram, Kerala 688541, India",688541,Cherthala,Alappuzha,KERALA,9.742432095238096,76.36193387142858
2154,3147,"Near Rotary Womens Hostel X-Ray Bypass Junction, CMC-17, Cherthala Rd, Choice Nagar, Cherthala, Kerala 688524, India",688524,Cherthala,Alappuzha,KERALA,9.6891011625,76.33285069583334
2156,3150,"1st Floor, Fenster Arcade, Seaport Airport Road Vallathol Junction, Thrikkakara, Edapally, Kakkanad, Thrikkakara, Kochi, Kakkanad, Kerala 682021, India",682021,Ernakulam,Ernakulam,KERALA,10.029233765060242,76.3353045433735
2163,3164,"near Police Station, Changaramkulam, Alamcode, Kerala 679585, India",679585,Ponani,Malappuram,KERALA,10.750000933333332,76.02477622083333
2164,3165,"VI/1330, Old No. VII/464, Kochangadi, Chullickal, Kochi, Kerala 682002, India",682002,Kochi,Ernakulam,KERALA,9.957255232894736,76.25402236842105
2170,3173,"Chungam, S Aduvassery Rd, North Paravur, Kunnukara, Kerala 683578, India",683578,Paravur,Ernakulam,KERALA,10.155197839473685,76.30713587631578
2171,3174,"3F2R+3X, Airapuram, Kerala 683556, India",683556,Kunnathunad,Ernakulam,KERALA,10.083125960465116,76.47373215813954
2173,3177,"Kaprassery-Moozhiyal Rd, Nedumbassery, Kerala 683589, India",683589,Aluva,Ernakulam,KERALA,10.164607144444444,76.36327252222222
2175,3180,"G-3, National Residency Building, 449, Palarivattom - Edappally Rd, near Metro Pillar No, Bank Junction, Mamangalam, Edappally, Kochi, Kerala 682024, India",682024,Ernakulam,Ernakulam,KERALA,10.01888763298969,76.30253450412371
2176,3181,"44 C1 I.D PLOT, P.O, Poovanthuruthu, KOTTAYAM, Kerala 686012, India",686012,Kottayam,Kottayam,KERALA,9.54856711111111,76.52230786666667
2177,3182,"59MC+9F3, Angamaly South, Angamaly, Kerala 683573, India",683573,Aluva,Ernakulam,KERALA,10.180255566666666,76.38579883333334
2178,3183,"Brightech interiors and exteriors pvt.ltd, Abhaya Matha Church, Vennala, Kochi, Kerala 682028, India",682028,Ernakulam,Ernakulam,KERALA,9.99670085,76.32102778
2179,3184,"GMMG+M3Q, Kangazha, Kerala, India",688524,Cherthala,Alappuzha,KERALA,9.6891011625,76.33285069583334
2181,3187,"CMC 24/227, Kuruppan Kulangara, Cherthala, Kerala 688524, India",688524,Cherthala,Alappuzha,KERALA,9.6891011625,76.33285069583334
2183,3190,"4C8V+QVH, Mudickal, Kerala 683547, India",683547,Kunnathunad,Ernakulam,KERALA,10.091076425925923,76.43058615555556
2187,3196,"Flat No: 5I, Heera Cyber Views, Edachira, Kochi, Kakkanad, Kerala 682030, India",682030,Ernakulam,Ernakulam,KERALA,51.13351584878049,133.02442981463415
2188,3197,"22/825 A,B,C, Chemical Industrial Area, Aroor gram panchayat, Kochi, Kerala 688534, India",688534,Cherthla,Alappuzha,KERALA,9.871729377142858,76.30438504
2204,3222,"Janatha Junction, Eco Tower, Banerji Rd, Janatha, Palarivattom, Kochi, Kerala 682025, India",682025,Ernakulam,Ernakulam,KERALA,10.000372668965516,76.30783643448275
2205,3223,"Ernakulam, Kerala, India",686012,Kottayam,Kottayam,KERALA,9.54856711111111,76.52230786666667
2208,3228,"Eswara Seva Building, FACT Nagar, Thrippunithura, Ernakulam, Kochi, Kerala 682301, India",682301,Ernakulam,Ernakulam,KERALA,9.946698106896552,76.34776633655173
2210,3231,"II/205 A30 A31, Kalappurakkal Building, VK Lane, Vazhakkala, Ernakulam, Vazhakkala, Kochi, Kakkanad, Kerala 682021, India",682021,Ernakulam,Ernakulam,KERALA,10.029233765060242,76.3353045433735
2211,3233,"AREEKODE mukkom road, pallippadi, 62XW+377, Pathanapuram, Kizhuparamba, Kerala 673639, India",673639,Ernad,Malappuram,KERALA,11.22386355755814,76.05105861802325
2212,3234,"Temple Rd, Eravipuram, Kottappuram, Kerala 683511, India",683511,Paravur,Ernakulam,KERALA,10.119306989583333,76.29334000833333
2213,3235,"30/375 Manakkadavan Building Kuruppath, Kondotty Post Malappuram Dt, Kondotty, Kerala 673638, India",673638,Ernad,Malappuram,KERALA,11.14718034158416,75.96500935445545
2215,3238,"P9V4+PCP, Pallipuram, Kerala 688541, India",688541,Cherthala,Alappuzha,KERALA,9.742432095238096,76.36193387142858
2218,3242,"MG Nagar, Puliyathmukku Jn, Ammannada, Kollam, Kerala 691004, India",691004,Kollam,Kollam,KERALA,8.904030673684211,76.62197661052632
2221,3247,"Shop No:20/530C near Rose Dale School, Umayanalloor, Mayyanad, Kerala 691589, India",691589,Kollam,Kollam,KERALA,8.875603633333332,76.6503463
2222,3248,"326W+7C2, Inkel City, Malappuram, Kerala 676519, India",676519,Ernad,Malappuram,KERALA,11.05071221125,76.03817599
2225,3256,"GROUND FLOOR, METRO PILLER NO 293, Angels Arcade, 22, South Kalamassery, Kalamassery, Kochi, Kerala 682022, India",682022,Ernakulam,Ernakulam,KERALA,10.045582269230769,76.34736526153846
2226,3257,"KRRA-6, Kannanthodath Road, Devankulangara, Mamangalam, Edappally, Kochi, Kerala 682024, India",682024,Ernakulam,Ernakulam,KERALA,10.01888763298969,76.30253450412371
2232,3271,"Pallithazham, Mulanthuruthy, Pallithazham, Kochi, Mulanthuruthy, Kerala 682314, India",682314,Ernakulam,Ernakulam,KERALA,9.904187420689656,76.39910738275861
2236,3277,"Unnamed Road, Kerala 686104, India",686104,Changanacherry,Kottayam,KERALA,9.458240202083331,76.55193638958333
2237,3279,"CCNB Rd, Erezha, Mullakkal, Alappuzha, Kerala 688011, India",688011,Ambalapuzha,Alappuzha,KERALA,9.494271704545454,76.34375952727272
2239,3283,"2C62+VV4, Chithrappuzha-Ponjassery Rd, Pallikkara, Kerala 682303, India",682303,Kunnathunad,Ernakulam,KERALA,9.999956208333332,76.39698640416667
2242,3288,"Kallungal Ln, Periyar Nagar, Aluva, Kerala 683101, India",683101,Aluva,Ernakulam,KERALA,10.095680780412373,76.36233782061856
2244,3291,"Vettuveni Rd, NAGAR, Haripad, Kerala 690514, India",690514,Karthikappally,Alappuzha,KERALA,9.289124556179775,76.45218776292134
2248,3295,"Eco links Building, Ground Floor N.H.Bypass, Edappally, Kochi, Kerala 682024, India",682024,Ernakulam,Ernakulam,KERALA,10.01888763298969,76.30253450412371
2257,3307,"Adi Shankara TBI, Mattoor, Kalady, Kerala 683574, India",683574,Aluva,Ernakulam,KERALA,10.182817160958905,76.45845344931507
2261,3312,"Pallipadi, Edavannappara, Kerala 673645, India",673645,Ernad,Malappuram,KERALA,11.236260745454546,75.97598093636364
2263,3315,"3JQ5+762, Thrikkariyoor, Kerala 686692, India",686692,Kothamangalam,Ernakulam,KERALA,10.104649851818182,76.59975289818182
2265,3318,"F8XM+HH4, Vazhicherry Rd, Vazhicherry Ward, Sea View Ward, Alappuzha, Kerala 688001, India",688001,Ambalapuzha,Alappuzha,KERALA,9.49638391904762,76.33209264761905
2270,3325,"Megamalai, Tamil Nadu, India",682024,Ernakulam,Ernakulam,KERALA,10.01888763298969,76.30253450412371
2271,3326,"63 3441, Valummel Rd, Valummel, Kochi, Kerala 682005, India",682005,Kochi,Ernakulam,KERALA,9.940253061111113,76.25960161388889
2273,3328,"Poojappura Temple, Road, Aroor gram panchayat, Kochi, Kerala 688534, India",688534,Cherthla,Alappuzha,KERALA,9.871729377142858,76.30438504
2275,3330,"Mukkam, Kerala, India",688524,Cherthala,Alappuzha,KERALA,9.6891011625,76.33285069583334
2277,3333,"Masjid Rd, Hidayath Nagar, Thrikkakara, Kalamassery, Kochi, Kerala 682032, India",682032,Ernakulam,Ernakulam,KERALA,9.983836255,76.311535635
2278,3334,"Kattoor, Church Road, Pattukalam, Alappuzha, Kerala 688522, India",688522,Ambalapuzha,Alappuzha,KERALA,9.572168202777778,76.32190507222222
2281,3339,"29, Unit 1, Kinfra Hi-Tech Park Main Rd, HMT Colony, North Kalamassery, Kalamassery, Kochi, Kerala 683503, India",683503,Kanayannur,Ernakulam,KERALA,10.0582879625,76.337153153125
2287,3349,"Building No 22/A, M H Kavala Vengola,Ponjassery, Kochi, Vengola, Kerala 682037, India",682037,Ernakulam,Ernakulam,KERALA,9.997384706451612,76.34072476129032
2288,3350,"CENTRE 9/417, PO, near SHIFA DENTAL CLINIC, J,I, Maranchery, Kerala 679581, India",679581,Ponani,Malappuram,KERALA,10.739550295238097,75.97170583809523
2291,3353,"2CGW+G3J, Kunnattunad, Kerala 683562, India",683562,Aluva,Ernakulam,KERALA,10.034164772289158,76.42900358072289
2292,3354,"VIII/554G, Thanikkamattom Building Kolenchery, Kochi, Kolenchery, Kerala 682311, India",682311,Kunnathunad,Ernakulam,KERALA,9.986131800632911,76.47020598227847
2294,3356,"Mini Industrial Estate, Manarcadu, Kerala 686019, India",686019,Kottayam,Kottayam,KERALA,9.592533289090907,76.58230555090908
2297,3361,"29, Market Rd, Convent Junction, Shenoys, Kochi, Kerala 682011, India",682011,Ernakulam,Ernakulam,KERALA,9.989242117391305,76.29452373188406
2300,3364,"PRA-43, Padivattom, Edappally, Kochi, Kerala 682024, India",682024,Ernakulam,Ernakulam,KERALA,10.01888763298969,76.30253450412371
2301,3365,"Manathparamba Edayur north (po) ,valanchery, Valanchery, Kerala 676552, India",676552,Tirur,Malappuram,KERALA,10.902934205042015,76.05797082941177
2303,3368,"VG6C+J4P, Illikkamukkada, Kerala 686610, India",686610,Vaikom,Kottayam,KERALA,9.827377122222222,76.49235217777778
2310,3379,"near Kunnathery Thikavu, Kunnathery Thikavu, Aluva, Kerala 683106, India",683106,Aluva,Ernakulam,KERALA,10.080344491666668,76.34267441666667
2315,3387,"Door No.48/1258 A, near Rice Research Station, Ponnurunni, Vyttila, Kochi, Kerala 682019, India",682019,Ernakulam,Ernakulam,KERALA,9.96996995974026,76.31541058961038
2318,3394,"GROUND FLOOR, PARAKKAT BUILDING, 69/908A, Sebastian Rd, Kaloor, Kochi, Kerala 682017, India",682017,Ernakulam,Ernakulam,KERALA,9.994298565853658,76.29345620243902
2323,3406,"Sneha Nagar Rd, Karunagappalli, Kerala 690544, India",690544,Karunagappally,Kollam,KERALA,9.086964940909091,76.52738797272727
2341,3439,"5VH7+CX9, Ramanattukara, Kozhikode, Kerala 673633, India",673633,Eranad,Malappuram,KERALA,51.5876618,118.4566692
2342,3442,"Punnapra North, Alappuzha, Kerala 688003, India",688003,Ambalapuzha,Alappuzha,KERALA,9.468575348387096,76.33827430967742
2345,3446,"Pala - Marangattupilly - Kozha Road, [no name], Vellappadu, Pala, Kerala 686575, India",686575,Meenachil,Kottayam,KERALA,9.719589849206349,76.68607506666666
2346,3447,"Door No. 5/202B, Chemanad, Varikoli, Post, Puthenkurish, Kochi, Thiruvaniyoor, Kerala 682308, India",682308,Kunnathunad,Ernakulam,KERALA,9.96100282051282,76.41611203846155
2350,3454,"IX/235 - B, Manjapra P.O, Chandrapura, Manjapra, Kerala 683581, India",683581,Aluva,Ernakulam,KERALA,10.23640150576923,76.48074006730769
2355,3461,"V8V7+FCV, Kumbalam, Kochi, Kerala 682506, India",682506,Ernakulam,Ernakulam,KERALA,9.90249192,76.31610951
2361,3472,"Plot no-27, sidco industrial Area, Angamaly, Kerala 683572, India",683572,Paravur,Ernakulam,KERALA,10.193383310687024,76.38335938931299
2372,3492,"Sreekala Rd, Vennala, Ernakulam, Kochi, Kerala 682028, India",682028,Ernakulam,Ernakulam,KERALA,9.99670085,76.32102778
2374,3494,"Venginissery, Paralam, Kerala, India",686012,Kottayam,Kottayam,KERALA,9.54856711111111,76.52230786666667
2378,3499,"Wadakkanchery, Kerala, India",682002,Kochi,Ernakulam,KERALA,9.957255232894736,76.25402236842105
2383,3505,"2X2W+34G, Tirur - Malappuram - Manjeri Rd, Choothupara, Kottakkal, Changuvetty, Kerala 676503, India",676503,Tirur,Malappuram,KERALA,10.998304046031746,76.01255696507937
2386,3510,"5TH FLOOR, Zodiac Square, Sahodaran Ayyappan Rd, near KADAVANTHRA JUNCTION, Kadavanthra, Kochi, Kerala 682020, India",682020,Ernakulam,Ernakulam,KERALA,9.96861736259542,76.30114694656488
2387,3511,"X772+4RX, Pullupalam Rd, Mattancherry, Kochi, Kerala 682002, India",682002,Kochi,Ernakulam,KERALA,9.957255232894736,76.25402236842105
2391,3518,"near Iron Bridge, Pullurithakary, Cherthala, Kerala 688524, India",688524,Cherthala,Alappuzha,KERALA,9.6891011625,76.33285069583334
2399,3528,"HQ82+425, Ponkunnam, Kerala 686506, India",686506,Kanjirapally,Kottayam,KERALA,9.550696192125985,76.70441742047244
2401,3532,"6985+4VH Agua Engineering, Peechanicadu, Angamaly, Kerala 683572, India",683572,Paravur,Ernakulam,KERALA,10.193383310687024,76.38335938931299
2406,3539,"Door No 130, Mangattiri, Tirur, Kerala 676105, India",676105,Tirur,Malappuram,KERALA,10.89965167826087,75.91356985217391
2407,3540,"4614, Market Rd, Shenoys, Kochi, Kerala 682031, India",682031,Ernakulam,Ernakulam,KERALA,9.99692354,76.27468644
2411,3545,"39-3633, E-1, 4th Landmark Enclave, Valanjambalam, Kochi, Kerala 682016, India",682016,Ernakulam,Ernakulam,KERALA,9.965396735294116,76.28713604901961
2413,3547,"Perumbavoor, 19/636, Koovappady, Kerala 683544, India",683544,Kunnathunad,Ernakulam,KERALA,10.166672573758866,76.50774667872341
2418,3553,"SN Puram Post Salem, State Highway 66, Kanjikuzhy, Cherthala South, Kerala 688530, India",688530,Cherthala,Alappuzha,KERALA,9.646816892307692,76.30059679230769
2419,3554,"6FHC+R8W, Kollakode, Ayyampuzha, Kerala 683581, India",683581,Aluva,Ernakulam,KERALA,10.23640150576923,76.48074006730769
2420,3555,"Paloor Kotta, PP 10-520 B-8, PO, INDUSTRIAL DEVELOPMENT PLOT, Palachode, Kerala 679338, India",679338,Perinthalmanna,Malappuram,KERALA,10.9514341875,76.13756319166666
2425,3564,"XXV/578F1, 4th Floor, Pathicheril Enclave Kalamassery, Eranakulam, South Kalamassery, Edappally, Kochi, Kerala 682033, India",682033,Kanayannur,Ernakulam,KERALA,10.0430806875,76.31714245625
2428,3568,"Mangad P.O, Kilikolloor, Mangad, Kollam, Kerala 691015, India",691015,Kollam,Kollam,KERALA,8.910343165384615,76.6223384
2429,3569,"Door no. 2, Padinjarechalil (H, 286, PBK Myna Rd, Vazhakkala, Kochi, Kakkanad, Kerala 682021, India",682021,Ernakulam,Ernakulam,KERALA,10.029233765060242,76.3353045433735
2431,3572,"Cadillac Square,Ground Floor, Metro Pillar 333, August Nursing home road, behind Axis Bank, Changampuzha Nagar, P.O, Kalamassery, Ernakulam, Kochi, Kerala 682033, India",682033,Kanayannur,Ernakulam,KERALA,10.0430806875,76.31714245625
2433,3574,"12 /347 C, Chempu, Maravanthuruthu, Kerala 686608, India",686608,Vaikom,Kottayam,KERALA,9.80238914861111,76.40246834027778
2435,3577,"Changampally Road, Edakkulam, Thirunavaya, Kerala 676301, India",676301,Tirur,Malappuram,KERALA,10.895407549152544,75.99675428474576
2438,3582,"Rose Villa, Aarattuvazhi, Kanjiramchira, Alappuzha, Aryad South, Kerala 688006, India",688006,Ambalapuzha,Alappuzha,KERALA,9.525584704,76.338968536
2442,3587,"5F84+HJQ, Kalady Cheranaloor Rd, Onampilly, Kerala 683544, India",683544,Kunnathunad,Ernakulam,KERALA,10.166672573758866,76.50774667872341
2445,3591,"Paika Pinnakkanadu Road, Mallikassery, Kerala 686577, India",686577,Meenachil,Kottayam,KERALA,9.640891316,76.737008176
2446,3593,"Tharayil Building TC: 65/1873A Ground Floor Thekkumtala Road, PO, Kaloor, Ernakulam, Kochi, Kerala 682017, India",682017,Ernakulam,Ernakulam,KERALA,9.994298565853658,76.29345620243902
2447,3594,"Opp.Lee fibre Factory, P.O, CMC-21, Cherthala, Nedumprakkad, Kerala 688524, India",688524,Cherthala,Alappuzha,KERALA,9.6891011625,76.33285069583334
2452,3602,"No:58, 9449, Narakathara Rd, off Mahatma Gandhi Road, opposite Shenoys, Shenoys Junction, Shenoys, Kochi, Kerala 682035, India",682035,Ernakulam,Ernakulam,KERALA,9.979283159183671,76.28271734081633
2453,3603,"21/ 433-A, First Floor, Aruvithura Crossway Road, Muhiyadheen, Ninar Juma Masjid, Complex, Causeway Junction, Thekkekara, Erattupetta, Kerala 686122, India",686122,Meenachil,Kottayam,KERALA,9.686214525,76.777240075
2456,3606,"Nooleli Rd, Odakkali, Kerala 683549, India",683549,Kunnathunad,Ernakulam,KERALA,10.10500877,76.547910502
2457,3607,"Exotic Wood Zone India Ground Floor, 8/2549, Panakkal Building, MK Raghavan Rd, Pandikudy, Fort Kochi, Kochi, Kerala 682002, India",682002,Kochi,Ernakulam,KERALA,9.957255232894736,76.25402236842105
2458,3608,"28/60, Peechampilly Rd, P.O, Thrikkakara, Vazhakkala, Kochi, Kakkanad, Kerala 682021, India",682021,Ernakulam,Ernakulam,KERALA,10.029233765060242,76.3353045433735
2460,3611,"282G+MR3, Dr Ambedkar Rd, Vennala, Kochi, Kerala 682028, India",682028,Ernakulam,Ernakulam,KERALA,9.99670085,76.32102778
2461,3612,"Ground Floor,27/1963, Manath Enclave, Vayu Sena Rd, Thrikkakara, Vazhakkala, Kochi, Kakkanad, Kerala 682030, India",682030,Ernakulam,Ernakulam,KERALA,51.13351584878049,133.02442981463415
2462,3613,"Ponnani - Tirur Rd, Keezhillam, Ponnani, Kerala 679586, India",679586,Ponani,Malappuram,KERALA,10.762784689361702,75.9335939
2463,3615,"147, PJ Antony Rd, Sonia Nagar, Palarivattom, Kochi, Kerala 682025, India",682025,Ernakulam,Ernakulam,KERALA,10.000372668965516,76.30783643448275
2468,3622,"12/266, Kundannoor - Willingdon Island Rd, Maradu North, Maradu, Kochi, Kerala 682304, India",682304,Ernakulam,Ernakulam,KERALA,9.938877706666666,76.32558967666667
2470,3624,"Ayyankanal Road Marangattupilly P.O, Elackad, Kerala 686635, India",686635,Meenachil,Kottayam,KERALA,9.750672510714285,76.62233675714285
2472,3627,"SH28, Ramanattukara, Neelangoth, Kerala 673637, India",673637,Ernad,Malappuram,KERALA,11.173863454285714,75.90456773285715
2475,3630,"Room No, AP, Golden Square, 1524 Y, Mukkam Road, near SBI Bank, Areekode, Kerala 673639, India",673639,Ernad,Malappuram,KERALA,11.22386355755814,76.05105861802325
2476,3631,"Triveni Courtt, Opp: Reliance Fresh, KP Vallon Rd, Giri Nagar, Kadavanthra, Kochi, Kerala 682020, India",682020,Ernakulam,Ernakulam,KERALA,9.96861736259542,76.30114694656488
2477,3632,"p.o, Kuttamassery, Thottumugham, Aluva, Kerala 683105, India",683105,Kunnathunad,Ernakulam,KERALA,10.094288535294115,76.41706858235294
2480,3636,"Vadavathoor, Kerala 686010, India",686010,Kottayam,Kottayam,KERALA,9.590680228,76.56449500800001
2481,3637,"VII/109, VALLIKADA, BUILDING, Arakuzha Rd, Thottumkalpeedika, Muvattupuzha, Kerala 686673, India",686673,Muvattupuzha,Ernakulam,KERALA,9.98582857409836,76.58100003016393
2483,3639,"Tiruvannamalai, Tamil Nadu, India",688534,Cherthla,Alappuzha,KERALA,9.871729377142858,76.30438504
2485,3641,"Kattukulam, Kerala, India",688534,Cherthla,Alappuzha,KERALA,9.871729377142858,76.30438504
2486,3642,"Rayamangalam, Keezhillam - Kurichilacode Rd, Perumbavoor, Panikarambalam, Kerala 683545, India",683545,Kunnathunad,Ernakulam,KERALA,10.109719963636364,76.52310976666666
2487,3643,"Alia Arcade, Machingal - Munduparamba Rd, Munduparamba, Malappuram, Kerala 676505, India",676505,Ernad,Malappuram,KERALA,11.044320151851853,76.07271957777778
2491,3648,"Kumarakom, Kerala, India",686012,Kottayam,Kottayam,KERALA,9.54856711111111,76.52230786666667
2494,3653,"V826+55H, Chandiroor, Kerala 688535, India",688535,Cherthala,Alappuzha,KERALA,9.8564922,76.32294531666666
2497,3656,"X/135B, K N Krishnankutty Arcade, Vattakunnu, Chottanikkara, Ernakulam, Kerala 682312, India",682312,Kanayannur,Ernakulam,KERALA,9.93112196923077,76.39003445384616
2499,3660,"No 52/3171, 3172, Sharon Tower, opposite Salafi Masjid, Vyttila, Ernakulam, Kochi, Kerala 682019, India",682019,Ernakulam,Ernakulam,KERALA,9.96996995974026,76.31541058961038
2503,3666,"2FVJ+XF8, Unnamed Road, Mazhuvannoor, Kerala 683556, India",683556,Kunnathunad,Ernakulam,KERALA,10.083125960465116,76.47373215813954
2509,3674,"Thottinkkara, Mampad, Kerala 676542, India",676542,Nilambur,Malappuram,KERALA,11.24328006744186,76.19810685581396
2510,3675,"49Q3+487, Kochi, Kerala 683102, India",683102,Aluva,Ernakulam,KERALA,10.120711972131147,76.33862614918033
2514,3681,"387/ B KARIPUZA KARIPUZA MASJID, P.O, Panayikulam, Aluva, Kerala 683511, India",683511,Paravur,Ernakulam,KERALA,10.119306989583333,76.29334000833333
2517,3685,"Masjid Road Market P O, near Central Juma Masjid, Muvattupuzha, Kerala 686673, India",686673,Muvattupuzha,Ernakulam,KERALA,9.98582857409836,76.58100003016393
2518,3686,"Nedumchalil Near Beverages outlet, SH 1, opposite SBI, Muvattupuzha, Kerala 686669, India",686669,Kunnathunad,Ernakulam,KERALA,10.007340951592356,76.52786276496816
2520,3692,"SN Junction, 25, opp. ESAF Bank, Palarivattom, Kochi, Kerala 682025, India",682025,Ernakulam,Ernakulam,KERALA,10.000372668965516,76.30783643448275
2521,3693,"Market Rd, Kacheripady, Ernakulam, Kochi, Kerala 682031, India",682031,Ernakulam,Ernakulam,KERALA,9.99692354,76.27468644
2525,3698,"Mannar, Kerala 689622, India",689622,Chengannur,Alappuzha,KERALA,9.31451967586207,76.53582117241379
2526,3699,"Ooty, Tamil Nadu, India",682024,Ernakulam,Ernakulam,KERALA,10.01888763298969,76.30253450412371
2528,3701,"683572, Karukutty – Moozhikulam Rd, Puliyanm, Kerala 683572, India",683572,Paravur,Ernakulam,KERALA,10.193383310687024,76.38335938931299
2529,3703,"M.C.Road, Kozhippalam - Karakkad Rd, Chengannur, Mulakuzha, Kerala 689504, India",689504,Chengannur,Alappuzha,KERALA,9.28720845,76.65541802999999
2530,3704,"7CFP+J8J, Edalakadu Ezhattumugham Rd, Kerala 683581, India",683581,Aluva,Ernakulam,KERALA,10.23640150576923,76.48074006730769
2532,3706,"No. 9, Service Rd, Padivattom, Edappally, Kochi, Kerala 682024, India",682024,Ernakulam,Ernakulam,KERALA,10.01888763298969,76.30253450412371
2535,3709,"MQMH+H43, Aruvithura, Erattupetta, Kerala 686122, India",686122,Meenachil,Kottayam,KERALA,9.686214525,76.777240075
2537,3711,"Pai Brothers Lane, Mahatma Gandhi Rd, Padma Junction, Shenoys, Ernakulam, Kochi, Kerala 682035, India",682035,Ernakulam,Ernakulam,KERALA,9.979283159183671,76.28271734081633
2539,3714,"PGQ8+XRM, Kuruppanthara, Kerala 686603, India",686603,Vaikom,Kottayam,KERALA,9.73685573,76.51328257200001
2542,3717,"2nd floor, Sunu Plaza, Maradu, Ernakulam, Kochi, Kerala 682304, India",682304,Ernakulam,Ernakulam,KERALA,9.938877706666666,76.32558967666667
2548,3725,"Tiruppur North, Tamil Nadu, India",688534,Cherthla,Alappuzha,KERALA,9.871729377142858,76.30438504
2554,3732,"Santhome, Chennai, Tamil Nadu, India",686012,Kottayam,Kottayam,KERALA,9.54856711111111,76.52230786666667
2555,3733,"Bismillah Trade Centre, 24/1056, St George St, Erezha, Sea View Ward, Alappuzha, Kerala 688001, India",688001,Ambalapuzha,Alappuzha,KERALA,9.49638391904762,76.33209264761905
2577,3769,"SH 1, Vengoor, Angamaly, Kerala 683572, India",683572,Paravur,Ernakulam,KERALA,10.193383310687024,76.38335938931299
2579,3773,"4XW8+2WP, Chungam, Kondotty, Kerala 673638, India",673638,Ernad,Malappuram,KERALA,11.14718034158416,75.96500935445545
2580,3775,"Kolenchery - Mazhuvannoor Road, Kadayirippu, Aikaranad North, Kerala 682311, India",682311,Kunnathunad,Ernakulam,KERALA,9.986131800632911,76.47020598227847
2581,3776,"Tiruppur, Tamil Nadu, India",688534,Cherthla,Alappuzha,KERALA,9.871729377142858,76.30438504
2583,3778,"FGP9+XXM, Thuruthy, Kerala 686535, India",686535,Changanassery,Kottayam,KERALA,9.479609457894735,76.52609346315789
2584,3779,"4XPC+66X, Karipur, Kerala 673638, India",673638,Ernad,Malappuram,KERALA,11.14718034158416,75.96500935445545
2586,3784,"Mudickal - Vanchinadu Road, Mudickal, Kerala 683547, India",683547,Kunnathunad,Ernakulam,KERALA,10.091076425925923,76.43058615555556
2589,3787,"Dubaipadi, Ponniakurussi, Perintalmanna, Kerala 679322, India",679322,Perinthalmanna,Malappuram,KERALA,10.977929251428572,76.22854857333334
2591,3790,"V Publishers, Sreenivasa Iyer Rd, Puthiya Thrikovil Residents Association, Kottayam, Kerala 686001, India",686001,Kottayam,Kottayam,KERALA,9.590939220930233,76.52573586744185
2603,3809,"674C+RR8, Emangad Rd, Wandoor, Kerala 679339, India",679339,Nilambur,Malappuram,KERALA,11.187674797560977,76.25314723414634
2606,3813,"Wayanad, Kerala, India",686012,Kottayam,Kottayam,KERALA,9.54856711111111,76.52230786666667
2610,3820,"near GLPS Nottappuram, C Building, 12- 281, Pullisseri Rd, Kannamangalam, Kerala 676304, India",676304,Tirurangadi,Malappuram,KERALA,11.056520428688524,75.98326629672131
