Name,Address,pincode,Taluk,Districtname,statename,Latitude,Longitude
A.A.NUTS,"WJMW+7F7, Chandanathope, Mamoodu, Kerala 14, India",686012,Kottayam,Kottayam,KERALA,9.54856711111111,76.52230786666667
A.M.FISHERIES,"98WW+WWQ, Valanjavazhy, Ambalapuzha, Kerala 688005, India",688005,Ambalappuzha,Alappuzha,KERALA,9.40768399,76.351707025
AARGEE ASSOCIATES,"MINI INDUSTRIAL ESTATE, PLOT NO .5, near POLICE STATION, Manarcadu, Kerala 686019, India",686019,Kottayam,Kottayam,KERALA,9.592533289090907,76.58230555090908
ABAD FISHERIES,"Kochangadi, Chullickal, Kochi, Kerala 682002, India",682002,Kochi,Ernakulam,KERALA,9.957255232894736,76.25402236842105
ABM MARINE PRODUCTS,"19/2084-E, Nambiapuram Rd, Palluruthy, Kochi, Kerala 682006, India",682006,Kochi,Ernakulam,KERALA,9.917652551851852,76.27326455925926
ACCELERATED FREEZE DRYING CO LTD.,"Accelerated Freeze Drying Co. Ltd. (AFDC, R7CX+HQ6 P.O, Eramallur Ezhupunna Rd, Eramalloor, Ezhupunna, Kerala 688537, India",688537,Cherthala,Alappuzha,KERALA,9.82172572,76.30522974
ACTIVE CHAR PRODUCTS P.LTD.,"Binanipuram, Edayar, Kochi, Kerala 683502, India",683502,Paravur,Ernakulam,KERALA,10.087692555555556,76.30506273333334
SIEMEC EQUIPMENTS,"Binanipuram, Edayar, Kochi, Kerala 683502, India",683502,Paravur,Ernakulam,KERALA,10.087692555555556,76.30506273333334
ADORN GLASS ART,"Near Pampady Gramapanchayth, NH- 220, Pampady Road, Pampady, Kottayam, Pampady, Kerala 686502, India",686502,Kottayam,Kottayam,KERALA,9.581621149411763,76.63691744941177
AGAPPE DIAGNOSTICS LTD.,"Agappe Hills, Pattimattom PO, Kochi, Kerala 683562, India",683562,Aluva,Ernakulam,KERALA,10.034164772289158,76.42900358072289
AKAY FLAVOURS & AROMATICS LTD.,"Akanadu, Mudakuzha P.O, Kurichilakodu, Akanad, Kochi, Vengoor West, Kerala 683546, India",683546,Kunnathunad,Ernakulam,KERALA,10.1428569,76.52744881481482
ALAN TECH INDISTRIAL SOLUTIONS,"Mookkannoor Ezhattumugham Rd, Mookkannoor, Kerala 683577, India",683577,Aluva,Ernakulam,KERALA,10.236465032954545,76.41597145568181
ALBERTS ARTS COLLECTIONS,"X746+P3V, Jew Town Rd, Jew Town, Kappalandimukku, Mattancherry, Kochi, Kerala 682002, India",682002,Kochi,Ernakulam,KERALA,9.957255232894736,76.25402236842105
ALEX MACHINES,"P838+CP5, Kottaram Jn. Rd, Kadakkarappally, Kerala 688529, India",688529,Cherthala,Alappuzha,KERALA,9.705020973333331,76.3096675088889
ALLAKKAT INTERNATIONAL,"P.O, Kommady, Thumpoly, Alappuzha, Aryad South, Kerala 688008, India",688008,Ambalapuzha,Alappuzha,KERALA,9.521471733333334,76.3244164
ALLEPPEY BALERS P.LTD.,"Alappuzha, Kerala, India",682002,Kochi,Ernakulam,KERALA,9.957255232894736,76.25402236842105
ALLEPPEY CO. LTD.,"Alappuzha, Kerala, India",682002,Kochi,Ernakulam,KERALA,9.957255232894736,76.25402236842105
ALLEPPEY BALERS P.LTD.,"Alappuzha, Kerala, India",688534,Cherthla,Alappuzha,KERALA,9.871729377142858,76.30438504
ALLEPPEY CO. LTD.,"Alappuzha, Kerala, India",688534,Cherthla,Alappuzha,KERALA,9.871729377142858,76.30438504
ALPHONSA CASHEW INDUSTRIES,"Puthoor, Kerala 691507, India",691507,Kottarakkara,Kollam,KERALA,9.043139252830189,76.7161006773585
ANASWARA OFFSET P.LTD,"Edappally Raghavan Pillai Road, Junction, Perandoor, Elamakkara, Kochi, Kerala 682026, India",682026,Ernakulam,Ernakulam,KERALA,10.01621266875,76.288820209375
ANCHUTHARA FOOD PRODUCTS,"MLA Rd, Poochakkal, Cherthala, Panavally, Kerala 688526, India",688526,Cherthala,Alappuzha,KERALA,9.806103366981132,76.35243924716981
ACHUTHARA FOOD PRODUCTS,"MLA Rd, Poochakkal, Cherthala, Panavally, Kerala 688526, India",688526,Cherthala,Alappuzha,KERALA,9.806103366981132,76.35243924716981
ANCHUTHENGIL AGRI SUPPLY,"Anchuthengu, Kerala, India",686012,Kottayam,Kottayam,KERALA,9.54856711111111,76.52230786666667
ANGEL CASHEWS,"2QHX+CR5, Thalavoor, Kerala 691560, India",691560,Kottarakara,Kollam,KERALA,9.04378430952381,76.78092363809523
ANJIPARAMBIL ASSOCIATES,"Parambithara Rd, Panampilly Nagar, Kochi, Kerala 682036, India",682036,Ernakulam,Ernakulam,KERALA,9.959980295833333,76.29498357083334
AQUA GENO EXIM,"V872+GG9, Keltron Rd, Aroor gram panchayat, Kochi, Kerala 688534, India",688534,Cherthla,Alappuzha,KERALA,9.871729377142858,76.30438504
AQUA SEAFOOD(INDIA)P.LTD.,"22/1177, Aroor - Thoppumpady Rd, N.H. 47, Edakochi, Kochi, Kerala 682010, India",682010,Kochi,Ernakulam,KERALA,9.9107678,76.29057865833333
ARANI EXPORTS,"Arani, Tamil Nadu, India",682024,Ernakulam,Ernakulam,KERALA,10.01888763298969,76.30253450412371
ARBEE AGENCIES,"Thattaveli Palam, Velloor, Kerala 686605, India",686605,Vaikom,Kottayam,KERALA,9.795920142424242,76.44080179242424
ASHJOE COLD CHAIN ESTABLISHMENT,"Road, Aroor gram panchayat, Kochi, Kerala 688534, India",688534,Cherthla,Alappuzha,KERALA,9.871729377142858,76.30438504
ASMA RUBBER PRODUCTS P. LTD.,"Plot No. 39-B, CSEZ, Kakkanad, Kochi, Kakkanad, Kerala 682037, India",682037,Ernakulam,Ernakulam,KERALA,9.997384706451612,76.34072476129032
ASWIN ASSOCIATES,"XIII/831, Vikas Rd, Karuvelipady, Thoppumpady, Kochi, Kerala 682005, India",682005,Kochi,Ernakulam,KERALA,9.940253061111113,76.25960161388889
ATLANTIC CARE CHEMICALS,"Industrial development plot, Punnapra North, Alappuzha, Kerala 688003, India",688003,Ambalapuzha,Alappuzha,KERALA,9.468575348387096,76.33827430967742
AVLA NETTOS EXPORTS,"WGJW+H82, Neendakara - Chinnakkada Rd, Sakthikulangara North, Kollam, Kerala 691581, India",691581,Kollam,Kollam,KERALA,8.928226436363635,76.54678488181818
AYKARA PHARMACEUTICALS,"2M96+9MP, Moonnumukku - Uppoodu Road, Mathilakom, Kizhakkekallada, Kerala 691502, India",691502,Kollam,Kollam,KERALA,9.008392784545457,76.65603456545455
AYUR PANCHAKARMA EQUIPMENTS,"Velichappat, 3/217 B, Poickattussery, Chengamanad PO Ernakulam District Nedumbassery kurumaseri Road 589P+397, Aluva - Mala Rd, Kerala 683578, Aluva, Kerala 683585, India",683578,Paravur,Ernakulam,KERALA,10.155197839473685,76.30713587631578
B.S.RUBBERS,"IX/45-N INDUSTRIAL DEVELOPMENT PLOT, Poovanthuruthu, Kerala 686012, India",686012,Kottayam,Kottayam,KERALA,9.54856711111111,76.52230786666667
BABIN TECHNOLOGIES,"5V2R+RX3, Kakkanchery, Chelambra, Kerala 673636, India",673636,Tirurangadi,Malappuram,KERALA,11.118472538297873,75.8919613468085
BABU COIR WORKS,"Pathirappally Omanappuzha Road, Pattukalam, Alappuzha, Kerala 688522, India",688522,Ambalapuzha,Alappuzha,KERALA,9.572168202777778,76.32190507222222
BABY MARINE INTERNATIONAL,"Thoppumpady, W7M8+59J, Thoppumpady, Kochi, Kerala 682005, India",682005,Kochi,Ernakulam,KERALA,9.940253061111113,76.25960161388889
BAFNA ENTERPRISES,"V798+RQR, puthenthode, Kannamaly, Kochi, Kerala 682008, India",682008,Kochi,Ernakulam,KERALA,9.869597658064515,76.26596289354838
BAKKHUS MERLOT INDUSTRIES,"D-47&48, Municipal Shopping Complex, AM Rd, Perumbavoor, Kerala 683542, India",683542,Kunnathunad,Ernakulam,KERALA,10.114937405454544,76.47808056363637
BASCO FOODS (INDIA )PVT. LTD ,"29Q2+WHJ, Edappally - Pukkattupady Rd, Kollamkudimugal, Kangarappady, Kochi, Kerala 682021, India",682021,Ernakulam,Ernakulam,KERALA,10.029233765060242,76.3353045433735
BASH-P INTERNATIONAL,"2947+MW7, Infopark Campus, Infopark, Kakkanad, Kerala 682030, India",682030,Ernakulam,Ernakulam,KERALA,51.13351584878049,133.02442981463415
BELL FOODS,"Pallichal Rd, Valummel, Kochi, Kerala 682005, India",682005,Kochi,Ernakulam,KERALA,9.940253061111113,76.25960161388889
BETHANYA CASHEW COMPANY,"Mavady Post, Enathu Puthoor Rd, Kerala 691507, India",691507,Kottarakkara,Kollam,KERALA,9.043139252830189,76.7161006773585
BETHSAIDA CASHEW COMPANY,"Kollam Kerala, Kerala 691507, India",691507,Kottarakkara,Kollam,KERALA,9.043139252830189,76.7161006773585
BISMI TRADING COMPANY,"EEC Market, Market P.O, Vazhappily, Muvattupuzha, Kerala 686673, India",686673,Muvattupuzha,Ernakulam,KERALA,9.98582857409836,76.58100003016393
BISMILLAH AGRI COMMODITIES,"HMD BUILDING, 18/1640, Karicode, Koikkal, Kollam, Kerala 691004, India",691004,Kollam,Kollam,KERALA,8.904030673684211,76.62197661052632
BLASTLINE  INDIA,"48/2510D4, 2nd Floor, Blastline Corporate Chamber,Pottakuzhi Elamakkakara (PO, Perandoor Rd, Mamangalam, Kaloor, Ernakulam, Kochi, Kerala 682026, India",682026,Ernakulam,Ernakulam,KERALA,10.01621266875,76.288820209375
BLUEMOUNTAIN EXPORTERS,"14/486, East, Pandikudy, Chullickal, Kochi, Kerala 682001, India",682001,Kochi,Ernakulam,KERALA,9.961975513432836,76.24336774328359
BROS INDIA GROUP,"J9C6+WCC, Kayippuram, Muhamma, Kerala 688525, India",688525,Cherthala,Alappuzha,KERALA,9.619357622727271,76.35883995454545
BUSTHAN AL WATHANIYA,"P9V4+QVH, Pallipuram, Kerala 688541, India",688541,Cherthala,Alappuzha,KERALA,9.742432095238096,76.36193387142858
C.R.I.RUBBERS,"XI /799, VIJAYAPURAM, Vadavathoor, Kottayam, Kerala 686010, India",686010,Kottayam,Kottayam,KERALA,9.590680228,76.56449500800001
CARRIS PIPES,"P.B. No.2, Koovappady P.O, Akanad, Kerala 683544, India",683544,Kunnathunad,Ernakulam,KERALA,10.166672573758866,76.50774667872341
CAT COIR,"Coir park 1 Thiruvizha North Road, Post, Mayithara, Cherthala South, Kerala 688539, India",688539,Cherthala,Alappuzha,KERALA,9.66428288888889,76.34121377777778
CATHOLIC ART CENTRE,"Broadway, Church St, Marine Drive, Ernakulam, Kochi, Kerala 682031, India",682031,Ernakulam,Ernakulam,KERALA,9.99692354,76.27468644
CEAKAY INDUSTRIES,"Ponpuzha, Ithithanam Post, Changanacherry Near Saintgits college, Pathamuttom, Kottayam, Ithithanam, Kerala 686535, India",686535,Changanassery,Kottayam,KERALA,9.479609457894735,76.52609346315789
CHANDRA CASHEW FACTORY,"2PCC+JGV, Thevalapuram, Neduvathoor, Kerala 691507, India",691507,Kottarakkara,Kollam,KERALA,9.043139252830189,76.7161006773585
CHARANKATTU COIR MFG.CO.P.LTD.,"AS Road, J84M+GF5, Kanjikuzhy, Shertallay, Kerala 688524, India",688524,Cherthala,Alappuzha,KERALA,9.6891011625,76.33285069583334
CHARLY FISHERIES,"WGPV+RXG, Neendakara, Kollam, Kerala 691582, India",691582,Karunagapally,Kollam,KERALA,8.9475339,76.53934165
CHEMMEENS (REGD),"Chemmeens Junction,Karuvekipady, Kochi-682005, Karuvelipady, Kazhuthumuttu, Thoppumpady, Kochi, Kerala 682005, India",682005,Kochi,Ernakulam,KERALA,9.940253061111113,76.25960161388889
CHERUKATTU INDUSTRIES,"V8C7+3QX Cherukattu Industries, Aroor gram panchayat, Kochi, Kerala 688534, India",688534,Cherthla,Alappuzha,KERALA,9.871729377142858,76.30438504
CHETHANA PHARMACEUTICALS,"X6CJ+F69, Shanti Nagar, Perintalmanna, Kerala 679322, India",679322,Perinthalmanna,Malappuram,KERALA,10.977929251428572,76.22854857333334
CII GUARDIAN INTERNATIONAL LTD.,"16B, CSEZ, Kakkanad, Kerala 682037, India",682037,Ernakulam,Ernakulam,KERALA,9.997384706451612,76.34072476129032
CLAIRON FILTERS,"Plot. No.41, 37, CSEZ, Kakkanad, Kochi, Kakkanad, Kerala 682037, India",682037,Ernakulam,Ernakulam,KERALA,9.997384706451612,76.34072476129032
CLASSIC COIR FACTORY,"IV/833, MSP, Valavanad, Pollethai, Alappuzha, Kerala 688522, India",688522,Ambalapuzha,Alappuzha,KERALA,9.572168202777778,76.32190507222222
COCHIN CADALAS P.LTD.,"Kochi, Kerala, India",682024,Ernakulam,Ernakulam,KERALA,10.01888763298969,76.30253450412371
COCHIN CONDIMENTS P.LTD.,"Kochi, Kerala, India",682024,Ernakulam,Ernakulam,KERALA,10.01888763298969,76.30253450412371
COCHIN COSMOS FOODS LTD.,"Kochi, Kerala, India",682024,Ernakulam,Ernakulam,KERALA,10.01888763298969,76.30253450412371
COCHIN DIES AND MOULDS,"Kochi, Kerala, India",682024,Ernakulam,Ernakulam,KERALA,10.01888763298969,76.30253450412371
COCHIN FROZEN FOOD EXPORTS P. LTD.,"Kochi, Kerala, India",682024,Ernakulam,Ernakulam,KERALA,10.01888763298969,76.30253450412371
COCHIN RECLAIM & RUBBER,"Kochi, Kerala, India",682024,Ernakulam,Ernakulam,KERALA,10.01888763298969,76.30253450412371
COCHIN RUBBER INDUSTRIES,"Kochi, Kerala, India",682024,Ernakulam,Ernakulam,KERALA,10.01888763298969,76.30253450412371
COCHIN TRADING,"Kochi, Kerala, India",682024,Ernakulam,Ernakulam,KERALA,10.01888763298969,76.30253450412371
KOCHI IMPEX,"Kochi, Kerala, India",682024,Ernakulam,Ernakulam,KERALA,10.01888763298969,76.30253450412371
KOCHI BENNALE,"Kochi, Kerala, India",682024,Ernakulam,Ernakulam,KERALA,10.01888763298969,76.30253450412371
COCHIN CHEMICALS & RUBBER PRODUCTS,"Kochi, Kerala, India",682024,Ernakulam,Ernakulam,KERALA,10.01888763298969,76.30253450412371
COCHIN PACKERS,"Kochi, Kerala, India",682024,Ernakulam,Ernakulam,KERALA,10.01888763298969,76.30253450412371
"COCHIN FOOD TECH P. LTD,","Kochi, Kerala, India",682024,Ernakulam,Ernakulam,KERALA,10.01888763298969,76.30253450412371
COCHIN CADALAS P.LTD.,"Kochi, Kerala, India",682002,Kochi,Ernakulam,KERALA,9.957255232894736,76.25402236842105
COCHIN CONDIMENTS P.LTD.,"Kochi, Kerala, India",682002,Kochi,Ernakulam,KERALA,9.957255232894736,76.25402236842105
COCHIN COSMOS FOODS LTD.,"Kochi, Kerala, India",682002,Kochi,Ernakulam,KERALA,9.957255232894736,76.25402236842105
COCHIN DIES AND MOULDS,"Kochi, Kerala, India",682002,Kochi,Ernakulam,KERALA,9.957255232894736,76.25402236842105
COCHIN FROZEN FOOD EXPORTS P. LTD.,"Kochi, Kerala, India",682002,Kochi,Ernakulam,KERALA,9.957255232894736,76.25402236842105
COCHIN RECLAIM & RUBBER,"Kochi, Kerala, India",682002,Kochi,Ernakulam,KERALA,9.957255232894736,76.25402236842105
COCHIN RUBBER INDUSTRIES,"Kochi, Kerala, India",682002,Kochi,Ernakulam,KERALA,9.957255232894736,76.25402236842105
COCHIN TRADING,"Kochi, Kerala, India",682002,Kochi,Ernakulam,KERALA,9.957255232894736,76.25402236842105
KOCHI IMPEX,"Kochi, Kerala, India",682002,Kochi,Ernakulam,KERALA,9.957255232894736,76.25402236842105
KOCHI BENNALE,"Kochi, Kerala, India",682002,Kochi,Ernakulam,KERALA,9.957255232894736,76.25402236842105
COCHIN CHEMICALS & RUBBER PRODUCTS,"Kochi, Kerala, India",682002,Kochi,Ernakulam,KERALA,9.957255232894736,76.25402236842105
COCHIN PACKERS,"Kochi, Kerala, India",682002,Kochi,Ernakulam,KERALA,9.957255232894736,76.25402236842105
"COCHIN FOOD TECH P. LTD,","Kochi, Kerala, India",682002,Kochi,Ernakulam,KERALA,9.957255232894736,76.25402236842105
COCHIN CADALAS P.LTD.,"Kochi, Kerala, India",688524,Cherthala,Alappuzha,KERALA,9.6891011625,76.33285069583334
COCHIN CONDIMENTS P.LTD.,"Kochi, Kerala, India",688524,Cherthala,Alappuzha,KERALA,9.6891011625,76.33285069583334
COCHIN COSMOS FOODS LTD.,"Kochi, Kerala, India",688524,Cherthala,Alappuzha,KERALA,9.6891011625,76.33285069583334
COCHIN DIES AND MOULDS,"Kochi, Kerala, India",688524,Cherthala,Alappuzha,KERALA,9.6891011625,76.33285069583334
COCHIN FROZEN FOOD EXPORTS P. LTD.,"Kochi, Kerala, India",688524,Cherthala,Alappuzha,KERALA,9.6891011625,76.33285069583334
COCHIN RECLAIM & RUBBER,"Kochi, Kerala, India",688524,Cherthala,Alappuzha,KERALA,9.6891011625,76.33285069583334
COCHIN RUBBER INDUSTRIES,"Kochi, Kerala, India",688524,Cherthala,Alappuzha,KERALA,9.6891011625,76.33285069583334
COCHIN TRADING,"Kochi, Kerala, India",688524,Cherthala,Alappuzha,KERALA,9.6891011625,76.33285069583334
KOCHI IMPEX,"Kochi, Kerala, India",688524,Cherthala,Alappuzha,KERALA,9.6891011625,76.33285069583334
KOCHI BENNALE,"Kochi, Kerala, India",688524,Cherthala,Alappuzha,KERALA,9.6891011625,76.33285069583334
COCHIN CHEMICALS & RUBBER PRODUCTS,"Kochi, Kerala, India",688524,Cherthala,Alappuzha,KERALA,9.6891011625,76.33285069583334
COCHIN PACKERS,"Kochi, Kerala, India",688524,Cherthala,Alappuzha,KERALA,9.6891011625,76.33285069583334
"COCHIN FOOD TECH P. LTD,","Kochi, Kerala, India",688524,Cherthala,Alappuzha,KERALA,9.6891011625,76.33285069583334
COCHIN EXPORTS,"Federal Park, Vennala, Ernakulam, Kochi, Kerala 682028, India",682028,Ernakulam,Ernakulam,KERALA,9.99670085,76.32102778
COCHIN EXPORTS  ,"Federal Park, Vennala, Ernakulam, Kochi, Kerala 682028, India",682028,Ernakulam,Ernakulam,KERALA,9.99670085,76.32102778
COCHIN CADALAS P.LTD.,"Kochi, Kerala, India",688534,Cherthla,Alappuzha,KERALA,9.871729377142858,76.30438504
COCHIN CONDIMENTS P.LTD.,"Kochi, Kerala, India",688534,Cherthla,Alappuzha,KERALA,9.871729377142858,76.30438504
COCHIN COSMOS FOODS LTD.,"Kochi, Kerala, India",688534,Cherthla,Alappuzha,KERALA,9.871729377142858,76.30438504
COCHIN DIES AND MOULDS,"Kochi, Kerala, India",688534,Cherthla,Alappuzha,KERALA,9.871729377142858,76.30438504
COCHIN FROZEN FOOD EXPORTS P. LTD.,"Kochi, Kerala, India",688534,Cherthla,Alappuzha,KERALA,9.871729377142858,76.30438504
COCHIN RECLAIM & RUBBER,"Kochi, Kerala, India",688534,Cherthla,Alappuzha,KERALA,9.871729377142858,76.30438504
COCHIN RUBBER INDUSTRIES,"Kochi, Kerala, India",688534,Cherthla,Alappuzha,KERALA,9.871729377142858,76.30438504
COCHIN TRADING,"Kochi, Kerala, India",688534,Cherthla,Alappuzha,KERALA,9.871729377142858,76.30438504
KOCHI IMPEX,"Kochi, Kerala, India",688534,Cherthla,Alappuzha,KERALA,9.871729377142858,76.30438504
KOCHI BENNALE,"Kochi, Kerala, India",688534,Cherthla,Alappuzha,KERALA,9.871729377142858,76.30438504
COCHIN CHEMICALS & RUBBER PRODUCTS,"Kochi, Kerala, India",688534,Cherthla,Alappuzha,KERALA,9.871729377142858,76.30438504
COCHIN PACKERS,"Kochi, Kerala, India",688534,Cherthla,Alappuzha,KERALA,9.871729377142858,76.30438504
"COCHIN FOOD TECH P. LTD,","Kochi, Kerala, India",688534,Cherthla,Alappuzha,KERALA,9.871729377142858,76.30438504
COCHIN MINERALS AND RUTILE LTD.,"Poorna Nagar Park,, 4952+GWW, Periyar Nagar, Aluva, Kerala 683101, India",683101,Aluva,Ernakulam,KERALA,10.095680780412373,76.36233782061856
COCHIN SURFACTANTS P.LTD.,"PLOT no 63, Edayar, Kerala 683502, India",683502,Paravur,Ernakulam,KERALA,10.087692555555556,76.30506273333334
COCHIN TRADERS COCHIN,"20/46B, Near I.O.C Petrol Pump, Palluruthy Veli, Aroor - Thoppumpady Rd, Palluruthy, Kochi, Kerala 682006, India",682006,Kochi,Ernakulam,KERALA,9.917652551851852,76.27326455925926
COCO  FIBRE TEX,"G83H+F9Q, Aarattuvazhi, Kanjiramchira, Aryad South, Alappuzha, Kerala 688007, India",688007,Ambalapuzh A,Alappuzha,KERALA,9.510326070833331,76.3268778625
COIMBATORE POTTERIES & REFRACTORIES,"Coimbatore, Tamil Nadu, India",682024,Ernakulam,Ernakulam,KERALA,10.01888763298969,76.30253450412371
2F WIND POWER COIMBATORE PVT LTD,"Coimbatore, Tamil Nadu, India",682024,Ernakulam,Ernakulam,KERALA,10.01888763298969,76.30253450412371
COIMBATORE SUPER ALLOYS P.LTD.,"Coimbatore, Tamil Nadu, India",682024,Ernakulam,Ernakulam,KERALA,10.01888763298969,76.30253450412371
MIRACLE RECLAIM RUBBER COIMBATORE P.LTD.,"Coimbatore, Tamil Nadu, India",682024,Ernakulam,Ernakulam,KERALA,10.01888763298969,76.30253450412371
COIMBATORE COTS & COATINGS LTD.,"Coimbatore, Tamil Nadu, India",682024,Ernakulam,Ernakulam,KERALA,10.01888763298969,76.30253450412371
COIMBATORE POLYTEX,"Coimbatore, Tamil Nadu, India",682024,Ernakulam,Ernakulam,KERALA,10.01888763298969,76.30253450412371
COIR FLEX,"Building No.X11, Pattanakkad, Cherthala, Pattanakkad, Kerala 688531, India",688531,Cherthala,Alappuzha,KERALA,9.725622914130437,76.31563821847826
COIR FLOOR FURNISHING CO.,"Kalyan Villa, Vellakinar Rd, Vellakkinar, Alappuzha, Kerala 688001, India",688001,Ambalapuzha,Alappuzha,KERALA,9.49638391904762,76.33209264761905
COIR MATES INDIA,"TP-12/498K, Varanad PO, Cherthala, Pin: 688539, Alappuzha, Cherthala, Kerala 688524, India",688539,Cherthala,Alappuzha,KERALA,9.66428288888889,76.34121377777778
COMET EXPORTS,"J88R+699, Kanjikuzhy, Kanjikkuzhi, Kerala 688525, India",688525,Cherthala,Alappuzha,KERALA,9.619357622727271,76.35883995454545
CONSOLIDATED WOOD INDUSTRIES,"Chingavanam, Kerala 686007, India",686007,Kottayam,Kottayam,KERALA,9.531553366666667,76.5150448
COONOOR TEA ESTATES CO. LTD.,"Coonoor, Tamil Nadu, India",682002,Kochi,Ernakulam,KERALA,9.957255232894736,76.25402236842105
COVEMA FILAMENTS LTD.,"14-B, CSEZ, Kakkanad, Kerala 682037, India",682037,Ernakulam,Ernakulam,KERALA,9.997384706451612,76.34072476129032
CRAFT INDIA FOOTWEAR CALICUT,"Kozhikode, Kerala, India",682024,Ernakulam,Ernakulam,KERALA,10.01888763298969,76.30253450412371
CRESCENT INTERNATIONAL TYRE TREADS,"9/22 HA IDA, Nalam Mile, ALUVA, Kerala 683112, India",683112,Kunnathunad,Ernakulam,KERALA,10.08974094375,76.39621829375
CROSSINGS INTERNATIONAL DISTRIBUTION,"682037, CSEZ, Kochi, Kakkanad, Kerala 682037, India",682037,Ernakulam,Ernakulam,KERALA,9.997384706451612,76.34072476129032
D.C. MILLS,"Valavanadu, Kalavoor P.O., Kanjikuzhy, Ward 1, Alappuzha, Kerala 688522, India",688522,Ambalapuzha,Alappuzha,KERALA,9.572168202777778,76.32190507222222
DEEPA AGENCIES,"39/1384 Four Star Buildings Chittoor Road Valanjambalam, Ernakulam South, Kochi, Kerala 682016, India",682016,Ernakulam,Ernakulam,KERALA,9.965396735294116,76.28713604901961
DELSEA EXPORTS P.LTD.,"Nambiapuram, Palluruthy, Kochi, Kerala 682006, India",682006,Kochi,Ernakulam,KERALA,9.917652551851852,76.27326455925926
DEVICOLAM DISTILLERIES LTD,"Parakkamugal Infopark Rd, Infopark Campus, Kochi, Kakkanad, Kerala 682030, India",682030,Ernakulam,Ernakulam,KERALA,51.13351584878049,133.02442981463415
DOLPHIN RUBBER INDUSTRIES,"Industrial Development Plot, Poovanthuruthu, Kottayam, Kerala 686012, India",686012,Kottayam,Kottayam,KERALA,9.54856711111111,76.52230786666667
DREAMS EXPORTS,"7G3C+5GX, Thattarambalam, Mavelikara, Kannamangalam North, Kerala 690103, India",690103,Mavelikkara,Alappuzha,KERALA,9.250708,76.51850396153846
DUSTAN WOOD,"Kurichy, Thuruthy, Kerala 686532, India",686532,Changanassery,Kottayam,KERALA,9.502805928070176,76.51869062982456
DYNAMIC TECHNO MEDICALS PVT. LTD.,"Kodikuthimala, Ashokapuram, Edathala, Aluva, Kerala 683101, India",683101,Aluva,Ernakulam,KERALA,10.095680780412373,76.36233782061856
EASTERN RUG MILLS,"CCSB Rd, Civil Station Ward, Alappuzha, Kerala 688001, India",688001,Ambalapuzha,Alappuzha,KERALA,9.49638391904762,76.33209264761905
EGATE INTERNATIONAL,"Lane 1, VRWA, near State Bank of India, Vyttila, Ernakulam, Kochi, Kerala 682019, India",682019,Ernakulam,Ernakulam,KERALA,9.96996995974026,76.31541058961038
EMMANUEL CASHEW INDUSTRIES,"WRP4+F59, Konnathu Mukku - Mathayi Mukku Rd, Chepra, Kerala 691520, India",691520,Kottarakkara,Kollam,KERALA,8.947908536734694,76.79522364897959
ENGINEERED  ELASTOMER SOLUTIONS CO.,"SDF 16A, IVth Floor, CSEZ, Kakkanad, Kochi, Kakkanad, Kerala 682037, India",682037,Ernakulam,Ernakulam,KERALA,9.997384706451612,76.34072476129032
ESCON CHEMICAL COMPANY,"423 A South vellarapilly, po, Kochi, Thekkumbhagom, Kerala 683580, India",683580,Aluva,Ernakulam,KERALA,10.13932176153846,76.40794163846154
ESMARIO EXPORT ENTERPRISES,"WHH6+WJW, Kavanad, Sakthikulangara North, Kollam, Kerala 691003, India",691003,Kollam,Kollam,KERALA,8.915929604166667,76.55627739166667
EVEREST WOOD INDUSTRIES,"Xix/318 Kanjirakkadu, Rayonpuram P.O, Perumbavoor Kochi- 683543, Kerala, Ernakulam, Perumbavoor, Kerala 683543, India",683543,Kunnathunad,Ernakulam,KERALA,10.1228594125,76.48358803125
EVERGREEN EXPORTS,"Willingdon Island, Kochi, Kerala 682003, India",682003,Kochi,Ernakulam,KERALA,9.960447846153846,76.27093469230769
EXCEL LEATHERS,"Near KSEB, 68/1637A, Mariakutty John Rd, near Power House Road, Power House Junction, Kacheripady, Kochi, Kerala 682018, India",682018,Ernakulam,Ernakulam,KERALA,9.991596463636364,76.28133009181818
F.G.TRADING COMPANY,"Room No:40/5476, First Floor,Ruquia Chamber, TD Rd, Padma Junction, Pullepady, Kochi, Kerala 682035, India",682035,Ernakulam,Ernakulam,KERALA,9.979283159183671,76.28271734081633
FAVOUR-ITA INTERNATIONAL,"Door No. XI/408, NH-66, Cheriakadavu, Kannamaly, Cheriakadavu, Kannamaly, Kochi, Kerala 682008, India",682008,Kochi,Ernakulam,KERALA,9.869597658064515,76.26596289354838
FCI OEN CONNECTORS LTD.,"29/2089 State Highway 15 Tripunithura, Road, Thykoodam, Vyttila, Kochi, Kerala 682019, India",682019,Ernakulam,Ernakulam,KERALA,9.96996995974026,76.31541058961038
FEBIN MARINE FOODS,"Eramalloor,, Chandiroor, Alappuzha, Kerala 688537, India",688537,Cherthala,Alappuzha,KERALA,9.82172572,76.30522974
R.F. EXPORTS,"Eramalloor,, Chandiroor, Alappuzha, Kerala 688537, India",688537,Cherthala,Alappuzha,KERALA,9.82172572,76.30522974
FIBER WONDERS,"M899+27Q Perumpara Juction, Po, Kuruppan Kulangara, Cherthala, Cherthala South, Kerala 688539, India",688539,Cherthala,Alappuzha,KERALA,9.66428288888889,76.34121377777778
FIBRE WORLD,"S.N.V. Road, Kannadikavala, Aryakara, Muhamma, Kerala 688525, India",688525,Cherthala,Alappuzha,KERALA,9.619357622727271,76.35883995454545
FILTROWIN INDUSTRIES,"1150c, Subhash Chandra Bose Rd, Jawahar Nagar, Elamkulam, Kochi, Kerala 682020, India",682020,Ernakulam,Ernakulam,KERALA,9.96861736259542,76.30114694656488
FINE ART EMPORIUM,"6/140, Synagogue Ln, Jew Town, Kappalandimukku, Mattancherry, Kochi, Kerala 682002, India",682002,Kochi,Ernakulam,KERALA,9.957255232894736,76.25402236842105
FIVE STAR OFFSET PRINTERS,"Press Kottadayil Building, Near North,, Lakeshore Hospital, Nettoor, Maradu, Kochi, Kerala 682040, India",682040,Kanayannur,Ernakulam,KERALA,9.923889512121212,76.31571828181819
FOAM MATTINGS INDIA LTD.,"beach, Civil Station Ward, Alappuzha, Kerala 688012, India",688012,Ambalapuzha,Alappuzha,KERALA,9.490780478571429,76.32486257142857
FOCUS APPARELS,"AV Building, Cherattukuzhi Road, Down Hill, Malappuram, Kerala 676519, India",676519,Ernad,Malappuram,KERALA,11.05071221125,76.03817599
FOODCO DELICASIES INDIA P.LTD.,"R8MQ+C3G, Cherthala - Arookutty Rd, Panavally, Kerala 688526, India",688526,Cherthala,Alappuzha,KERALA,9.806103366981132,76.35243924716981
FOOT WELL EXIM,"Aravankara - Mini Ootty - Arimbramala Rd, Pookkottur, Kerala 676517, India",676517,Ernad,Malappuram,KERALA,11.081878113043478,76.06632696956521
FRIENDS MARINE INDUSTRIES,"R8C3+Q4R Between konkery bridge and Railway cross, Vattathara, Ezhupunna, Kerala 688537, India",688537,Cherthala,Alappuzha,KERALA,9.82172572,76.30522974
G.K.S BUSINESS ASSOCIATES,"GKS COMPLEX, 4/450 , AROOKUTTY FERRY ROAD , AROOR 688534, Aroor gram panchayat, Kochi, Kerala 688534, India",688534,Cherthla,Alappuzha,KERALA,9.871729377142858,76.30438504
GENERAL RUBBERS,"MGHX+HMC, Industrial Estate Rd, Ettumanoor, Kerala 686631, India",686631,Kottayam,Kottayam,KERALA,9.673597835897436,76.55975298397436
GEO SEAFOODS,"Pallichal Road, Valummel, Pallichal, Kochi, Kerala 682005, India",682005,Kochi,Ernakulam,KERALA,9.940253061111113,76.25960161388889
GLENROCK RUBBER PRODUCTS P. LTD.,"Mallikassery, Kerala 686577, India",686577,Meenachil,Kottayam,KERALA,9.640891316,76.737008176
GLOBAL EXPORTERS,"2nd Floor,307/C6,KSIE Building Cochin InternationalContainer Freight Staton, Old Anavathil Jn ICTT Road, P.O, Udyogamandal, Kalamassery, Kochi, Kerala 683501, India",683501,Ernakulam,Ernakulam,KERALA,10.065396075,76.305478
GLOBEX GLOVES,"3F3J+62X, Vengola, Kerala 683556, India",683556,Kunnathunad,Ernakulam,KERALA,10.083125960465116,76.47373215813954
GOOD EARTH ORGANIC,"5CFP+MQ4, Enchackal Kavala, Kalady, Kerala 683574, India",683574,Aluva,Ernakulam,KERALA,10.182817160958905,76.45845344931507
GRAND MARINE FOODS,"II/750A, Industrial Development Area, Aroor gram panchayat, Kochi, Kerala 688534, India",688534,Cherthla,Alappuzha,KERALA,9.871729377142858,76.30438504
GRANDMAS FOOD PRODUCTS,"Peringuzha, XJ52+MH5, Perumpalloor P.O., Peringuzha, Ernakulam, Muvattupuzha, Kerala 686673, India",686673,Muvattupuzha,Ernakulam,KERALA,9.98582857409836,76.58100003016393
GREEN METHOD ENGINEERING P.LTD.,"ATC Building, Moolepadam Nagar Road HMT Junction, Kalamassery, HMT Junction, Moolepadam Nagar, South Kalamassery, Kalamassery, Kochi, Kerala 683104, India",683104,Kanayannur,Ernakulam,KERALA,10.057542963636363,76.31917809090909
GREEN VALLEY CONDIMENTS,"Aluva - Mala Rd, Ayroor, Attupuram, Kerala 683579, India",683579,Paravur,Ernakulam,KERALA,10.180445387272728,76.31635012181819
GREEN WORLD COIR EXPORTS,"1/335, Rose St, Fort Nagar, Fort Kochi, Kochi, Kerala 682001, India",682001,Kochi,Ernakulam,KERALA,9.961975513432836,76.24336774328359
GREENLEAF EXTRACTIONS PVT LTD,"Plot No: 15, KINFRA HI-TECH Park, Opp Co-operative Medical College, P.O, HMT Colony, North Kalamassery, Kalamassery, Kochi, Kerala 683503, India",683503,Kanayannur,Ernakulam,KERALA,10.0582879625,76.337153153125
GRIPPO POLYMERS,"XXX7+GXF, Edappally - Panvel Hwy, Kerala 676508, India",676508,Tirurangadi,Malappuram,KERALA,11.054313333333331,75.93619846
HANDICRAFTS DEVE. CORPN. OF KERALA LTD.,"Kerala, India",682002,Kochi,Ernakulam,KERALA,9.957255232894736,76.25402236842105
KERAL DINESH BEEDI WORKERS,"Kerala, India",682002,Kochi,Ernakulam,KERALA,9.957255232894736,76.25402236842105
KERALA AGRO MACHINERY CORPN. LTD.,"Kerala, India",682002,Kochi,Ernakulam,KERALA,9.957255232894736,76.25402236842105
KERALA CARDAMOM PROCESSING & MKTG.CO.LTD,"Kerala, India",682002,Kochi,Ernakulam,KERALA,9.957255232894736,76.25402236842105
KERALA CERAMICS LTD.,"Kerala, India",682002,Kochi,Ernakulam,KERALA,9.957255232894736,76.25402236842105
KERALA DINESH BEEDI WORKERS,"Kerala, India",682002,Kochi,Ernakulam,KERALA,9.957255232894736,76.25402236842105
KERALA HOME FOOD STUFF EXPORT,"Kerala, India",682002,Kochi,Ernakulam,KERALA,9.957255232894736,76.25402236842105
KERALA MINERALS & METALS LTD.,"Kerala, India",682002,Kochi,Ernakulam,KERALA,9.957255232894736,76.25402236842105
KERALA RUBBER & RECLAIMS LTD.,"Kerala, India",682002,Kochi,Ernakulam,KERALA,9.957255232894736,76.25402236842105
KERALA STATE CASHEW WORKERS APEX INDSTL.,"Kerala, India",682002,Kochi,Ernakulam,KERALA,9.957255232894736,76.25402236842105
KERALA STATE CO-OP.RUBBER MKT.FED.LTD.,"Kerala, India",682002,Kochi,Ernakulam,KERALA,9.957255232894736,76.25402236842105
KERALA VILLAGE CRAFTS,"Kerala, India",682002,Kochi,Ernakulam,KERALA,9.957255232894736,76.25402236842105
MORE COMPUTERS(KERALA)P.LTD.,"Kerala, India",682002,Kochi,Ernakulam,KERALA,9.957255232894736,76.25402236842105
RAM BAHADUR THAKUR KERALA P. LTD.,"Kerala, India",682002,Kochi,Ernakulam,KERALA,9.957255232894736,76.25402236842105
TUSCANY KERALA GARMENTS P.LTD.,"Kerala, India",682002,Kochi,Ernakulam,KERALA,9.957255232894736,76.25402236842105
KERALA ELECTRICAL&ALLIED ENGG.CO.LTD.,"Kerala, India",682002,Kochi,Ernakulam,KERALA,9.957255232894736,76.25402236842105
KERALA HANDICRATS,"Kerala, India",682002,Kochi,Ernakulam,KERALA,9.957255232894736,76.25402236842105
KERALA KERAKARSHAKA FEDERATION LTD.,"Kerala, India",682002,Kochi,Ernakulam,KERALA,9.957255232894736,76.25402236842105
KERALA CONSTRUCTION SPECIALITIES,"Kerala, India",682002,Kochi,Ernakulam,KERALA,9.957255232894736,76.25402236842105
KERALA STATE ELECTRONIC DEV. CORPN. LTD.,"Kerala, India",682002,Kochi,Ernakulam,KERALA,9.957255232894736,76.25402236842105
KERALA PLANTATIONS,"Kerala, India",682002,Kochi,Ernakulam,KERALA,9.957255232894736,76.25402236842105
KERALA STATE INDSTL.ENTERPRISES,"Kerala, India",682002,Kochi,Ernakulam,KERALA,9.957255232894736,76.25402236842105
KERALA SANGHEETHA NATAK ACCADEMY,"Kerala, India",682002,Kochi,Ernakulam,KERALA,9.957255232894736,76.25402236842105
KERALA SEA FOODS,"Kerala, India",682002,Kochi,Ernakulam,KERALA,9.957255232894736,76.25402236842105
REGIONAL AGRO INDSTL.DEVELOPMENT CO.OP.OF KERALA L,"Kerala, India",682002,Kochi,Ernakulam,KERALA,9.957255232894736,76.25402236842105
KERALA EXPORTS,"Kerala, India",682002,Kochi,Ernakulam,KERALA,9.957255232894736,76.25402236842105
KERALA STATE CO-OPERATIVE FEDERATION FOR FISHERIES,"Kerala, India",682002,Kochi,Ernakulam,KERALA,9.957255232894736,76.25402236842105
KERALA IMPEX,"Kerala, India",682002,Kochi,Ernakulam,KERALA,9.957255232894736,76.25402236842105
KERAL DHARA,"Kerala, India",682002,Kochi,Ernakulam,KERALA,9.957255232894736,76.25402236842105
HERBAL ISOLATES P. LTD.,"XCVM+QPG, Aikaranad North, Kerala 682310, India",682310,Kunnathunad,Ernakulam,KERALA,9.98790642,76.430152955
HIC-ABF SPECIAL FOODS P.LTD.,"Project Colony Road, Industrial Development Area, Aroor, Aroor gram panchayat, Kochi, Kerala 688534, India",688534,Cherthla,Alappuzha,KERALA,9.871729377142858,76.30438504
HIGH SEAS EXIM,"National Highway 47, Chandiroor, Kerala 688535, India",688535,Cherthala,Alappuzha,KERALA,9.8564922,76.32294531666666
HOLMARC OPTO-MECHATRONICS PVT LTD,"B.7, HMT Rd, Industrial Estate, P.O, Kalamassery, Kochi, Kerala 683503, India",683503,Kanayannur,Ernakulam,KERALA,10.0582879625,76.337153153125
HYKA POLYURETHANELS,"23G4+J3V, Malappuram, Kerala 676528, India",676528,Tirurangadi,Malappuram,KERALA,11.029406320930232,76.03106219069767
ILLICKAL EXPORTS,"Illikkal Kallu, Illikkal Kallu Rd, Moonnilavu, Poonjar Vadakkekara, Kerala 686586, India",686586,Meenachil,Kottayam,KERALA,9.7493429375,76.78570731875
INDIAN AQUATIC PRODUCTS,"Sakthikulangara, Kollam, Kerala 691581, India",691581,Kollam,Kollam,KERALA,8.928226436363635,76.54678488181818
INDIAN MARINE INDUSTRIES,"W779+J78, Nambiapuram Rd, Palluruthy, Kochi, Kerala 682006, India",682006,Kochi,Ernakulam,KERALA,9.917652551851852,76.27326455925926
INFRA ELEVATORS INDIA,"35/2265A, Infra House, BC Lane, Church Rd, Pallinada, Palarivattom, Kochi, Kerala 682025, India",682025,Ernakulam,Ernakulam,KERALA,10.000372668965516,76.30783643448275
INNO MOTION TECHNOLOGIES,"XVI/235, Choornikkara, Aluva, Kerala 683106, India",683106,Aluva,Ernakulam,KERALA,10.080344491666668,76.34267441666667
INSTITUTE OF MOBILE PHONE TECHNOLOGY P.LTD.,"3W93+54W, Chemmad-Thalappara Rd, Muttichira, Moonniyur, Kerala 676311, India",676311,Tirurangadi,Malappuram,KERALA,11.06098252,75.89344396
INTEGRATED RUBIAN EXPORTS LTD.,"V8P2+375, Aroor gram panchayat, Kochi, Kerala 688534, India",688534,Cherthla,Alappuzha,KERALA,9.871729377142858,76.30438504
INTERCON WOOD INDUSTRIES,"Kanjirakkad, Perumbavoor, Kerala 683543, India",683543,Kunnathunad,Ernakulam,KERALA,10.1228594125,76.48358803125
J.B.C. INTERNATIONAL,"SN Junction , Kayal Road Muhamma, J988+P9V, Post, Aryakara, Alappuzha, Muhamma, Kerala 688525, India",688525,Cherthala,Alappuzha,KERALA,9.619357622727271,76.35883995454545
JANATHA POLYMERS,"6HWM+972, Kochalummoodu, Vettiyar, Mavelikara, Kerala 690108, India",690108,Mavelikkara,Alappuzha,KERALA,9.249809575,76.5772071375
JANSONS BALERS,"F8PQ+R47, Municipal Stadium Ward, Vellakkinar, Alappuzha, Kerala 688011, India",688011,Ambalapuzha,Alappuzha,KERALA,9.494271704545454,76.34375952727272
JAYAKRISHNA COIRS,"Kalavamkodam Post Office, Thankey Jn. - Saktheeshwaram, Alappuzha, Kerala 688524, India",688524,Cherthala,Alappuzha,KERALA,9.6891011625,76.33285069583334
JAYASREE COIR MILLS,"Thanneermukkom Alleppey, Verungumchuvad, Cherthala, Thanneermukkom, Kerala 688527, India",688527,Cherthala,Alappuzha,KERALA,9.663949954545457,76.37130390909091
JEMSONS STARCH AND DERIVATIVES ,"V7PW+VQF, Aroor gram panchayat, Kochi, Kerala 688534, India",688534,Cherthla,Alappuzha,KERALA,9.871729377142858,76.30438504
JOSH RUBBERS,"Industrial development Plot, Poovanthuruthu, Kottayam, Kerala 686012, India",686012,Kottayam,Kottayam,KERALA,9.54856711111111,76.52230786666667
JR EXPORT INDUSTRIES,"CCSB Rd, Kodiveedu, Alappuzha, Kerala 688001, India",688001,Ambalapuzha,Alappuzha,KERALA,9.49638391904762,76.33209264761905
K.K.R.AGRO MILLS P.LTD.,"10°08'13. 76°27'43.0""E, 3rd Cross Road, Vallom, Ezhattumugham, Chelamattom part, Kerala 683550, India",683550,Kunnathunad,Ernakulam,KERALA,10.156458604347826,76.44930727391304
K.K.R.FOOD PRODUCTS,"5F22+6XR, opposite Reliance Petrol Pump, P.O, Okkal, Kalady, Ernakulam, Kerala 683550, India",683550,Kunnathunad,Ernakulam,KERALA,10.156458604347826,76.44930727391304
KAILAS CASHEW EXPORTS,"XPM5+V56, Pezhookonam, Cheerankavu, Kollam, Kerala 691505, India",691505,Kottarakkara,Kollam,KERALA,8.989406912745098,76.7210242754902
KAIRALI GRANITES,"National Highway Bye Pass, Kannadi Kadu Service Rd, Adjacent to Hotel Wyte Fort, Jaya Nagar, Maradu, Kochi, Kerala 682304, India",682304,Ernakulam,Ernakulam,KERALA,9.938877706666666,76.32558967666667
KAISONS RUBBERS,"Kaipattoor, Mekalady, Kalady, Kerala 683574, India",683574,Aluva,Ernakulam,KERALA,10.182817160958905,76.45845344931507
KALATHIL EXPORTS&IMPORTS,"Door No. 39/1607, Maria Complex, Kannamthottathil Road, Valanjambalam, Eroor Rd, Kappattikavu, Eroor North, Eroor, Kochi, Kerala 682306, India",682306,Ernakulam,Ernakulam,KERALA,9.968037122972971,76.33532464099099
KALPAKA EXPORTS,"C942+67H, Neerkunnam, Vandanam, Kerala 688005, India",688005,Ambalappuzha,Alappuzha,KERALA,9.40768399,76.351707025
KALYAN SILKS TRICHUR P.LTD.,"Thrissur, Kerala, India",688534,Cherthla,Alappuzha,KERALA,9.871729377142858,76.30438504
KANNAN DEVAN HILLS PLANTATIONS,"Kannan Devan Hills, Kerala, India",686012,Kottayam,Kottayam,KERALA,9.54856711111111,76.52230786666667
KAY CEE CORPORATION,"Basin Rd, Marine Drive, Ernakulam, Kochi, Kerala 682031, India",682031,Ernakulam,Ernakulam,KERALA,9.99692354,76.27468644
KAY KAY EXPORTS,"Chanthapallam, Cheriakadavu, Kannamaly, Kochi, Kerala 682008, India",682008,Kochi,Ernakulam,KERALA,9.869597658064515,76.26596289354838
KEMTECH EXPORTS,"M8QW+X2C, Nedumbrakkad, Alleppey, Cherthala, Kerala 688524, India",688524,Cherthala,Alappuzha,KERALA,9.6891011625,76.33285069583334
KERA PALM CREATIONS,"Poonthope Ward, Rahul Nivas, Kommady, Alappuzha, Aryad South, Kerala 688006, India",688006,Ambalapuzha,Alappuzha,KERALA,9.525584704,76.338968536
HANDICRAFTS DEVE. CORPN. OF KERALA LTD.,"Kerala, India",686012,Kottayam,Kottayam,KERALA,9.54856711111111,76.52230786666667
KERAL DINESH BEEDI WORKERS,"Kerala, India",686012,Kottayam,Kottayam,KERALA,9.54856711111111,76.52230786666667
KERALA AGRO MACHINERY CORPN. LTD.,"Kerala, India",686012,Kottayam,Kottayam,KERALA,9.54856711111111,76.52230786666667
KERALA CARDAMOM PROCESSING & MKTG.CO.LTD,"Kerala, India",686012,Kottayam,Kottayam,KERALA,9.54856711111111,76.52230786666667
KERALA CERAMICS LTD.,"Kerala, India",686012,Kottayam,Kottayam,KERALA,9.54856711111111,76.52230786666667
KERALA DINESH BEEDI WORKERS,"Kerala, India",686012,Kottayam,Kottayam,KERALA,9.54856711111111,76.52230786666667
KERALA HOME FOOD STUFF EXPORT,"Kerala, India",686012,Kottayam,Kottayam,KERALA,9.54856711111111,76.52230786666667
KERALA MINERALS & METALS LTD.,"Kerala, India",686012,Kottayam,Kottayam,KERALA,9.54856711111111,76.52230786666667
KERALA RUBBER & RECLAIMS LTD.,"Kerala, India",686012,Kottayam,Kottayam,KERALA,9.54856711111111,76.52230786666667
KERALA STATE CASHEW WORKERS APEX INDSTL.,"Kerala, India",686012,Kottayam,Kottayam,KERALA,9.54856711111111,76.52230786666667
KERALA STATE CO-OP.RUBBER MKT.FED.LTD.,"Kerala, India",686012,Kottayam,Kottayam,KERALA,9.54856711111111,76.52230786666667
KERALA VILLAGE CRAFTS,"Kerala, India",686012,Kottayam,Kottayam,KERALA,9.54856711111111,76.52230786666667
MORE COMPUTERS(KERALA)P.LTD.,"Kerala, India",686012,Kottayam,Kottayam,KERALA,9.54856711111111,76.52230786666667
RAM BAHADUR THAKUR KERALA P. LTD.,"Kerala, India",686012,Kottayam,Kottayam,KERALA,9.54856711111111,76.52230786666667
TUSCANY KERALA GARMENTS P.LTD.,"Kerala, India",686012,Kottayam,Kottayam,KERALA,9.54856711111111,76.52230786666667
KERALA ELECTRICAL&ALLIED ENGG.CO.LTD.,"Kerala, India",686012,Kottayam,Kottayam,KERALA,9.54856711111111,76.52230786666667
KERALA HANDICRATS,"Kerala, India",686012,Kottayam,Kottayam,KERALA,9.54856711111111,76.52230786666667
KERALA KERAKARSHAKA FEDERATION LTD.,"Kerala, India",686012,Kottayam,Kottayam,KERALA,9.54856711111111,76.52230786666667
KERALA CONSTRUCTION SPECIALITIES,"Kerala, India",686012,Kottayam,Kottayam,KERALA,9.54856711111111,76.52230786666667
KERALA STATE ELECTRONIC DEV. CORPN. LTD.,"Kerala, India",686012,Kottayam,Kottayam,KERALA,9.54856711111111,76.52230786666667
KERALA PLANTATIONS,"Kerala, India",686012,Kottayam,Kottayam,KERALA,9.54856711111111,76.52230786666667
KERALA STATE INDSTL.ENTERPRISES,"Kerala, India",686012,Kottayam,Kottayam,KERALA,9.54856711111111,76.52230786666667
KERALA SANGHEETHA NATAK ACCADEMY,"Kerala, India",686012,Kottayam,Kottayam,KERALA,9.54856711111111,76.52230786666667
KERALA SEA FOODS,"Kerala, India",686012,Kottayam,Kottayam,KERALA,9.54856711111111,76.52230786666667
REGIONAL AGRO INDSTL.DEVELOPMENT CO.OP.OF KERALA L,"Kerala, India",686012,Kottayam,Kottayam,KERALA,9.54856711111111,76.52230786666667
KERALA EXPORTS,"Kerala, India",686012,Kottayam,Kottayam,KERALA,9.54856711111111,76.52230786666667
KERALA STATE CO-OPERATIVE FEDERATION FOR FISHERIES,"Kerala, India",686012,Kottayam,Kottayam,KERALA,9.54856711111111,76.52230786666667
KERALA IMPEX,"Kerala, India",686012,Kottayam,Kottayam,KERALA,9.54856711111111,76.52230786666667
KERAL DHARA,"Kerala, India",686012,Kottayam,Kottayam,KERALA,9.54856711111111,76.52230786666667
HANDICRAFTS DEVE. CORPN. OF KERALA LTD.,"Kerala, India",688524,Cherthala,Alappuzha,KERALA,9.6891011625,76.33285069583334
KERAL DINESH BEEDI WORKERS,"Kerala, India",688524,Cherthala,Alappuzha,KERALA,9.6891011625,76.33285069583334
KERALA AGRO MACHINERY CORPN. LTD.,"Kerala, India",688524,Cherthala,Alappuzha,KERALA,9.6891011625,76.33285069583334
KERALA CARDAMOM PROCESSING & MKTG.CO.LTD,"Kerala, India",688524,Cherthala,Alappuzha,KERALA,9.6891011625,76.33285069583334
KERALA CERAMICS LTD.,"Kerala, India",688524,Cherthala,Alappuzha,KERALA,9.6891011625,76.33285069583334
KERALA DINESH BEEDI WORKERS,"Kerala, India",688524,Cherthala,Alappuzha,KERALA,9.6891011625,76.33285069583334
KERALA HOME FOOD STUFF EXPORT,"Kerala, India",688524,Cherthala,Alappuzha,KERALA,9.6891011625,76.33285069583334
KERALA MINERALS & METALS LTD.,"Kerala, India",688524,Cherthala,Alappuzha,KERALA,9.6891011625,76.33285069583334
KERALA RUBBER & RECLAIMS LTD.,"Kerala, India",688524,Cherthala,Alappuzha,KERALA,9.6891011625,76.33285069583334
KERALA STATE CASHEW WORKERS APEX INDSTL.,"Kerala, India",688524,Cherthala,Alappuzha,KERALA,9.6891011625,76.33285069583334
KERALA STATE CO-OP.RUBBER MKT.FED.LTD.,"Kerala, India",688524,Cherthala,Alappuzha,KERALA,9.6891011625,76.33285069583334
KERALA VILLAGE CRAFTS,"Kerala, India",688524,Cherthala,Alappuzha,KERALA,9.6891011625,76.33285069583334
MORE COMPUTERS(KERALA)P.LTD.,"Kerala, India",688524,Cherthala,Alappuzha,KERALA,9.6891011625,76.33285069583334
RAM BAHADUR THAKUR KERALA P. LTD.,"Kerala, India",688524,Cherthala,Alappuzha,KERALA,9.6891011625,76.33285069583334
TUSCANY KERALA GARMENTS P.LTD.,"Kerala, India",688524,Cherthala,Alappuzha,KERALA,9.6891011625,76.33285069583334
KERALA ELECTRICAL&ALLIED ENGG.CO.LTD.,"Kerala, India",688524,Cherthala,Alappuzha,KERALA,9.6891011625,76.33285069583334
KERALA HANDICRATS,"Kerala, India",688524,Cherthala,Alappuzha,KERALA,9.6891011625,76.33285069583334
KERALA KERAKARSHAKA FEDERATION LTD.,"Kerala, India",688524,Cherthala,Alappuzha,KERALA,9.6891011625,76.33285069583334
KERALA CONSTRUCTION SPECIALITIES,"Kerala, India",688524,Cherthala,Alappuzha,KERALA,9.6891011625,76.33285069583334
KERALA STATE ELECTRONIC DEV. CORPN. LTD.,"Kerala, India",688524,Cherthala,Alappuzha,KERALA,9.6891011625,76.33285069583334
KERALA PLANTATIONS,"Kerala, India",688524,Cherthala,Alappuzha,KERALA,9.6891011625,76.33285069583334
KERALA STATE INDSTL.ENTERPRISES,"Kerala, India",688524,Cherthala,Alappuzha,KERALA,9.6891011625,76.33285069583334
KERALA SANGHEETHA NATAK ACCADEMY,"Kerala, India",688524,Cherthala,Alappuzha,KERALA,9.6891011625,76.33285069583334
KERALA SEA FOODS,"Kerala, India",688524,Cherthala,Alappuzha,KERALA,9.6891011625,76.33285069583334
REGIONAL AGRO INDSTL.DEVELOPMENT CO.OP.OF KERALA L,"Kerala, India",688524,Cherthala,Alappuzha,KERALA,9.6891011625,76.33285069583334
KERALA EXPORTS,"Kerala, India",688524,Cherthala,Alappuzha,KERALA,9.6891011625,76.33285069583334
KERALA STATE CO-OPERATIVE FEDERATION FOR FISHERIES,"Kerala, India",688524,Cherthala,Alappuzha,KERALA,9.6891011625,76.33285069583334
KERALA IMPEX,"Kerala, India",688524,Cherthala,Alappuzha,KERALA,9.6891011625,76.33285069583334
KERAL DHARA,"Kerala, India",688524,Cherthala,Alappuzha,KERALA,9.6891011625,76.33285069583334
KERALA BALERS LTD.,"G89H+M6C, Kommady, Kaichoondi, Alappuzha, Aryad South, Kerala 688008, India",688008,Ambalapuzha,Alappuzha,KERALA,9.521471733333334,76.3244164
HANDICRAFTS DEVE. CORPN. OF KERALA LTD.,"Kerala, India",688534,Cherthla,Alappuzha,KERALA,9.871729377142858,76.30438504
KERAL DINESH BEEDI WORKERS,"Kerala, India",688534,Cherthla,Alappuzha,KERALA,9.871729377142858,76.30438504
KERALA AGRO MACHINERY CORPN. LTD.,"Kerala, India",688534,Cherthla,Alappuzha,KERALA,9.871729377142858,76.30438504
KERALA CARDAMOM PROCESSING & MKTG.CO.LTD,"Kerala, India",688534,Cherthla,Alappuzha,KERALA,9.871729377142858,76.30438504
KERALA CERAMICS LTD.,"Kerala, India",688534,Cherthla,Alappuzha,KERALA,9.871729377142858,76.30438504
KERALA DINESH BEEDI WORKERS,"Kerala, India",688534,Cherthla,Alappuzha,KERALA,9.871729377142858,76.30438504
KERALA HOME FOOD STUFF EXPORT,"Kerala, India",688534,Cherthla,Alappuzha,KERALA,9.871729377142858,76.30438504
KERALA MINERALS & METALS LTD.,"Kerala, India",688534,Cherthla,Alappuzha,KERALA,9.871729377142858,76.30438504
KERALA RUBBER & RECLAIMS LTD.,"Kerala, India",688534,Cherthla,Alappuzha,KERALA,9.871729377142858,76.30438504
KERALA STATE CASHEW WORKERS APEX INDSTL.,"Kerala, India",688534,Cherthla,Alappuzha,KERALA,9.871729377142858,76.30438504
KERALA STATE CO-OP.RUBBER MKT.FED.LTD.,"Kerala, India",688534,Cherthla,Alappuzha,KERALA,9.871729377142858,76.30438504
KERALA VILLAGE CRAFTS,"Kerala, India",688534,Cherthla,Alappuzha,KERALA,9.871729377142858,76.30438504
MORE COMPUTERS(KERALA)P.LTD.,"Kerala, India",688534,Cherthla,Alappuzha,KERALA,9.871729377142858,76.30438504
RAM BAHADUR THAKUR KERALA P. LTD.,"Kerala, India",688534,Cherthla,Alappuzha,KERALA,9.871729377142858,76.30438504
TUSCANY KERALA GARMENTS P.LTD.,"Kerala, India",688534,Cherthla,Alappuzha,KERALA,9.871729377142858,76.30438504
KERALA ELECTRICAL&ALLIED ENGG.CO.LTD.,"Kerala, India",688534,Cherthla,Alappuzha,KERALA,9.871729377142858,76.30438504
KERALA HANDICRATS,"Kerala, India",688534,Cherthla,Alappuzha,KERALA,9.871729377142858,76.30438504
KERALA KERAKARSHAKA FEDERATION LTD.,"Kerala, India",688534,Cherthla,Alappuzha,KERALA,9.871729377142858,76.30438504
KERALA CONSTRUCTION SPECIALITIES,"Kerala, India",688534,Cherthla,Alappuzha,KERALA,9.871729377142858,76.30438504
KERALA STATE ELECTRONIC DEV. CORPN. LTD.,"Kerala, India",688534,Cherthla,Alappuzha,KERALA,9.871729377142858,76.30438504
KERALA PLANTATIONS,"Kerala, India",688534,Cherthla,Alappuzha,KERALA,9.871729377142858,76.30438504
KERALA STATE INDSTL.ENTERPRISES,"Kerala, India",688534,Cherthla,Alappuzha,KERALA,9.871729377142858,76.30438504
KERALA SANGHEETHA NATAK ACCADEMY,"Kerala, India",688534,Cherthla,Alappuzha,KERALA,9.871729377142858,76.30438504
KERALA SEA FOODS,"Kerala, India",688534,Cherthla,Alappuzha,KERALA,9.871729377142858,76.30438504
REGIONAL AGRO INDSTL.DEVELOPMENT CO.OP.OF KERALA L,"Kerala, India",688534,Cherthla,Alappuzha,KERALA,9.871729377142858,76.30438504
KERALA EXPORTS,"Kerala, India",688534,Cherthla,Alappuzha,KERALA,9.871729377142858,76.30438504
KERALA STATE CO-OPERATIVE FEDERATION FOR FISHERIES,"Kerala, India",688534,Cherthla,Alappuzha,KERALA,9.871729377142858,76.30438504
KERALA IMPEX,"Kerala, India",688534,Cherthla,Alappuzha,KERALA,9.871729377142858,76.30438504
KERAL DHARA,"Kerala, India",688534,Cherthla,Alappuzha,KERALA,9.871729377142858,76.30438504
KERALA NUT FOOD CO.,"VHPR+QVM, Parameswar Nagar, Kollam, Kerala 691001, India",691001,Kollam,Kollam,KERALA,8.886722971739129,76.59831395
KERALA STATE COIR CORPN.LTD.,"F8WJ+464, CCNB Rd, Market Ward, Alappuzha, Kerala 688001, India",688001,Ambalapuzha,Alappuzha,KERALA,9.49638391904762,76.33209264761905
KERALA SURGICAL EQUIPMENTS CO.,"28X9+FFJ, Salem-Ernakulam Highway, South Kalamassery, Kalamassery, Kochi, Kerala 682039, India",682039,Ernakulam,Ernakulam,KERALA,10.004646666666668,76.34727148333334
KINGS MARINE PRODUCTS,"Uliyakovil West, Uliyakovil, Kollam, Kerala 691019, India",691019,Kollam,Kollam,KERALA,8.903712925,76.613172375
KOCHI KICHEN EXPORTS,"ARWA-B-29, Vishwam Nagar, Palluruthy, Kochi, Kerala 682006, India",682006,Kochi,Ernakulam,KERALA,9.917652551851852,76.27326455925926
KODANDARAM ROLLER FLOUR MILLS PVT,"59M9+8X8, Angamaly South, Angamaly, Kerala 683573, India",683573,Aluva,Ernakulam,KERALA,10.180255566666666,76.38579883333334
KOHINOOR FLOORS P.LTD.,"No. 1/511-A, 47, Old NH17, Kundannoor, Maradu, Ernakulam, Kochi, Kerala 682304, India",682304,Ernakulam,Ernakulam,KERALA,9.938877706666666,76.32558967666667
KOTTACKAL AGRO FOODS,"mookkannoor, Angamaly, Mookkannoor, Kerala 683577, India",683577,Aluva,Ernakulam,KERALA,10.236465032954545,76.41597145568181
KOTTACKAL SURGICALS,"Cholayil Tower, Parappur, Main Rd, Kottakkal, Kerala 676503, India",676503,Tirur,Malappuram,KERALA,10.998304046031746,76.01255696507937
KOTTAKKAL AYUR THERAPIES P.LTD.,"Kottakkal, Kerala, India",688534,Cherthla,Alappuzha,KERALA,9.871729377142858,76.30438504
KOTTACKAL AYURVEDIC TRADING COMPANY,"Kottakkal, Kerala, India",688534,Cherthla,Alappuzha,KERALA,9.871729377142858,76.30438504
KOTTAKAL EXPORTS,"Kottakkal, Kerala, India",688534,Cherthla,Alappuzha,KERALA,9.871729377142858,76.30438504
KOZHIKODENS AGRO FOODS AND EXPORTERS,"KINFRA FOOD PROCESSING PARK PLOT NO. 13-A & 12-B, Kakkanchery, Kerala 673635, India",673635,Tirurangadi,Malappuram,KERALA,51.479168,118.8666109
KUMAR CASHEW EXPORTS,"Kakkodu, Punalur, Kerala 691331, India",691331,Pathanapuram,Kollam,KERALA,9.0145371,76.94054313
KURUWA ENTERPRISES,"18/24, Thoppumpady, Kochi, Kerala 682005, India",682005,Kochi,Ernakulam,KERALA,9.940253061111113,76.25960161388889
KUTHIATHODE COIR MATS&MATTING CO-OP.SOCIETY LTD.,"Kuthiathodu, Kodamthuruth, Kerala, India",688534,Cherthla,Alappuzha,KERALA,9.871729377142858,76.30438504
KUTTANADU COIR&RUBBER PRODUCTS,"Kuttanad, Kuttanad Taluk, Kerala",688534,Cherthla,Alappuzha,KERALA,9.871729377142858,76.30438504
KUTTUKARAN TRADING VENTURES,"2853+PHQ Kuttukaran Centre, Mamangalam - Anchumana Temple Rd, Sonia Nagar, Edappally, Kochi, Kerala 682025, India",682025,Ernakulam,Ernakulam,KERALA,10.000372668965516,76.30783643448275
LAMIT CERAMICS,"school padi, Pathapiriyam, Manjeri, Kerala 676123, India",676123,Ernad,Malappuram,KERALA,11.159140234246577,76.13659382465754
LAWRENCE HANDICRAFTS,"Synagogue Ln, Jew Town, Kappalandimukku, Mattancherry, Kochi, Kerala 682002, India",682002,Kochi,Ernakulam,KERALA,9.957255232894736,76.25402236842105
LEETHA INDUSTRIES,"Industrial Estate, South Kalamassery, Kalamassery, Industrial Estate, South Kalamassery, Kalamassery, Kochi, Kerala 683104, India",683104,Kanayannur,Ernakulam,KERALA,10.057542963636363,76.31917809090909
LORDS EXPORTS,"CMC-3/79H, Madakkan's Building, North of Manorama Junction, Cherthala, Velorvattom, Alappuzha, Cherthala, Kerala 688524, India",688524,Cherthala,Alappuzha,KERALA,9.6891011625,76.33285069583334
LULU INTERNATIONAL SHOPPING MALL,"34/1000, Old NH 47, Edappally Junction, Nethaji Nagar, Edappally, Kochi, Kerala 682024, India",682024,Ernakulam,Ernakulam,KERALA,10.01888763298969,76.30253450412371
M.S.TECH ENGINEERING INDUSTRIES,"Jaihind Nagar Rd, Meprathupady, Vengola, Kerala 683556, India",683556,Kunnathunad,Ernakulam,KERALA,10.083125960465116,76.47373215813954
M.V. JOSEPH & SONS,"Old Market Rd, Angamaly, Kerala 683572, India",683572,Paravur,Ernakulam,KERALA,10.193383310687024,76.38335938931299
M.V.J. FOODS (INDIA) P. LTD.,"HB-07, Panampilly Nagar Ave, Main Avenue, Panampilly Nagar, Ernakulam, Kochi, Kerala 682036, India",682036,Ernakulam,Ernakulam,KERALA,9.959980295833333,76.29498357083334
MAHAVISHNU CASHEW FACTORY,"10/326,, Cheerankavu - Puthoor Rd, Kerala 691505, India",691505,Kottarakkara,Kollam,KERALA,8.989406912745098,76.7210242754902
MAK PLYWOOD INDUSTRIES PVT LTD,"QV5R+P72, Thalapady JHC, Kinya, Kerala 575023, India",688524,Cherthala,Alappuzha,KERALA,9.6891011625,76.33285069583334
MALAYA RUB-TECH INDUSTRIES,"38J8+87Q, Edayar, Kerala 683502, India",683502,Paravur,Ernakulam,KERALA,10.087692555555556,76.30506273333334
MALAYALAM EXPORTS,"South Vellarappilly P O, Aluva, Thekkumbhagom, Kerala 683580, India",683580,Aluva,Ernakulam,KERALA,10.13932176153846,76.40794163846154
MALIYAKKAL HANDICRAFTS,"Maliyekkal, Kerala 676525, India",676525,Nilambur,Malappuram,KERALA,11.176431966666668,76.32507196
MAMPILLY PLYWOOD INDUSTRIES,"Mudickal Perumbavoor, Ernakulam, Marampally, Kerala 683547, India",683547,Kunnathunad,Ernakulam,KERALA,10.091076425925923,76.43058615555556
MARJAN EXPORTS,"Jubilee Rd, Pallippuram, Angadipuram, Perintalmanna, Kerala 679322, India",679322,Perinthalmanna,Malappuram,KERALA,10.977929251428572,76.22854857333334
MAROTTIKKAL COIR WORKS,"Cherthala - Arookutty Rd, South, Poochakkal, Kerala 688526, India",688526,Cherthala,Alappuzha,KERALA,9.806103366981132,76.35243924716981
MATHEWSONS FOOD SPECIALITIES(P)LTD.,"B-32 KINFRA Industries Park, Nellad, Mazhuvannoor, Kerala 686669, India",686669,Kunnathunad,Ernakulam,KERALA,10.007340951592356,76.52786276496816
MATS N MORE,"IV/446A, Valavanadu, Pollathtai P.O, Kalavoor, Alappuzha, Kerala 688522, India",688522,Ambalapuzha,Alappuzha,KERALA,9.572168202777778,76.32190507222222
MAYITHARA HOME DECOR P.LTD.,"Mayithara, Cherthala, Kerala, India",682002,Kochi,Ernakulam,KERALA,9.957255232894736,76.25402236842105
MEMADATHIL EXPORTERS ,"2M5F+H2J, pulinthanam east-cheempara-mavudy Rd, Pothanicad, Kerala 686671, India",686671,Kothamangalam,Ernakulam,KERALA,10.007979096875,76.6938778125
META CLASSICS FIBRES,"Varanam ,Puthanangadi, Krishnakripa, Cherthala, Kerala 688524, India",688524,Cherthala,Alappuzha,KERALA,9.6891011625,76.33285069583334
METAL LAND INDUSTRIES,"2C5X+758, Engineering College Road, Kadayirippu, Kerala 682311, India",682311,Kunnathunad,Ernakulam,KERALA,9.986131800632911,76.47020598227847
METRO PACKAGING,"KINFRA Rd, Nellad, Mazhuvannoor, Kerala 686669, India",686669,Kunnathunad,Ernakulam,KERALA,10.007340951592356,76.52786276496816
MEZHUKATTIL MILLS,"Oil Mill Road, Behind S&S Supermarket, SH 16 Erumathala P O, Chunangamveli Aluva, Aramanakkunnu, Edathala, Kochi, Kerala 683112, India",683112,Kunnathunad,Ernakulam,KERALA,10.08974094375,76.39621829375
MIDAS TREADS (INDIA)P.LTD.,"HP9G+9W5, NH183, Vazhoor, Kerala 686504, India",686504,Changanassery,Kottayam,KERALA,9.565303158928572,76.70881164821428
MOBIL AB GLUE WORLD,"ENKE Chambers, Gopala Prabhu Rd, Near MG Road, Shenoys, Kochi, Kerala 682035, India",682035,Ernakulam,Ernakulam,KERALA,9.979283159183671,76.28271734081633
MONARCH AGENCIES,"Tristen tower, Market Rd, Kombara, Kacheripady, Kochi, Kerala 682018, India",682018,Ernakulam,Ernakulam,KERALA,9.991596463636364,76.28133009181818
MOUNT SAHIYA,"kallungakadavu, channanicadu, GGWW+Q2V P.O, Kottayam, Kerala 686533, India",686533,Kottayam,Kottayam,KERALA,9.527813314285716,76.54438353571427
MRT ORGANIC GREEN PRUDCTS,"Azizi Junction, MRT House, Social Welfare Technical School Rd, Aluva, Kerala 683101, India",683101,Aluva,Ernakulam,KERALA,10.095680780412373,76.36233782061856
N.C. JOHN & SONS LTD.,"G8RH+V3F, National Highway 47, Pathirappally, Poomkavu, Alappuzha, Kerala 688521, India",688521,Ambalapuzha,Alappuzha,KERALA,9.534986122222222,76.3284427
N.S.CASHEWS,"WJ7X+CF9, Thaha Jct Rd, Peroor, Kerala 691004, India",691004,Kollam,Kollam,KERALA,8.904030673684211,76.62197661052632
NAMBIYATTUKUDY AGRO INDUSTRIES,"Koovappady, Koodalapad, Perumbavoor, Koovappady, Kerala 683544, India",683544,Kunnathunad,Ernakulam,KERALA,10.166672573758866,76.50774667872341
NAMBIYATTUKUDY MODERN RICE MILL,"Pavizham Building, Koovappady, Kerala 683544, India",683544,Kunnathunad,Ernakulam,KERALA,10.166672573758866,76.50774667872341
NARENDARAN POLYMERS,"Narendran Polymers, Kalluvathukkal - Chirakkara Rd, Kalluvathukkal, Kerala 691578, India",691578,Kollam,Kollam,KERALA,8.833145,76.7392505375
NARENDRAN RUBBERS,"Narendran Rubbers, P.O, Chandanathope, Kottamkara, Kerala 691014, India",691014,Kollam,Kollam,KERALA,8.931472825,76.64248342222223
NATIONAL COIR MILLS,"near, Vazhicherry Rd, Vazhicherry Ward, Sea View Ward, Alappuzha, Kerala 688001, India",688001,Ambalapuzha,Alappuzha,KERALA,9.49638391904762,76.33209264761905
NAVAB P.A.,"40/4607C, Basin Rd, Market, Kochi, Kerala 682035, India",682035,Ernakulam,Ernakulam,KERALA,9.979283159183671,76.28271734081633
NAVAMI EXPORTS,"WJ6W+JPW, Thaha Jct Rd, TKMC.P.O, Peroor, Kollam, Kerala 691004, India",691004,Kollam,Kollam,KERALA,8.904030673684211,76.62197661052632
NAVEEN EXIM TRADE ASSOCIATES,"NAVEEN EXIM TRADE ASSOCIATES, 18/1082-D, Manayil, E.S.I ROAD, E.S.I. Rd, Palluruthy, Kochi, Kerala 682006, India",682006,Kochi,Ernakulam,KERALA,9.917652551851852,76.27326455925926
NEDSPICE PROCESSING INDIA PVT LTD,"12/597, Jawahar Rd, Koovapadam, Chullickal, Kochi, Kerala 682002, India",682002,Kochi,Ernakulam,KERALA,9.957255232894736,76.25402236842105
NEW CASTLE GALLERY,"CC 6/704, Bazaar Rd, Mattancherry, Kochi, Kerala 682002, India",682002,Kochi,Ernakulam,KERALA,9.957255232894736,76.25402236842105
NIKASU FROZEN FOODS INTERNATIONAL,"23, CSEZ, Kakkanad, Kochi, Kakkanad, Kerala 682030, India",682030,Ernakulam,Ernakulam,KERALA,51.13351584878049,133.02442981463415
NILAMEL EXPORTS,"Nilamel, Kerala, India",682024,Ernakulam,Ernakulam,KERALA,10.01888763298969,76.30253450412371
NOCHUMANNIL RUBBER INDUSTRIES,"Pongamthanam, Vakathanam, Kerala 686538, India",686538,Changanassery,Kottayam,KERALA,9.508244727272729,76.56852196363636
OCEAN WEALTH EXPORTS,"EP 9/92, 93, Lakshan Veedu Rd, Eramalloor, Ezhupunna, Kerala 688537, India",688537,Cherthala,Alappuzha,KERALA,9.82172572,76.30522974
ORIENT SPICE COMPANY,"Industrial Development Plot, Nethaji Road, HG2H+43R, Poovanthuruthu, Kottayam, Kerala 686012, India",686012,Kottayam,Kottayam,KERALA,9.54856711111111,76.52230786666667
ORIENTAL ANTIQURITE TAPISH,"X745+PW4, Synagogue Ln, Jew Town, Kappalandimukku, Mattancherry, Kochi, Kerala 682002, India",682002,Kochi,Ernakulam,KERALA,9.957255232894736,76.25402236842105
OVERSEAS TIMBERS,"29Q4+XG6, Kangarappady, Kochi, Kerala 682021, India",682021,Ernakulam,Ernakulam,KERALA,10.029233765060242,76.3353045433735
P.K.GOVINDAN CO.,"A. S. Road, Kommady, Kaichoondi, Alappuzha, Aryad South, Kerala 688007, India",688007,Ambalapuzh A,Alappuzha,KERALA,9.510326070833331,76.3268778625
PALM FIBRE(INDIA)P.LTD.,"East of NH, Pathirappally, Aikyabharatham, Alappuzha, Kerala 688521, India",688521,Ambalapuzha,Alappuzha,KERALA,9.534986122222222,76.3284427
PANDIKKAD TRADERS,"Pandikkad, Kerala 676521, India",676521,Ernad,Malappuram,KERALA,11.106106162790695,76.21800619534883
PANNIANKARA OIL MILLS,"17/34, Kuttoolangadi - Parammal Rd, Azhinjilam, Ramanattukara, Kozhikode, Kerala 673632, India",673632,Ernad,Malappuram,KERALA,51.5183605,118.3310501
PARACKAL AGRO MILLS,"4CXG+Q99, Kanjoor, Kerala 683575, India",683575,Aluva,Ernakulam,KERALA,10.138994753191488,76.43064241702128
PARAVOOR ENGINEERS,"N.H 17, Peruvaram Rd, near KALLARAKKAL TEMPLE, North Paravur, Kerala 683513, India",683513,Paravur,Ernakulam,KERALA,10.134285372463768,76.23096863043479
PARAYIL EXPORTS,"Plassanal Pravithanam Rd, Nariyanganam, Kerala 686579, India",686579,Meenachil,Kottayam,KERALA,9.712446453333332,76.75880779333333
PARAYIL FOOD PRODUCTS P.LTD.,"Kochi,, V7PW+8X2, Aroor gram panchayat, Kochi, Kerala 688534, India",688534,Cherthla,Alappuzha,KERALA,9.871729377142858,76.30438504
PENTA MAS SERVICES LLP,"W9RF+FRJ, Thiruvankulam - Chottanikkara Rd, Thrippunithura, Thiruvankulam, Kochi, Kerala 682305, India",682305,Kanayannur,Ernakulam,KERALA,9.939008104761903,76.37087710158731
PEPPER INDIA CORPORATION,"HGQG+4R8, Vellapally Ln, Eerayil Kadavu, Kottayam, Kerala 686004, India",686004,Kottayam,Kottayam,KERALA,9.58203488,76.54092101
PLANTRICH AGRI TECH P.LTD.,"Mini Industrial Estate, Manarcad, Kottayam, Manarcadu, Kerala 686019, India",686019,Kottayam,Kottayam,KERALA,9.592533289090907,76.58230555090908
POBJI EMPORIUM,"Valavanadu, P.O, Kalavoor, Alappuzha, Kerala 688522, India",688522,Ambalapuzha,Alappuzha,KERALA,9.572168202777778,76.32190507222222
PONNU FOOD PRODUCTS,"Ailara, Anchal, Kollam, Ayilara, Kerala 691001, India",691001,Kollam,Kollam,KERALA,8.886722971739129,76.59831395
POOPPALLY COIR MILLS,"AS Road, 688 007, Kommady, Thumpoly, Alappuzha, Aryad South, Kerala 688008, India",688008,Ambalapuzha,Alappuzha,KERALA,9.521471733333334,76.3244164
POYILAKADA FISHERIES,"Poilakada Rd, Asramam, Kollam, Kerala 691001, India",691001,Kollam,Kollam,KERALA,8.886722971739129,76.59831395
POYILAKADA FISHERIES ,"Poilakada Rd, Asramam, Kollam, Kerala 691001, India",691001,Kollam,Kollam,KERALA,8.886722971739129,76.59831395
PRASAN SOLUTIONS (INDIA)P.LTD.,"Kinfra Hi-Tech Park Main Rd, HMT Colony, North Kalamassery, HMT Kalamassery, Kochi, Kerala 683503, India",683503,Kanayannur,Ernakulam,KERALA,10.0582879625,76.337153153125
PREMIER EXPORTS INTERNATIONAL,"R8Q5+8HG, Salem - Kochi Hwy, Chandiroor, Kerala 688535, India",688535,Cherthala,Alappuzha,KERALA,9.8564922,76.32294531666666
PREMIER INNOVATIVE FOODS,"Pallipuram p.o, Pallippuram Thycattussery Road, Pallipuram, Kerala 688541, India",688541,Cherthala,Alappuzha,KERALA,9.742432095238096,76.36193387142858
PREMIER MARINE ENTERPRISES,"R8F4+6MQ, Rd, Neendakara, Eramalloor, Ezhupunna, Kerala 688537, India",688537,Cherthala,Alappuzha,KERALA,9.82172572,76.30522974
PREMIER MARINE FOODS,"Premier Marine Foods, V835+8C7, National Highway 47, Chandiroor, Kochi, Kerala 688535, India",688535,Cherthala,Alappuzha,KERALA,9.8564922,76.32294531666666
PROFAND VAYALAT MARINE EXPORTS,"23/1804, Binny Rd, Vishwam Nagar, Palluruthy, Kochi, Kerala 682006, India",682006,Kochi,Ernakulam,KERALA,9.917652551851852,76.27326455925926
PYARY PRODUCTS,"X83H+P32, SH15, Chambakkara, Upasana Nagar, Vyttila, Kochi, Kerala 682304, India",682304,Ernakulam,Ernakulam,KERALA,9.938877706666666,76.32558967666667
RABITHA EXPORTS,"VI/35, Jew Town, Kappalandimukku, Mattancherry, Kochi, Kerala 682002, India",682002,Kochi,Ernakulam,KERALA,9.957255232894736,76.25402236842105
RAJ EXIM,"No: 3, Balaji Street Bypass Road, M.M.C.Colony, MGM Nagar, Avaniyapuram, Tamil Nadu 12, India",688524,Cherthala,Alappuzha,KERALA,9.6891011625,76.33285069583334
RAM COIR MILLS,"271/CMC 5, Nedumprakkad, P85X+MC8, Cherthala, Kerala 688524, India",688524,Cherthala,Alappuzha,KERALA,9.6891011625,76.33285069583334
RAMLA MATCH WORKS,"4F2Q+7GR, Vattakattupady, Perumbavoor, Kerala 683542, India",683542,Kunnathunad,Ernakulam,KERALA,10.114937405454544,76.47808056363637
RELISH CUSTOM FOOD,"Beach Road, Valanjavazhy, Kerala 688005, India",688005,Ambalappuzha,Alappuzha,KERALA,9.40768399,76.351707025
ROOSTER TRADERS,"39PM+XQ2, Sanjo Gardens, Kulakkad, Kerala 683112, India",683112,Kunnathunad,Ernakulam,KERALA,10.08974094375,76.39621829375
ROYAL FOOD EXPORTERS,"VHGX+VFG, KP Appan Rd, Kilikollore.P.O, Mundakkal Village, Kollam, Kerala 691001, India",691001,Kollam,Kollam,KERALA,8.886722971739129,76.59831395
ROYAL MARINE EXPORTS,"R8V5+M94, Chandiroor, Kerala 688535, India",688535,Cherthala,Alappuzha,KERALA,9.8564922,76.32294531666666
RUBEK BALLOONS P.LTD.,"Airapuram, Kerala 683556, India",683556,Kunnathunad,Ernakulam,KERALA,10.083125960465116,76.47373215813954
RURAL COIR INDUSTRIES,"Mattathil Muhamma, Aryakara, Alappuzha, Muhamma, Kerala 688525, India",688525,Cherthala,Alappuzha,KERALA,9.619357622727271,76.35883995454545
S.H.MARINE EXIM,"W74W+75F, Aroor Thoppumpady Rd, NH 47, Bakery, Edakochi, Kochi, Kerala 682010, India",682010,Kochi,Ernakulam,KERALA,9.9107678,76.29057865833333
S.L.S.EXPORTS P.LTD.,"22/1377, Old NH, Edakochi, Kochi, Kerala 682010, India",682010,Kochi,Ernakulam,KERALA,9.9107678,76.29057865833333
S.P.V.DESIGNS,"G8CJ+JX3, Thalavady, Thiruvilak, Vyasapuram, Alappuzha, Aryad South, Kerala 688008, India",688008,Ambalapuzha,Alappuzha,KERALA,9.521471733333334,76.3244164
S.S.METALS,"Sai Buildings, Convent Road, T.D. Road, Convent Junction, Near Laboratory Junction, Shenoys, Kochi, Kerala 682011, India",682011,Ernakulam,Ernakulam,KERALA,9.989242117391305,76.29452373188406
SAFAR RUBBERS,"5VHR+J8C, Neelangoth, Kerala 673637, India",673637,Ernad,Malappuram,KERALA,11.173863454285714,75.90456773285715
SAFERA FOOD INTERNATIONAL,"V7P6+FFH, SH66, Cheriakadavu, Kannamaly, Chellanam, Kochi, Kerala 682008, India",682008,Kochi,Ernakulam,KERALA,9.869597658064515,76.26596289354838
SAIDA TRADING COMPANY,"WJ7W+J26, Peroor, Kottamkara, Kerala 691005, India",691005,Kollam,Kollam,KERALA,8.91188756590909,76.63882659886363
SAIT EXIM CO.,"Vikas Rd, Karuvelipady, Thoppumpady, Kochi, Kerala 682002, India",682002,Kochi,Ernakulam,KERALA,9.957255232894736,76.25402236842105
SALFA CHEMICALS,"Binanipuram, Edayar, Dubai, Kerala 683502, India",683502,Paravur,Ernakulam,KERALA,10.087692555555556,76.30506273333334
SAMRAT MIDDLE EAST EXPORTS P. LTD.,"W7M8+3R3, Thoppumpady, Kochi, Kerala 682005, India",682005,Kochi,Ernakulam,KERALA,9.940253061111113,76.25960161388889
SAMUDRA SHIPYARD P.LTD.,"Aroor gram panchayat, Kochi, Kerala 688534, India",688534,Cherthla,Alappuzha,KERALA,9.871729377142858,76.30438504
SAN MARINE EXPORTS,"Sakthikulangara North, Kollam, Kerala 691581, India",691581,Kollam,Kollam,KERALA,8.928226436363635,76.54678488181818
SANTHIGIRI ASHRAM,"Ettumanoor, Kerala 686631, India",686631,Kottayam,Kottayam,KERALA,9.673597835897436,76.55975298397436
DEVON FOODS LTD.,"Ettumanoor, Kerala 686631, India",686631,Kottayam,Kottayam,KERALA,9.673597835897436,76.55975298397436
SANTHIGIRI KOOTTUKUDUMB COIR,"Ettumanoor, Kerala 686631, India",686631,Kottayam,Kottayam,KERALA,9.673597835897436,76.55975298397436
SARASWATHI METAL WORKS,"Pallichal Rd, parry junction, Thoppumpady, Kochi, Kerala 682005, India",682005,Kochi,Ernakulam,KERALA,9.940253061111113,76.25960161388889
SARK SPICE PRODUCTS P. LTD.,"Neelamperoor - Kavalam Rd, Kavalam, Eara, Kerala 686534, India",686534,Kuttanad,Alappuzha,KERALA,9.499139,76.50628865625
SEASON COIR EXPORTS,"CHINGOLI, P.O,KARTHIKAPALLY, Haripad, Karthikapally, Kerala 690532, India",690532,Karthikappally,Alappuzha,KERALA,9.244080327272728,76.45276533636364
SEPACK INDIA PVT LTD,"XII/293, Off, Chithrappuzha-Ponjassery Rd, Kizhakkambalam, Ernakulam, Kerala 683562, India",683562,Aluva,Ernakulam,KERALA,10.034164772289158,76.42900358072289
SHARAFIYA TRADING,"Eriyad, Porur, Kerala 679328, India",679328,Nilambur,Malappuram,KERALA,11.18633303508772,76.23256802105263
SHARON INSUL INDIA LTD.,"Kakkanad, 7/838(B, Seaport - Airport Rd, Vidya Nagar Colony, Thrikkakara, Kochi, Kerala 682021, India",682021,Ernakulam,Ernakulam,KERALA,10.029233765060242,76.3353045433735
SHERATONE ANTIQARTS,"Door number VI, 26, Jew Town Rd, Jew Town, Kappalandimukku, Mattancherry, Kochi, Kerala 682002, India",682002,Kochi,Ernakulam,KERALA,9.957255232894736,76.25402236842105
SHERTALLAI COIR MATS & MATTING CO.,"Cherthala, Kerala, India",682024,Ernakulam,Ernakulam,KERALA,10.01888763298969,76.30253450412371
SILVER STAR SEAFOODS LTD.,"V834+2GJ, Chandiroor, Kerala 688535, India",688535,Cherthala,Alappuzha,KERALA,9.8564922,76.32294531666666
SIPCO CURIO,"6/207, AB Salem Rd, Jew Town, Kappalandimukku, Mattancherry, Kochi, Kerala 682002, India",682002,Kochi,Ernakulam,KERALA,9.957255232894736,76.25402236842105
SMARTO PRODUCTS,"Perumanoor P.K.Road, Chacola Colony, Thevara, Kochi, Kerala 682015, India",682015,Ernakulam,Ernakulam,KERALA,9.948697107692308,76.29266132307693
SONA EXPORTERS,"P2MW+H75, Changaramkulam, Kerala 679591, India",679591,Ponnani,Malappuram,KERALA,10.73268803809524,76.05281176666666
SOUPARNIKA EXPORT ENTERPRISES,"Decent Jun, Palathara, Kollam, Kerala 691577, India",691577,Kollam,Kollam,KERALA,8.896176114285716,76.66051566785714
SOUTH KERALA CASHEW EXPORTERS,"A-20, Mangadu Rd, Mangad, Kollam, Kerala 691015, India",691015,Kollam,Kollam,KERALA,8.910343165384615,76.6223384
SOUTHERN CARBON AND CHEMICALS,"Vyloppilly Ln, Azad Road, Kaloor, Ernakulam, Kerala 682017, Kathrikadavu, Kaloor, Ernakulam, Kochi, Kerala 682017, India",682017,Ernakulam,Ernakulam,KERALA,9.994298565853658,76.29345620243902
SOUTHERN CASHEW EXPORTERS,"WJFQ+R27, Kilikkollur, Chandanathope, Kottamkara, Kerala 691004, India",691004,Kollam,Kollam,KERALA,8.904030673684211,76.62197661052632
SOUTHERN COIR MILLS,"P.O. Cherthala, S.N.Puram, Cherthala, Kanjikkuzhi, Kerala 688582, India",688582,Cherthala,Alappuzha,KERALA,9.632050252,76.314780238
SPECTRA ORGANICS,"1572, S Thamaraparambu Rd, Thamaraparambu, Fort Kochi, Kochi, Kerala 682001, India",682001,Kochi,Ernakulam,KERALA,9.961975513432836,76.24336774328359
SREE SAKTHI PAPER MILLS,"X78M+P3P, Paliyam Rd, Pallimukku, Ernakulam, Kochi, Kerala 682016, India",682016,Ernakulam,Ernakulam,KERALA,9.965396735294116,76.28713604901961
SREE SANKARA AYURVEDA VAIDYASALA,"Mannam Rd, Changanassery, Kerala 686102, India",686102,Changanassery,Kottayam,KERALA,9.43689048275862,76.53501334137931
ST.GEORGE FOODS,"2PX7+7GC, Puthoor, Kerala 691507, India",691507,Kottarakkara,Kollam,KERALA,9.043139252830189,76.7161006773585
ST.GREGORIOS CASHEW INDUSTRIES,"2PQ6+2JG, Thekkumpuram Puthoor PO Kottarakara, Puthoor, Kerala 691507, India",691507,Kottarakkara,Kollam,KERALA,9.043139252830189,76.7161006773585
ST.MARY'S CASHEW FACTORY,"St.Mary's Cashew Factory, Kottarakkara Sasthamcotta Rd, Puthoor, Kerala 691507, India",691507,Kottarakkara,Kollam,KERALA,9.043139252830189,76.7161006773585
ST.MARYS RUBBERS P.LTD.,"2X3J+7GF, Kollam - Tenkasi Rd, Edamon Sathram, Edamon, Kerala 691307, India",691307,Pathanapuram,Kollam,KERALA,8.991363025,76.993489925
ST.MIKHAEL CASHEW EXPORTS,"WP95+FRF, Nallila Rd, Puliyila, Kerala 691515, India",691515,Kollam,Kollam,KERALA,8.927581720930233,76.71007295116279
SUITMAN GARMENTS,"383G+HXF, Kairali Nagar, South Kalamassery, HMT Kalamassery, Kochi, Kerala 682022, India",682022,Ernakulam,Ernakulam,KERALA,10.045582269230769,76.34736526153846
SUNRICE TRADERS,"Pandit Karuppan Rd, Mattummal Junction, Mattummal, Thevara, Kochi, Kerala 682013, India",682013,Ernakulam,Ernakulam,KERALA,9.939321175,76.29993070833333
SUPERIOR MAT HOUSE,"5FF3+V99, Mekalady, Kalady, Kerala 683574, India",683574,Aluva,Ernakulam,KERALA,10.182817160958905,76.45845344931507
SYDA POLYLAMINATES,"3rd Floor, Syda Building,Kochi, Kaloor - Kadavanthara Rd, Kaloor, Ernakulam, Kochi, Kerala 682017, India",682017,Ernakulam,Ernakulam,KERALA,9.994298565853658,76.29345620243902
T.G.POLYMERS&COMPANY,"Aryakara, Muhamma, Kerala 688525, India",688525,Cherthala,Alappuzha,KERALA,9.619357622727271,76.35883995454545
T.J.P. RUBBER INDUSTRIES,"Industrial Development Plot, PO, Poovanthuruthu, Kottayam, Kerala 686012, India",686012,Kottayam,Kottayam,KERALA,9.54856711111111,76.52230786666667
TPJ RUBBER INDUSTRIES,"Industrial Development Plot, PO, Poovanthuruthu, Kottayam, Kerala 686012, India",686012,Kottayam,Kottayam,KERALA,9.54856711111111,76.52230786666667
T.J.P.EXPORTS,"ID Plot, Poovanthuruthu, Kottayam, Kerala 686012, India",686012,Kottayam,Kottayam,KERALA,9.54856711111111,76.52230786666667
T.V.J MARKETING,"FIRST FLOOR, TVJ ESTATE, 1516E NHG LANE, LPS Rd, Ponnurunni, Vyttila, Kochi, Kerala 682019, India",682019,Ernakulam,Ernakulam,KERALA,9.96996995974026,76.31541058961038
TAG CHEMICALS INDIA PVT LTD.,"Kinfra Biotechnology And Industrial Zone, Medical College - NAD Road, HMT Colony, North Kalamassery, Kalamassery, Kalamassery, Kochi, Kochi, Kerala 683503, India",683503,Kanayannur,Ernakulam,KERALA,10.0582879625,76.337153153125
TAJ COIR MILLS,"Thalavady Rd, Thalavady, Aikyabharatham, Alappuzha, Aryad South, Kerala 688006, India",688006,Ambalapuzha,Alappuzha,KERALA,9.525584704,76.338968536
TAJ PLYWOODS,"3GHV+626, Methala, Rayamangalam, Kerala 683545, India",683545,Kunnathunad,Ernakulam,KERALA,10.109719963636364,76.52310976666666
TAMILNADU NEWSPRINT & PAPERS LTD.,"Tamil Nadu, India",688534,Cherthla,Alappuzha,KERALA,9.871729377142858,76.30438504
TAMILNADU ENERGY SOLUTION,"Tamil Nadu, India",688534,Cherthla,Alappuzha,KERALA,9.871729377142858,76.30438504
TASTY NUT INDUSTRIES,"KP Road, WJ5C+95H, Kilikolloor, Mangad, Kollam, Kerala 691004, India",691004,Kollam,Kollam,KERALA,8.904030673684211,76.62197661052632
TAURUS RUBBER INDUSTRIES,"HG2G+QPW, Unnamed Road, Poovanthuruthu, Kerala 686012, India",686012,Kottayam,Kottayam,KERALA,9.54856711111111,76.52230786666667
TEA BREAK INTERNATIONAL,"X759+6R8, Willingdon Island, Kochi, Kerala 682003, India",682003,Kochi,Ernakulam,KERALA,9.960447846153846,76.27093469230769
TECHNO EXPORTS,"Pattanakad, P.O, Cherthala, Pattanakkad, Kerala 688531, India",688531,Cherthala,Alappuzha,KERALA,9.725622914130437,76.31563821847826
TECHNOFLEX RUBBER PRODUCTS,"59RJ+3WP, Unnamed Road, Angamaly, Kerala 683572, India",683572,Paravur,Ernakulam,KERALA,10.193383310687024,76.38335938931299
THAHIRA CHEMICALS,"V7QW+9J8, Aroor gram panchayat, Kochi, Kerala 688534, India",688534,Cherthla,Alappuzha,KERALA,9.871729377142858,76.30438504
THREE STAR MARINE EXPORTS,"R8P3+PJM Aroor gram panchayat, Chandiroor, Kochi, Kerala 688534, India",688534,Cherthla,Alappuzha,KERALA,9.871729377142858,76.30438504
TRANQUIL CASTLES HOTELS & RESPORTS,"2nd Floor, Cherupushpam Building, Near ICICI Bank, Opp M. G. Road, Shipyard Quarters Road, Cheriyakadavanthra, Atlantis, Ravipuram, Panampilly Nagar, Kochi, Kerala 682015, India",682015,Ernakulam,Ernakulam,KERALA,9.948697107692308,76.29266132307693
TRAVANCORE COCOTUFT P.LTD.,"Coir Park, Thiruvizha North Road, Mayithara, Cherthala, Cherthala South, Kerala 688539, India",688539,Cherthala,Alappuzha,KERALA,9.66428288888889,76.34121377777778
TRENDZ FURNITURE WORLD,"327G+XWF, Oorakam, Kerala 676519, India",676519,Ernad,Malappuram,KERALA,11.05071221125,76.03817599
TUFCKO INTERNATI0NAL,"HQCR+3V5, Kanjirappally, Kerala 686507, India",686507,Kanjirappally,Kottayam,KERALA,9.558497567123288,76.79145172602739
UNI GREEN CONDIMENTS,"WHHV+XV8, Neeravil, Kerala 691601, India",691601,Kollam,Kollam,KERALA,8.937750675,76.6044615125
UNITED COIR FACTORIES,"A.S Road, Kommady, Alappuzha, Aryad South, Kerala 688007, India",688007,Ambalapuzh A,Alappuzha,KERALA,9.510326070833331,76.3268778625
UNITED NILGIRIS TEA ESTATE CO. LTD.,"Nilgiris, Tamil Nadu, India",682024,Ernakulam,Ernakulam,KERALA,10.01888763298969,76.30253450412371
NILGIRIS EXPORTS,"Nilgiris, Tamil Nadu, India",682024,Ernakulam,Ernakulam,KERALA,10.01888763298969,76.30253450412371
UNIVERSAL OLEORESINS,"VIII/946 Navaratna House Jawahar Road, Pandikudi Rd, Pandikudy, Shanthi Nagar Housing Colony, Mattancherry, Kochi, Kerala 682002, India",682002,Kochi,Ernakulam,KERALA,9.957255232894736,76.25402236842105
VASUNDHARALAYAM COIR WORKS,"P.O,Pin-688525, Muhamma, Kerala 688538, India",688525,Cherthala,Alappuzha,KERALA,9.619357622727271,76.35883995454545
VERONICA MARINE EXPORTS P.LTD.,"Neendakara, Kollam, Kerala 691582, India",691582,Karunagapally,Kollam,KERALA,8.9475339,76.53934165
VESTA ENGINEERS,"5/124-B,Erumathala P.O, Nalamile, Edathala, Aluva, Kerala 683112, India",683112,Kunnathunad,Ernakulam,KERALA,10.08974094375,76.39621829375
VETTOOR POLYMERS,"Vettoor-cherunniyoor, Kerala, India",682024,Ernakulam,Ernakulam,KERALA,10.01888763298969,76.30253450412371
VIKAS RUBBERS,"Manarcadu Thengana Road, Thalappady, Kottayam, Kerala 686019, India",686019,Kottayam,Kottayam,KERALA,9.592533289090907,76.58230555090908
VIMALA WELFARE CENTRE,"41/2797, Chittoor Rd, Kacheripady, Ernakulam, Kochi, Kerala 682018, India",682018,Ernakulam,Ernakulam,KERALA,9.991596463636364,76.28133009181818
WFB BAIRD & CO.(INDIA)P.LTD.,"Plot 45/25, MLA Rd, CSEZ, Kakkanad, Kochi, Kakkanad, Kerala 682037, India",682037,Ernakulam,Ernakulam,KERALA,9.997384706451612,76.34072476129032
WILTON WEAVERS P.LTD.,"Kalavamkodam, Cherthala, Cherthala, Kerala 688536, India",688536,Cherthala,Alappuzha,KERALA,9.717896142424244,76.3362480181818
ZALLKAR EXPORTS,"23/575, Kattakayam Rd, Pala, Kerala 686575, India",686575,Meenachil,Kottayam,KERALA,9.719589849206349,76.68607506666666
ZEBA LAB FURNITURE,"Kinfra Park Kakkanad, Infopark Campus, Kochi, Kakkanad, Kerala 682042, India",682042,Kanayannur,Ernakulam,KERALA,10.009905475,76.362559725
ZEHRA TRADING CO.,"Zehra Trading Co, Jew Town Road, Kappalandimukku, Mattancherry, Kochi, Kerala, Marakkadavu, Kappalandimukku, Mattancherry, Kochi, Kerala 682002, India",682002,Kochi,Ernakulam,KERALA,9.957255232894736,76.25402236842105
COIMBATORE POTTERIES & REFRACTORIES,"Coimbatore, Tamil Nadu, India",682002,Kochi,Ernakulam,KERALA,9.957255232894736,76.25402236842105
2F WIND POWER COIMBATORE PVT LTD,"Coimbatore, Tamil Nadu, India",682002,Kochi,Ernakulam,KERALA,9.957255232894736,76.25402236842105
COIMBATORE SUPER ALLOYS P.LTD.,"Coimbatore, Tamil Nadu, India",682002,Kochi,Ernakulam,KERALA,9.957255232894736,76.25402236842105
MIRACLE RECLAIM RUBBER COIMBATORE P.LTD.,"Coimbatore, Tamil Nadu, India",682002,Kochi,Ernakulam,KERALA,9.957255232894736,76.25402236842105
COIMBATORE COTS & COATINGS LTD.,"Coimbatore, Tamil Nadu, India",682002,Kochi,Ernakulam,KERALA,9.957255232894736,76.25402236842105
COIMBATORE POLYTEX,"Coimbatore, Tamil Nadu, India",682002,Kochi,Ernakulam,KERALA,9.957255232894736,76.25402236842105
AARSHAVEDA WELLNESS PVT LTD,"IX/338, Bank Rd, Aluva, Kochi, Aluva, Kerala 683101, India",683101,Aluva,Ernakulam,KERALA,10.095680780412373,76.36233782061856
AEITS INTERNATIONAL,"VI/1017/22,47,EZHAVA SAMAJAM SHOPPING COMPLEX, North Paravur, Kerala 683513, India",683513,Paravur,Ernakulam,KERALA,10.134285372463768,76.23096863043479
AFRAS CASHEW  TRADERS,"WJC8+2J9, Mangad, Kollam, Kerala 691015, India",691015,Kollam,Kollam,KERALA,8.910343165384615,76.6223384
AIFFA PLASTICS,"BUILDING NO.13 PEEKEYZ TOWER ROOM NO.130-133 GROUND FLOOR KURIYODAM - AYIKKARAPPADI P.O, Kerala 673637, India",673637,Ernad,Malappuram,KERALA,11.173863454285714,75.90456773285715
ARAPPURA EXPORTS,"Mundakkal, Kollam, Kerala 691001, India",691001,Kollam,Kollam,KERALA,8.886722971739129,76.59831395
ARBEE AQUATIC PROTEINS P.LTD.,"Aroor Industrial Estate, NH 47, Aroor gram panchayat, Kochi, Kerala 688534, India",688534,Cherthla,Alappuzha,KERALA,9.871729377142858,76.30438504
BATHSHA MARINE EXPORTS,"Kochi,, V7MW+MJ2, Aroor gram panchayat, Kochi, Kerala 688534, India",688534,Cherthla,Alappuzha,KERALA,9.871729377142858,76.30438504
BESTPAK INDUSTRIES,"Nadakadavu Rd, Palluruthy, Kochi, Kerala 682006, India",682006,Kochi,Ernakulam,KERALA,9.917652551851852,76.27326455925926
BHAVANI AUTO DISTRIBUTORS,"X7MW+PM5, Kathrikadavu, Kaloor, Ernakulam, Kochi, Kerala 682017, India",682017,Ernakulam,Ernakulam,KERALA,9.994298565853658,76.29345620243902
CEE JEE LUBRICANTS,"Edayar, Aluva, Kerala 683502, India",683502,Paravur,Ernakulam,KERALA,10.087692555555556,76.30506273333334
COCHIN SCIENTIFIC,"SAYED MOHAMED COMPLEX, 41/711A, C P Ummer Rd, Shenoys, Kochi, Kerala 682035, India",682035,Ernakulam,Ernakulam,KERALA,9.979283159183671,76.28271734081633
DAWA BOOKS,"Salafi Masjid Cultural Complex, Service Rd, NH Bye Pass, Vyttila, Ernakulam, Kochi, Kerala 682019, India",682019,Ernakulam,Ernakulam,KERALA,9.96996995974026,76.31541058961038
ECO GRINZ TRADING PVT LTD,"Door No 42, Ayyappan Kovil, 869, Chittoor Rd, Cemetery Junction, Kacheripady, Kochi, Kerala 682018, India",682018,Ernakulam,Ernakulam,KERALA,9.991596463636364,76.28133009181818
ENCILS GLOBAL BEVERAGES,"Ex. Carrit Moran building 2nd floor Near Ernakulam wharf main gate, AG Milne Rd, Willingdon Island, Kochi, Kerala 682003, India",682003,Kochi,Ernakulam,KERALA,9.960447846153846,76.27093469230769
ERNAKULAM ARCHIDIOCESAN PUBLICATION TRUST,"Ernakulam, Kerala, India",682002,Kochi,Ernakulam,KERALA,9.957255232894736,76.25402236842105
ERNAKULAM ENGINEERS,"Ernakulam, Kerala, India",682002,Kochi,Ernakulam,KERALA,9.957255232894736,76.25402236842105
EVERFRESH EXPORTS,"1st Floor, Bank Junction, St. George Complex, Angamaly, Kerala 683572, India",683572,Paravur,Ernakulam,KERALA,10.193383310687024,76.38335938931299
EZZED BAGS,"Duro flex, opp. Fire Station, Chungam, Alappuzha, Kerala 688011, India",688011,Ambalapuzha,Alappuzha,KERALA,9.494271704545454,76.34375952727272
FLOOR TUFT INTERNATIONAL,"RCQ9+3VJ, Keecheri, Kerala 682315, India",682315,Ernakulam,Ernakulam,KERALA,9.858566190983607,76.40145338852459
GREENDAY EXPORTS AND FARMS PVT LTD,"41/2846, C2, 41, St Vincent Rd, Ernakulam North, Kacheripady, Ernakulam, Kochi, Kerala 682018, India",682018,Ernakulam,Ernakulam,KERALA,9.991596463636364,76.28133009181818
GREENLAND PARTICLE BOARD P.LTD.,"#XIX/4, A12, Kareyeli Vallam Road, Vallom, Perumbavoor, Kerala 683542, India",683542,Kunnathunad,Ernakulam,KERALA,10.114937405454544,76.47808056363637
HAILEYBURIA TEA ESTATES LTD.,"Saraf House, Marar Rd, Willingdon Island, Kochi, Kerala 682003, India",682003,Kochi,Ernakulam,KERALA,9.960447846153846,76.27093469230769
HAOMA HEALTH CARE PVT LTD,"Door No: 7165/32/817A, Ward 42, Garden Spring, South of Pipeline Jn, P.O, Erna, Palarivattom, Kochi, Kerala 682025, India",682025,Ernakulam,Ernakulam,KERALA,10.000372668965516,76.30783643448275
HAYAN EXPORTERS,"X78X+XRC, Kadavanthra Junction, Elamkulam, Kochi, Kerala 682020, India",682020,Ernakulam,Ernakulam,KERALA,9.96861736259542,76.30114694656488
INDOL LUBRICANTS,"Mini Industrial Estate Koivila, Thevalakkara, Kerala 691590, India",691590,Karunagappally,Kollam,KERALA,8.988204466666668,76.57658943333334
J.LAWRENCE PRO AUDIO EQUIPMENTS PVT LTD,"udayamperoor, Kochupally, Udayamperoor, Thrippunithura, Ernakulam, Manakunnam, Kerala 682307, India",682307,Kanayannur,Ernakulam,KERALA,9.8812524175,76.37517342999999
KANNIKKAT TECHNOCRAFT,"Near private Bus stand , P.M State Highway, Muvattupuzha, XHHP+WC5, Kizhakkekara, Ernakulam, Muvattupuzha, Kerala 686661, India",686661,Muvattupuzha,Ernakulam,KERALA,9.979858823265308,76.58176287020407
KARUR SREE RAMA,"Karur, Tamil Nadu, India",686012,Kottayam,Kottayam,KERALA,9.54856711111111,76.52230786666667
KARUR K.C.P. PACKINGS LTD.,"Karur, Tamil Nadu, India",686012,Kottayam,Kottayam,KERALA,9.54856711111111,76.52230786666667
KATTILPARAMBIL TRADERS,"PC59+3FV, Vaikom - Vechoor Rd, Thalayazham, Kerala 686607, India",686607,Vaikom,Kottayam,KERALA,9.71175730952381,76.41841635714286
KEDISON EXPELLERS,"Kanjirappalli Elikkulam Rd, Kanjirapally P.O, Kokkappally, Kanjirappally, Kerala 686507, India",686507,Kanjirappally,Kottayam,KERALA,9.558497567123288,76.79145172602739
KENRICH OVERSEAS TRADING COMPANY,"Door No. 1, 1st Floor, Kanthy Arcade, Kottankavu - Arakkakadavu Rd, Arakkakadavu, Vennala, Kochi, Kakkanad, Kerala 682028, India",682028,Ernakulam,Ernakulam,KERALA,9.99670085,76.32102778
KOTTAKKAL AYUR THERAPIES P.LTD.,"Kottakkal, Kerala, India",682024,Ernakulam,Ernakulam,KERALA,10.01888763298969,76.30253450412371
KOTTACKAL AYURVEDIC TRADING COMPANY,"Kottakkal, Kerala, India",682024,Ernakulam,Ernakulam,KERALA,10.01888763298969,76.30253450412371
KOTTAKAL EXPORTS,"Kottakkal, Kerala, India",682024,Ernakulam,Ernakulam,KERALA,10.01888763298969,76.30253450412371
KOTTAKKAL AYUR THERAPIES P.LTD.,"Kottakkal, Kerala, India",682002,Kochi,Ernakulam,KERALA,9.957255232894736,76.25402236842105
KOTTACKAL AYURVEDIC TRADING COMPANY,"Kottakkal, Kerala, India",682002,Kochi,Ernakulam,KERALA,9.957255232894736,76.25402236842105
KOTTAKAL EXPORTS,"Kottakkal, Kerala, India",682002,Kochi,Ernakulam,KERALA,9.957255232894736,76.25402236842105
LEENS EXPORTS,"6/92, Jew Town Rd, Jew Town, Kappalandimukku, Mattancherry, Kochi, Kerala 682002, India",682002,Kochi,Ernakulam,KERALA,9.957255232894736,76.25402236842105
LOHASHILPI,"W7J5+G4W, Anamangad, Aliparamba, Kerala 679357, India",679357,Perintalmanna,Malappuram,KERALA,10.944097342307693,76.30212904615384
M.O.PHILIPS INDUSTRIES,"38P4+R2F, Binanipuram, Edayar, Kochi, Kerala 683502, India",683502,Paravur,Ernakulam,KERALA,10.087692555555556,76.30506273333334
MAITHRI ADVERTISING WORKS P.LTD.,"1st Floor, X872+C56 Combine Centre, KP Vallon Rd, Kadavanthra Junction, Giri Nagar, Kadavanthra, Kochi, Kerala 682020, India",682020,Ernakulam,Ernakulam,KERALA,9.96861736259542,76.30114694656488
MAITHRI ADVERTISING WORKS P. LTD.,"1st Floor, X872+C56 Combine Centre, KP Vallon Rd, Kadavanthra Junction, Giri Nagar, Kadavanthra, Kochi, Kerala 682020, India",682020,Ernakulam,Ernakulam,KERALA,9.96861736259542,76.30114694656488
MALAMPUZHA STEELS P.LTD.,"Malampuzha-I, Kerala, India",682002,Kochi,Ernakulam,KERALA,9.957255232894736,76.25402236842105
MEENACHIL RUBBERWOOD (P) LTD.,"Meenachil, Kerala 686575, India",686575,Meenachil,Kottayam,KERALA,9.719589849206349,76.68607506666666
MEENAKSHI COIR WORKS,"Charamangalam Mayithara.P.O, Kanjikuzhy, Cherthala, Kerala 688539, India",688539,Cherthala,Alappuzha,KERALA,9.66428288888889,76.34121377777778
METRO PLY AND BOARDS,"3HX6+XQJ, Asamannoor - Panichayam - Kottavathil Rd, Panichayam, Asamannoor, Kerala 683549, India",683549,Kunnathunad,Ernakulam,KERALA,10.10500877,76.547910502
MOON FISHERY (INDIA)P.LTD.,"Plant II/722/D,, Industrial Estate, Aroor, Aroor gram panchayat, Alleppey, Kochi, Kerala 688534, India",688534,Cherthla,Alappuzha,KERALA,9.871729377142858,76.30438504
MR.LIGHT TECHNOLOGY,"40 / 2064-A, Mr. Light Tower Thozhuthinkal lane Anjumana Temple Road, Mamangalam - Anchumana Temple Rd, Sonia Nagar, Edappally, Kochi, Kerala 682024, India",682024,Ernakulam,Ernakulam,KERALA,10.01888763298969,76.30253450412371
MULLASSERY CASHEW,"Mullassery, Kerala, India",686012,Kottayam,Kottayam,KERALA,9.54856711111111,76.52230786666667
N.V.JOSEPH EXPORTS,"X ray junction, M8GR+FGG, Chakkarakulam, Cherthala, Kerala 688524, India",688524,Cherthala,Alappuzha,KERALA,9.6891011625,76.33285069583334
ORBIZ AUTOMOTIVEZ,"Ernad Taluk, Plot No 23/A, Inkel City Rd, Panakkad, Malappuram, Kerala 676519, India",676519,Ernad,Malappuram,KERALA,11.05071221125,76.03817599
PARISONS FOODS PVT LTD,"Kinfra Industrial Park, Kakkanchery, Kerala 673634, India",673634,Tirurangadi,Malappuram,KERALA,11.14419870909091,75.88203877878787
PERUMACHERIL CASTING INDUSTRIES,"Market Landing Rd, Market, Kottayam, Kerala 686001, India",686001,Kottayam,Kottayam,KERALA,9.590939220930233,76.52573586744185
PKM FINE FOODS&SPICES P.LTD.,"XF9C+F5W, Aikaranad South, Kerala 682311, India",682311,Kunnathunad,Ernakulam,KERALA,9.986131800632911,76.47020598227847
PROTECH ORGANO FOODS P. LTD.,"PLOT NO.19&20 KSIDC MAGA, INDUSTRIAL GROWTH CENTRE, Food Park Road, Pallipuram, Kerala 688541, India",688541,Cherthala,Alappuzha,KERALA,9.742432095238096,76.36193387142858
PROTECH ORGAN FOODS,"PLOT NO.19&20 KSIDC MAGA, INDUSTRIAL GROWTH CENTRE, Food Park Road, Pallipuram, Kerala 688541, India",688541,Cherthala,Alappuzha,KERALA,9.742432095238096,76.36193387142858
RADHAS AYURVEDIC SOAP WORKS,"VHWV+89R, Asramam, Kollam, Kerala 691002, India",691002,Kollam,Kollam,KERALA,8.897319366666666,76.59297653333334
ROY CASHEW PRODUCTS,"Roy cashew factory, Kundara, Kerala 691515, India",691515,Kollam,Kollam,KERALA,8.927581720930233,76.71007295116279
ROYAL RUBBERS,"22/327,IDA,Angamaly South.P.O, CK Colony, Angamaly South, Angamaly, Kerala 683573, India",683573,Aluva,Ernakulam,KERALA,10.180255566666666,76.38579883333334
SAMSON CHEMICAL INDUSTRIES,"HGQM+9J9, near Lourde Church, Collectorate, Kottayam, Kerala 686002, India",686002,Kottayam,Kottayam,KERALA,9.58903118,76.53411470333333
SANTRO WOOD PRODUCTS,"3HX5+7HG, Odakkali Nedungapra Krariyely Rd, Odakkali, Kerala 683549, India",683549,Kunnathunad,Ernakulam,KERALA,10.10500877,76.547910502
SOFINE DECORS P.LTD.,"Industrial Estate, Mayithara, Cherthala, Alappuzha, J8XP+FGH, 11th Mile, Mayithara, Alappuzha, Cherthala South, Kerala 688536, India",688536,Cherthala,Alappuzha,KERALA,9.717896142424244,76.3362480181818
ST.FRANCIS PRESS,"St Benedict Rd, Near North Railway Station, Kacheripady, Ernakulam, Kochi, Kerala 682018, India",682018,Ernakulam,Ernakulam,KERALA,9.991596463636364,76.28133009181818
ST.MARYS MOTORS,"Mini Muthoottu Tech Tower, opposite Gokulam Park Inn Hotel, Kaloor, Ernakulam, Kochi, Kerala 682017, India",682017,Ernakulam,Ernakulam,KERALA,9.994298565853658,76.29345620243902
T.M.V. AROMATICS P.LTD.,"S, Arattukadavu Rd., Industrial Estate, South Kalamassery, Kalamassery, Kochi, Kerala 683104, India",683104,Kanayannur,Ernakulam,KERALA,10.057542963636363,76.31917809090909
TAMILNADU NEWSPRINT & PAPERS LTD.,"Tamil Nadu, India",682002,Kochi,Ernakulam,KERALA,9.957255232894736,76.25402236842105
TAMILNADU ENERGY SOLUTION,"Tamil Nadu, India",682002,Kochi,Ernakulam,KERALA,9.957255232894736,76.25402236842105
TECHNO RUBBERS,"38Q8+6CR, Muppathadom, Edayar, Kerala 683110, India",683110,Paravur,Ernakulam,KERALA,10.106830633333333,76.3292302
THARAKAN AND COMPANY,"Parambil Buildings, Olassa P. O, Olassa, Kerala 686014, India",686014,Kottayam,Kottayam,KERALA,9.617703522727274,76.47939103181818
THOMSON RUBBERS,"IX/18 C, Kurisungal JN, Kanjirappally, Kottayam, Kanjirappally, Kerala 686507, India",686507,Kanjirappally,Kottayam,KERALA,9.558497567123288,76.79145172602739
TRICHUR SURGICALS,"MES Building, Judges Ave, RBI Junction, Kaloor, Kochi, Kerala 682017, India",682017,Ernakulam,Ernakulam,KERALA,9.994298565853658,76.29345620243902
UBIO BIOTECHNOLOGY SYSTEMS PVT LTD,"15A, Biotechnology Zone, Kinfra Hi-Tech Park, HMT Colony, North Kalamassery, Kalamassery, Kochi, Kerala 683503, India",683503,Kanayannur,Ernakulam,KERALA,10.0582879625,76.337153153125
VADAKKEDATH INDUSTRIES P.LTD.,"XII/1429, Market Rd, Nadackal, Erattupetta, Kerala 686121, India",686121,Meenachil,Kottayam,KERALA,9.692869868421052,76.77764492631579
VECTOR SURGICAL DISPOSABLES,"Theatrumpady Road, 683545, Kuruppampady, Rayamangalam, Kerala 683545, India",683545,Kunnathunad,Ernakulam,KERALA,10.109719963636364,76.52310976666666
A.P.K.METAL COOKWARES,"Civil Line Rd, Sonia Nagar, Palarivattom, Kochi, Kerala 682025, India",682025,Ernakulam,Ernakulam,KERALA,10.000372668965516,76.30783643448275
AGRO BIO TECH RESEARCH CENTRE LTD.,"Poovanthuruthu, Kerala Industrial Development Plot, Poovanthuruthu, Kerala 686012, India",686012,Kottayam,Kottayam,KERALA,9.54856711111111,76.52230786666667
AL FANOOS CASHEWS,"WJFX+F5J, Peroor, Kottamkara, Kerala 691014, India",691014,Kollam,Kollam,KERALA,8.931472825,76.64248342222223
ALEXANDER COIR WORKS,"Chetticadu, Pathirappally, P O, Thumpoly, Alappuzha, Aryad South, Kerala 688521, India",688521,Ambalapuzha,Alappuzha,KERALA,9.534986122222222,76.3284427
ANAKKARA FOOD PROCESSING & EXPORTS,"Anakkara, Kerala, India",682024,Ernakulam,Ernakulam,KERALA,10.01888763298969,76.30253450412371
ANJALI HOTELS PVT LTD,"594R+3Q2, Nedumbassery, Kerala 683111, India",683111,Aluva,Ernakulam,KERALA,10.153445285714286,76.3904808
ANNA TRADE LINKS,"Ground Floor, Anna Building, Next to Benelli, Service Road West, NH 66, Old NH 47, Thykoodam, Vyttila, Ernakulam, Kochi, Kerala 682019, India",682019,Ernakulam,Ernakulam,KERALA,9.96996995974026,76.31541058961038
ARACKATHARA RECLAIMATIONS,"Kurichy - Eara - Kavalam Rd, Kurichy, Chingavanam, Kerala 686532, India",686532,Changanassery,Kottayam,KERALA,9.502805928070176,76.51869062982456
ASSA SEA FOODS,"Valanjavazhy, Ambalapuzha, Kerala 688005, India",688005,Ambalappuzha,Alappuzha,KERALA,9.40768399,76.351707025
AVL MARKETING,"No.40, 9603, Chittoor Rd, old mymoon cinema, Pullepady, Kochi, Kerala 682018, India",682018,Ernakulam,Ernakulam,KERALA,9.991596463636364,76.28133009181818
BETHLEHEM ART STUDIO,"Vattapparambu, Mallussery, Kerala 683579, India",683579,Paravur,Ernakulam,KERALA,10.180445387272728,76.31635012181819
C.K.K.M.PHARMACY,"Hill Palace Rd, near RCM EYE hospital, Thrippunithura, Ernakulam, Kochi, Kerala 682301, India",682301,Ernakulam,Ernakulam,KERALA,9.946698106896552,76.34776633655173
C.R.TEXTILES,"Near A.I.M.S, Ponekkara, Edappally, Kochi, Kerala 682041, India",682041,Kanayannur,Ernakulam,KERALA,9.9560633125,76.391855675
CAPITAL CASHEW EXPORTS,"Capital Cashew Exports mangadu,mangadu, po, Mangad, Kollam, Kerala 691015, India",691015,Kollam,Kollam,KERALA,8.910343165384615,76.6223384
"CHACKOS PLYWOOD MILLS(P)LTD.,","Rubber Park Industrial Estate Airapuram, Valayanchirangara, Kochi, Airapuram, Kerala 683556, India",683556,Kunnathunad,Ernakulam,KERALA,10.083125960465116,76.47373215813954
CHILTON REFREGERATION,"5th Floor, Chilton Towers, NH 47, Koonamthai, Edappally, Kochi, Kerala 682024, India",682024,Ernakulam,Ernakulam,KERALA,10.01888763298969,76.30253450412371
COCO PLANETE,"Stadium 33/343, Vellakinar, Ward Rd, Vellakkinar, Alappuzha, Kerala 688001, India",688001,Ambalapuzha,Alappuzha,KERALA,9.49638391904762,76.33209264761905
DANAH FOOD PRODUCTS P.LTD.,"W1, 370, Sayed Mohammed Rd, Edavanakkad, Vypin, Kochi, Kerala 682502, India",682502,Kochi,Ernakulam,KERALA,10.091907816666668,76.20725101666666
DESIRE KOCHI,"389C+89G, East Eloor, Travancore Cochin Chemicals Colony, Kalamassery, Kochi, Kerala 683501, India",683501,Ernakulam,Ernakulam,KERALA,10.065396075,76.305478
DIWANIYA FURNISHINGS,"1st Floor, NH Bypass, near QRS, opp. Adidas, Sonia Nagar, Padivattom, Edappally, Kochi, Kerala 682024, India",682024,Ernakulam,Ernakulam,KERALA,10.01888763298969,76.30253450412371
EDATHALA POLYMERS P.LTD.,"Edathala, Aluva, Kerala, India",682002,Kochi,Ernakulam,KERALA,9.957255232894736,76.25402236842105
ELIXIR EXOTIC FOODS AND ALLIED PRODUCTS,"Peter's Modern Rice Mill, Angamaly South, Angamaly, Kerala 683573, India",683573,Aluva,Ernakulam,KERALA,10.180255566666666,76.38579883333334
ESSEN FOODIES INDIA,"KINFRA Park, Kakkanchery, Kozhikode, Kerala 673635, India",673635,Tirurangadi,Malappuram,KERALA,51.479168,118.8666109
EXPIENT TECH LABS,"Blue bell Building, Kuzhikkattumoola - Nilampathinja Mughal Rd, Kalappurakkal, Kusumagiri, Kakkanad, Kerala 682030, India",682030,Ernakulam,Ernakulam,KERALA,51.13351584878049,133.02442981463415
FRESH CATCH EXPORTS,"D.No.6/1209, (Old 7, 324-A, Darusalam Rd, Panayapilly East, Kochangadi, Chullickal, Kochi, Kerala 682002, India",682002,Kochi,Ernakulam,KERALA,9.957255232894736,76.25402236842105
GLOBAL EXIM INDIA P.LTD.,"Power House Rd, Cherthala, Kerala 688524, India",688524,Cherthala,Alappuzha,KERALA,9.6891011625,76.33285069583334
GRAND PEARL EXPORTS,"Door No: 16/275, Aroor gram panchayat, Kochi, Kerala 688537, India",688537,Cherthala,Alappuzha,KERALA,9.82172572,76.30522974
HYDROMANTECH,"X755+W37, Star Junction, Mattancherry, Kochi, Kerala 682002, India",682002,Kochi,Ernakulam,KERALA,9.957255232894736,76.25402236842105
INTERGROW BRANDS P.LTD.,"Leela Tower, 3rd Floor, Subhash Chandra Bose Road, Jawahar Nagar Ave, Ponnurunni, Vyttila, Ernakulam, Kochi, Kerala 682019, India",682019,Ernakulam,Ernakulam,KERALA,9.96996995974026,76.31541058961038
JITHA PLASTIC INDUSTRIES,"Vallom, Chelamattom part, Kerala 683550, India",683550,Kunnathunad,Ernakulam,KERALA,10.156458604347826,76.44930727391304
JOECE ENTERPRISES,"KUNCHARATH, POOCHAKKAL P.O, Cherthala - Arookutty Rd, Poochakkal, Panavally, Kerala 688526, India",688526,Cherthala,Alappuzha,KERALA,9.806103366981132,76.35243924716981
K.P GROUP INDUSTRIES,"12, Kollad-Puthuppally Rd, Poovanthuruthu, Kerala 686012, India",686012,Kottayam,Kottayam,KERALA,9.54856711111111,76.52230786666667
K.P.GROUP INDUSTRIES,"12, Kollad-Puthuppally Rd, Poovanthuruthu, Kerala 686012, India",686012,Kottayam,Kottayam,KERALA,9.54856711111111,76.52230786666667
KADAVIL CHEMICALS,"Kalarcode, Punnapra North, Alappuzha, Kerala 688003, India",688003,Ambalapuzha,Alappuzha,KERALA,9.468575348387096,76.33827430967742
KARUR SREE RAMA,"Karur, Tamil Nadu, India",682002,Kochi,Ernakulam,KERALA,9.957255232894736,76.25402236842105
KARUR K.C.P. PACKINGS LTD.,"Karur, Tamil Nadu, India",682002,Kochi,Ernakulam,KERALA,9.957255232894736,76.25402236842105
KELACHANDRA IRON & STEEL WORKS,"Chingavanam, Kerala 686531, India",686531,Changanacherry,Kottayam,KERALA,9.5105107,76.52202866666666
HANDICRAFTS DEVE. CORPN. OF KERALA LTD.,"Kerala, India",682024,Ernakulam,Ernakulam,KERALA,10.01888763298969,76.30253450412371
KERAL DINESH BEEDI WORKERS,"Kerala, India",682024,Ernakulam,Ernakulam,KERALA,10.01888763298969,76.30253450412371
KERALA AGRO MACHINERY CORPN. LTD.,"Kerala, India",682024,Ernakulam,Ernakulam,KERALA,10.01888763298969,76.30253450412371
KERALA CARDAMOM PROCESSING & MKTG.CO.LTD,"Kerala, India",682024,Ernakulam,Ernakulam,KERALA,10.01888763298969,76.30253450412371
KERALA CERAMICS LTD.,"Kerala, India",682024,Ernakulam,Ernakulam,KERALA,10.01888763298969,76.30253450412371
KERALA DINESH BEEDI WORKERS,"Kerala, India",682024,Ernakulam,Ernakulam,KERALA,10.01888763298969,76.30253450412371
KERALA HOME FOOD STUFF EXPORT,"Kerala, India",682024,Ernakulam,Ernakulam,KERALA,10.01888763298969,76.30253450412371
KERALA MINERALS & METALS LTD.,"Kerala, India",682024,Ernakulam,Ernakulam,KERALA,10.01888763298969,76.30253450412371
KERALA RUBBER & RECLAIMS LTD.,"Kerala, India",682024,Ernakulam,Ernakulam,KERALA,10.01888763298969,76.30253450412371
KERALA STATE CASHEW WORKERS APEX INDSTL.,"Kerala, India",682024,Ernakulam,Ernakulam,KERALA,10.01888763298969,76.30253450412371
KERALA STATE CO-OP.RUBBER MKT.FED.LTD.,"Kerala, India",682024,Ernakulam,Ernakulam,KERALA,10.01888763298969,76.30253450412371
KERALA VILLAGE CRAFTS,"Kerala, India",682024,Ernakulam,Ernakulam,KERALA,10.01888763298969,76.30253450412371
MORE COMPUTERS(KERALA)P.LTD.,"Kerala, India",682024,Ernakulam,Ernakulam,KERALA,10.01888763298969,76.30253450412371
RAM BAHADUR THAKUR KERALA P. LTD.,"Kerala, India",682024,Ernakulam,Ernakulam,KERALA,10.01888763298969,76.30253450412371
TUSCANY KERALA GARMENTS P.LTD.,"Kerala, India",682024,Ernakulam,Ernakulam,KERALA,10.01888763298969,76.30253450412371
KERALA ELECTRICAL&ALLIED ENGG.CO.LTD.,"Kerala, India",682024,Ernakulam,Ernakulam,KERALA,10.01888763298969,76.30253450412371
KERALA HANDICRATS,"Kerala, India",682024,Ernakulam,Ernakulam,KERALA,10.01888763298969,76.30253450412371
KERALA KERAKARSHAKA FEDERATION LTD.,"Kerala, India",682024,Ernakulam,Ernakulam,KERALA,10.01888763298969,76.30253450412371
KERALA CONSTRUCTION SPECIALITIES,"Kerala, India",682024,Ernakulam,Ernakulam,KERALA,10.01888763298969,76.30253450412371
KERALA STATE ELECTRONIC DEV. CORPN. LTD.,"Kerala, India",682024,Ernakulam,Ernakulam,KERALA,10.01888763298969,76.30253450412371
KERALA PLANTATIONS,"Kerala, India",682024,Ernakulam,Ernakulam,KERALA,10.01888763298969,76.30253450412371
KERALA STATE INDSTL.ENTERPRISES,"Kerala, India",682024,Ernakulam,Ernakulam,KERALA,10.01888763298969,76.30253450412371
KERALA SANGHEETHA NATAK ACCADEMY,"Kerala, India",682024,Ernakulam,Ernakulam,KERALA,10.01888763298969,76.30253450412371
KERALA SEA FOODS,"Kerala, India",682024,Ernakulam,Ernakulam,KERALA,10.01888763298969,76.30253450412371
REGIONAL AGRO INDSTL.DEVELOPMENT CO.OP.OF KERALA L,"Kerala, India",682024,Ernakulam,Ernakulam,KERALA,10.01888763298969,76.30253450412371
KERALA EXPORTS,"Kerala, India",682024,Ernakulam,Ernakulam,KERALA,10.01888763298969,76.30253450412371
KERALA STATE CO-OPERATIVE FEDERATION FOR FISHERIES,"Kerala, India",682024,Ernakulam,Ernakulam,KERALA,10.01888763298969,76.30253450412371
KERALA IMPEX,"Kerala, India",682024,Ernakulam,Ernakulam,KERALA,10.01888763298969,76.30253450412371
KERAL DHARA,"Kerala, India",682024,Ernakulam,Ernakulam,KERALA,10.01888763298969,76.30253450412371
KOTTARAM TRADING CO.,"Kottaram Tower, Payyapilly Rd, Near MG Road, Kacheripady, Kochi, Kerala 682035, India",682035,Ernakulam,Ernakulam,KERALA,9.979283159183671,76.28271734081633
KOVAX ABRASIVES SOUTH ASIA P.LTD.,"Cm complex, 2826+4MQ, Kalavath Rd, Palarivattom, Kochi, Kerala 682025, India",682025,Ernakulam,Ernakulam,KERALA,10.000372668965516,76.30783643448275
LEEDS POLYMERS,"11th Mile, Vydiarangadi.P.O., Peringave Rd, Ramanattukara, Kerala 673633, India",673633,Eranad,Malappuram,KERALA,51.5876618,118.4566692
LEEDA POLYMERS,"11th Mile, Vydiarangadi.P.O., Peringave Rd, Ramanattukara, Kerala 673633, India",673633,Eranad,Malappuram,KERALA,51.5876618,118.4566692
LISBON PU INTERNATIONAL,"KULANGARA ROAD, KODAMPUZHA FAROOK COLLEGE, 5RRQ+RW2, PO, Kozhikode, Kerala 673632, India",673632,Ernad,Malappuram,KERALA,51.5183605,118.3310501
M.K;FABRICS,"Convent Rd, Chinnakada, Kollam, Kerala 691001, India",691001,Kollam,Kollam,KERALA,8.886722971739129,76.59831395
MALABAR NATURAL FOODS P.LTD.,"Plot No. 26, Kinfra Techno Industrial Park, Chelembra, P.O, Kakkanchery, Malappuram, Kozhikode, Kerala 673636, India",673636,Tirurangadi,Malappuram,KERALA,11.118472538297873,75.8919613468085
MAMBAD RUBBER AND AGRO MFG.LTD.,"Mampad, Kerala, India",682024,Ernakulam,Ernakulam,KERALA,10.01888763298969,76.30253450412371
NEOTECH POLYMERS,"Mooledom, HG3H+89V, Kollad-Puthuppally Rd, Poovanthuruthu, Kerala 686004, India",686004,Kottayam,Kottayam,KERALA,9.58203488,76.54092101
NJAVALLIL LATEX P.LTD.,"Binanipuram Road, 38G4+V3P, Muppathadom, Edayar, Kerala 682020, India",682020,Ernakulam,Ernakulam,KERALA,9.96861736259542,76.30114694656488
NOZAK TRADING CORPORATION,"NH966A, Kothad, Kochi, Kerala 682027, India",682027,Ernakulam,Ernakulam,KERALA,6.6519492,-72.7346516
PALLICKAL FOOD PRODUCTS,"Pallickal, Kerala, India",688524,Cherthala,Alappuzha,KERALA,9.6891011625,76.33285069583334
PELICAN MEDICAL SYSTEMS,"27WQ+M57, Chittoor - Cheranallur Rd, Amrita Nagar, Edappally, Ernakulam, Kochi, Kerala 682034, India",682034,Ernakulam,Ernakulam,KERALA,10.050370233333332,76.29097818333334
POLYKOT INDUSTRIES,"12/2, Kaveekunnu, Anthiyalam, Pala, Kerala 686574, India",686574,Meenachil,Kottayam,KERALA,9.722305693333334,76.66728714
POOMAS TRADE LINKS,"Tanur Madathil Rd, near Stadium, Thazhepalam, Tirur, Kerala 676107, India",676107,Tirur,Malappuram,KERALA,10.9207365,75.915944225
PRINCE POLYMERS,"MES Bus Stop, SH 16, Aluva, Kerala 683112, India",683112,Kunnathunad,Ernakulam,KERALA,10.08974094375,76.39621829375
PRM METAL CRAFTS,"Ground Floor, Indo Persian NJK Square, Valanjambalam, Sahodaran Ayyappan Rd, Ravipuram, Ernakulam South, Ernakulam, Kochi, Kerala 682036, India",682036,Ernakulam,Ernakulam,KERALA,9.959980295833333,76.29498357083334
RABIA SEA FOODS,"20, 1007, Nambiapuram Rd, Palluruthy, Kochi, Kerala 682006, India",682006,Kochi,Ernakulam,KERALA,9.917652551851852,76.27326455925926
RAVIS EXPORTS,"3P45+P43, Adisamangalam Temple Rd, Thekkumchery, Kerala 691507, India",691507,Kottarakkara,Kollam,KERALA,9.043139252830189,76.7161006773585
RIOTECH INDUSTRIES,"MIE Mini Industrial Estate, Valavoor, Vallichira, Kerala 686635, India",686635,Meenachil,Kottayam,KERALA,9.750672510714285,76.62233675714285
SAANVI EXPORTS,"11/390A Vishakapuram, Mangalapuram, PO, Kanjikuzhy, Thamarachal, Muhamma, Kerala 688525, India",688525,Cherthala,Alappuzha,KERALA,9.619357622727271,76.35883995454545
SAINA EXPORTS,"P. H WARD, AS ROAD, Kommady, Alappuzha, Aryad South, Kerala 688001, India",688001,Ambalapuzha,Alappuzha,KERALA,9.49638391904762,76.33209264761905
SPECIFIED RUBBERS (P)LTD.,"Kanjikuzhi, Kottayam, Kerala 686002, India",686002,Kottayam,Kottayam,KERALA,9.58903118,76.53411470333333
SPICE PLANTERS,"4CXG+C9C, Kanjoor, Kerala 683575, India",683575,Aluva,Ernakulam,KERALA,10.138994753191488,76.43064241702128
STERLING PRINT HOUSE P.LTD.,"Door No. 49, 1849, Cheranalllur Rd, Ponekkara, PO, Kochi, Kerala 682041, India",682041,Kanayannur,Ernakulam,KERALA,9.9560633125,76.391855675
SURYA TOOLS CENTRE,"Vyabharabavan Bldg. Ground floor NH road, Dt, Puthanathani, Kerala 676552, India",676552,Tirur,Malappuram,KERALA,10.902934205042015,76.05797082941177
THAIMADAM MACHINES,"CHX3+3RC, Changanassery Bypass, Kunnakkad, Fathimapuram, Changanassery, Kerala 686101, India",686101,Changanassery,Kottayam,KERALA,9.447470443010753,76.5399100483871
THEKKADY AGRO PRODUCTS,"Thekkady, Kumily, Kerala, India",682024,Ernakulam,Ernakulam,KERALA,10.01888763298969,76.30253450412371
TIRUPUR CITY STYLE COLLECTION,"Tiruppur, Tamil Nadu, India",682002,Kochi,Ernakulam,KERALA,9.957255232894736,76.25402236842105
TIRUPUR STYLE,"Tiruppur, Tamil Nadu, India",682002,Kochi,Ernakulam,KERALA,9.957255232894736,76.25402236842105
TIRUPUR KNITWEAR EXPORTS PVT LTD,"Tiruppur, Tamil Nadu, India",682002,Kochi,Ernakulam,KERALA,9.957255232894736,76.25402236842105
TIRUR COCONUT TRADERS,"WWMP+M2M, Thalakkadathur, Tirur, Kerala 676103, India",676103,Tirur,Malappuram,KERALA,10.922471227333332,75.954607818
TRAVANCORE POLYMERS P.LTD.,"Panthackal - Chirangara Road, Panthackal,, Paduapuram P.O, Angamaly, Kerala 683576, India",683576,Aluva,Ernakulam,KERALA,10.2298903375,76.37638655416666
TROPICAL BATH SOLUTIONS P.LTD.,"34/136 A,C,H Florence, NH Ln, Edappally, Kochi, Kerala 682024, India",682024,Ernakulam,Ernakulam,KERALA,10.01888763298969,76.30253450412371
UNICLEAN HYGIENE SOLUTIONS,"United tower 2nd floor .opposit highway hypermarket, Mannarkkad Rd, KSHB Colony, Perintalmanna, Kerala 679322, India",679322,Perinthalmanna,Malappuram,KERALA,10.977929251428572,76.22854857333334
VENUS PHOTO WORLD,"Palace Rd, near UCO BANK, Changanassery, Aramanapady, Kottayam, Changanassery, Kerala 686101, India",686101,Changanassery,Kottayam,KERALA,9.447470443010753,76.5399100483871
WILMAX INDIA,"# Ponnurunni, Convent Road, X8F6+9FM, Near Bank of India, Vyttila, Ernakulam, Kochi, Kerala 682035, India",682035,Ernakulam,Ernakulam,KERALA,9.979283159183671,76.28271734081633
A TO Z PACKAGINGS,"Chennampilly Ln, Cheranallur, Kochi, Kerala 682034, India",682034,Ernakulam,Ernakulam,KERALA,10.050370233333332,76.29097818333334
ABHEK LIFE STYLES,"385V+JCW, HMT Colony, North Kalamassery, HMT Kalamassery, Kochi, Kerala 683503, India",683503,Kanayannur,Ernakulam,KERALA,10.0582879625,76.337153153125
AFFORD EXIM,"XII/107F, K.K.Paraman memorial Building, Karimpadam Junction, Chennamagalam, Bharanimukku, North Paravur, Chendamangalam, Kerala 683512, India",683512,Paravur,Ernakulam,KERALA,10.17219863,76.23224746
AL FOUZAN EXPORTS,"573R+R6P, Kunnukara, Kerala 683578, India",683578,Paravur,Ernakulam,KERALA,10.155197839473685,76.30713587631578
AL-HASANATH GLOBAL,"I-289/A,M.S. Lane Adivaram, N.A.D.P.O, Aluva - 683 563, Edathala, Kerala 683563, India",683563,Aluva,Ernakulam,KERALA,10.075254055555556,76.36353904444444
AL-HASANAATH GLOBAL,"I-289/A,M.S. Lane Adivaram, N.A.D.P.O, Aluva - 683 563, Edathala, Kerala 683563, India",683563,Aluva,Ernakulam,KERALA,10.075254055555556,76.36353904444444
ALCO ALUMINIUM PRODUCTS,"Chengannur, Kerala 689124, India",689124,Chengannur,Alappuzha,KERALA,9.335987914285717,76.59384022857142
ALEENA FOODS,"XC62+3W9, Ambalamugal, Kochi, Kerala 682302, India",682302,Kunnathunad,Ernakulam,KERALA,9.974506077777775,76.37953952222222
AMALGAM FROZEN FOODS,"V7PX+W8H, Aroor - Thoppumpady Rd, Aroor gram panchayat, Kochi, Kerala 688534, India",688534,Cherthla,Alappuzha,KERALA,9.871729377142858,76.30438504
ANNAPOORNESWARI EXIM P.LTD.,"Erakari Road Vayalar 7/528 A KALYANI, Vayalar, Kerala 688524, India",688524,Cherthala,Alappuzha,KERALA,9.6891011625,76.33285069583334
APT GLOBAL MARINE ENGINEERING,"X78R+4XF, S Over Bridge, Ernakulam South, Kochi, Kerala 682016, India",682016,Ernakulam,Ernakulam,KERALA,9.965396735294116,76.28713604901961
CALEX MARINE&INDUSTRIAL,"2nd Floor, Chirayath Building, Opp KUFOS UG Ladies Hostel, Vytila Aroor Bye Pass Road, Service Road West, NH 47, NH 66, Madavana, Panangad, Ernakulam, Kochi, Kerala 682506, India",682506,Ernakulam,Ernakulam,KERALA,9.90249192,76.31610951
CALICUT CARGO SERVICES,"Calicut Airport Rd, Padinharathara, Karipur, Kerala 673647, India",673647,Tirurangadi,Malappuram,KERALA,11.1203880375,75.9348672875
CAPITAL PLYBOARDS,"3FW2+WGG, Ponjassery, Kerala 683547, India",683547,Kunnathunad,Ernakulam,KERALA,10.091076425925923,76.43058615555556
CHAITHANYA GRANITE&MARBLES,"Edappally, Kochi, Kerala 682024, India",682024,Ernakulam,Ernakulam,KERALA,10.01888763298969,76.30253450412371
WINTER WOOD INTERIORS,"Edappally, Kochi, Kerala 682024, India",682024,Ernakulam,Ernakulam,KERALA,10.01888763298969,76.30253450412371
COASTAL SHIPPING LINKS INDIA P.LTD.,"Door No: G 2102, Jawaharlal Nehru International Stadium, Jawaharlal Nehru International Stadium, Kaloor, Kochi, Kerala 682017, India",682017,Ernakulam,Ernakulam,KERALA,9.994298565853658,76.29345620243902
COCHIN DENTAL EQUIPMENTS,"67/977, North Park St Vincent Road, Kacheripadi Ernakulam, North, North Kaloor, Kacheripady, Kochi, Kerala 682018, India",682018,Ernakulam,Ernakulam,KERALA,9.991596463636364,76.28133009181818
COIR DUST INC.,"PARSA'S, Building No 828A, PO, opp. Central Coir Research Institute, Kalavoor, Alappuzha, Kerala 688522, India",688522,Ambalapuzha,Alappuzha,KERALA,9.572168202777778,76.32190507222222
CORAL EXPORTS,"NETTIPADAM ROAD, X78P+RV9, Mahatma Gandhi Rd, Valanjambalam, Ernakulam, Kochi, Kerala 682016, India",682016,Ernakulam,Ernakulam,KERALA,9.965396735294116,76.28713604901961
DENWUD EXIM  INDIA,"Pulluvazhi, 683541, XV/642, Thombra Road, Rayamangalam, Kerala 683547, India",683541,Kunnathunad,Ernakulam,KERALA,10.047371096774194,76.52621409354838
DIVINE RUBBER PRODUCTS,"FFRV+436, Kurichy - Eara - Kavalam Rd, Eara, Kerala 686534, India",686534,Kuttanad,Alappuzha,KERALA,9.499139,76.50628865625
FOUSIA TIMBER INDUSTRIES,"M8PJ+6X8, Nedumbrakkad, Cherthala, Kerala 688524, India",688524,Cherthala,Alappuzha,KERALA,9.6891011625,76.33285069583334
GLOBAL TEC ENGINEERING,"near Calicut University, 4VRM+RWV hajiyar valavu, Kozhikode, Thenhipalam, Kerala 673636, India",673636,Tirurangadi,Malappuram,KERALA,11.118472538297873,75.8919613468085
HADI EXPORTS LLP,"Sundaram Finance Building, 44C7+7W5, Calicut Rd, Karuvambram, Manjeri, Kerala 676517, India",676517,Ernad,Malappuram,KERALA,11.081878113043478,76.06632696956521
HANANI RUBBERS,"I D Plot No.90, P.O, Poovanthuruthu, Kottayam, Kerala 686012, India",686012,Kottayam,Kottayam,KERALA,9.54856711111111,76.52230786666667
INDUS TRADE LINKS,"Br:XLI/3842,Carmel Buildings, Banerji Rd, Kacheripady, Kochi, Kerala 682018, India",682018,Ernakulam,Ernakulam,KERALA,9.991596463636364,76.28133009181818
JANITOR EXIM,"JANITOR EXIM, Bund road, Arakkakadavu, Vennala, Kochi, Kakkanad, Kerala 682028, India",682028,Ernakulam,Ernakulam,KERALA,9.99670085,76.32102778
JBM KITCHEN AND INTERIORS,"Building No. 1/65 B, Near Ramantukara Highschool, Vaidyarangadi, Ramanatukara, Kozhikode, Kerala 673633, India",673633,Eranad,Malappuram,KERALA,51.5876618,118.4566692
JOEL RUBBER INDUSTRIES,"Mini Industrial Estate, Mattoor, Kalady, Kerala 683574, India",683574,Aluva,Ernakulam,KERALA,10.182817160958905,76.45845344931507
K.C.COCONUT PRODUCTS,"Kc coconut products, Kumminiparamba, Padinharathara, Karipur, Kerala 673638, India",673638,Ernad,Malappuram,KERALA,11.14718034158416,75.96500935445545
KARNIZ PACKS LLP,"Perinagala, P.O, Pallikkara, Kochi, Kerala 683565, India",683565,Kunnathunad,Ernakulam,KERALA,10.016749102325582,76.41687551860464
KAT ENGINEERING,"Paliyam Rd, Koottukadu, Chendamangalam, Paliyam, Kerala 683521, India",683521,Paravur,Ernakulam,KERALA,6.4784866,-73.118309
KHUSHI INTERGROUP,"Bus Stop, Thodaparambu, Pooppani Rd, Perumbavoor, Kerala 683543, India",683543,Kunnathunad,Ernakulam,KERALA,10.1228594125,76.48358803125
KUNNATHAN WOOD PRODUCTS,"Panichayam Rd, Odakkali, Kerala 683549, India",683549,Kunnathunad,Ernakulam,KERALA,10.10500877,76.547910502
LAKSHMI CASHEW COMPANY,"WJ4C+CG6, Mangad, Kollam, Kerala 691019, India",691019,Kollam,Kollam,KERALA,8.903712925,76.613172375
LANDEX GREEN SOLUTIONS,"Building NO-41, 2371, Medical Centre Rd, Kochi, Chakkalakkal, Palarivattom, Ernakulam, Kochi, Kerala 682028, India",682028,Ernakulam,Ernakulam,KERALA,9.99670085,76.32102778
MADURA MERCERISERS INDIA P.LTD.,"Madurai, Tamil Nadu, India",682002,Kochi,Ernakulam,KERALA,9.957255232894736,76.25402236842105
MATHA TRADERS,"Canal Rd, near ST.James Church, Chambakkara, Poonithura, Maradu, Kochi, Kerala 682038, India",682038,Ernakulam,Ernakulam,KERALA,9.951825921428572,76.32976080714285
METRO TRADING SYNDICATE,"VII/594, Jews St, Jew Town, Kappalandimukku, Mattancherry, Kochi, Kerala 682002, India",682002,Kochi,Ernakulam,KERALA,9.957255232894736,76.25402236842105
PALANI VIJAY COTTSPIN PVT LTD,"Palani, Tamil Nadu, India",686012,Kottayam,Kottayam,KERALA,9.54856711111111,76.52230786666667
POSEIDON FOOD CO.,"688/1, 2nd Floor, Kunjalu's Place, PT Usha Rd, Shenoys, Kochi, Kerala 682011, India",682011,Ernakulam,Ernakulam,KERALA,9.989242117391305,76.29452373188406
PRECORE SOLUTIONS,"N, Meethiyans Tower, 4/361, North Kalamassery, Kalamassery, Kochi, Kerala 683104, India",683104,Kanayannur,Ernakulam,KERALA,10.057542963636363,76.31917809090909
PREMIER ENGINEERING PRODUCTS,"Kyomtha Seminary Rd, Thrippunithura, Kochi, Kerala 682305, India",682305,Kanayannur,Ernakulam,KERALA,9.939008104761903,76.37087710158731
RAIQA EXPORTS,"MK Arcade, near Tirurangadi Oriental School, Tirurangadi, Kerala 676306, India",676306,Tirurangadi,Malappuram,KERALA,11.045838703308824,75.92468943676471
SUPER GOLDEN FOODS,"Karukutty P.O,Angamaly,Cochin,Kerala-683576 (Near Sree Krishna Temple), Karukutty, Angamaly, Kerala 683576, India",683576,Aluva,Ernakulam,KERALA,10.2298903375,76.37638655416666
SYMEGA FOOD INGREDIENTS,"Synthite Taste Park No. XI 312G, Pancode Near Kolenchery, Kochi, Aikaranad North, Kerala 682310, India",682310,Kunnathunad,Ernakulam,KERALA,9.98790642,76.430152955
TALEM POWER SYSTEMS,"1428028, Kanjiramattom Thalayolaparambu Rd, Gama Junction, Kanjiramattom, Kerala 682315, India",682315,Ernakulam,Ernakulam,KERALA,9.858566190983607,76.40145338852459
TANYA SPICES,"Gujarati Rd, opp: Santhi Lal sweet house, Nalumadam, Mattancherry, Kochi, Kerala 682002, India",682002,Kochi,Ernakulam,KERALA,9.957255232894736,76.25402236842105
TEAM SUSTAIN,"1st floor, inQ Tower, Opp, EMC NH Bypass, Kesaveeyam, Palarivattom, Kochi, Kerala 682025, India",682025,Ernakulam,Ernakulam,KERALA,10.000372668965516,76.30783643448275
USMANIYA WOOD PODUCTS,"XV/635, MALAMURY, PULLUVAZHI P. O, Perumbavoor, Kerala 683541, India",683541,Kunnathunad,Ernakulam,KERALA,10.047371096774194,76.52621409354838
V.J.TREADS,"W9WG+76J, Kochi - Madurai - Dhanushkodi Rd, Thiruvankulam, Thrippunithura, Kochi, Kerala 682305, India",682305,Kanayannur,Ernakulam,KERALA,9.939008104761903,76.37087710158731
VADAKKUMCHERRY EXPORTS,"Vadakkencherry, Kerala, India",686012,Kottayam,Kottayam,KERALA,9.54856711111111,76.52230786666667
VERVEMAGNUM GLOBAL IMPEX P.LTD.,"3933+743, Karippassery, North Kalamassery, Kalamassery, Kochi, Kerala 682033, India",682033,Kanayannur,Ernakulam,KERALA,10.0430806875,76.31714245625
VICTORY WOOD INDUSTRIES,"Mudiclal Depot Road, Mudickal, Kerala 683547, India",683547,Kunnathunad,Ernakulam,KERALA,10.091076425925923,76.43058615555556
WAYANAD FOOD INC.,"Wayanad, Kerala, India",682024,Ernakulam,Ernakulam,KERALA,10.01888763298969,76.30253450412371
WYANAD FOOD INCORPORATED,"Wayanad, Kerala, India",682024,Ernakulam,Ernakulam,KERALA,10.01888763298969,76.30253450412371
WAYANAD ORGANIC RESEARCH P LTD,"Wayanad, Kerala, India",682024,Ernakulam,Ernakulam,KERALA,10.01888763298969,76.30253450412371
WAYANAD FOOD INC.,"Wayanad, Kerala, India",682002,Kochi,Ernakulam,KERALA,9.957255232894736,76.25402236842105
WYANAD FOOD INCORPORATED,"Wayanad, Kerala, India",682002,Kochi,Ernakulam,KERALA,9.957255232894736,76.25402236842105
WAYANAD ORGANIC RESEARCH P LTD,"Wayanad, Kerala, India",682002,Kochi,Ernakulam,KERALA,9.957255232894736,76.25402236842105
ABM4 TRADES,"27CR+27P, Elamakkara, Kochi, Kerala 682026, India",682026,Ernakulam,Ernakulam,KERALA,10.01621266875,76.288820209375
AISWRYA AGRO MILLS,"5CFM+HQH, Mattoor, Kalady, Kerala 683574, India",683574,Aluva,Ernakulam,KERALA,10.182817160958905,76.45845344931507
BMK INTERNATIONAL,"BMK international ,13/725 D pipeline road,Thoppil ,Thrikkakara ,Ernakulam, Pin, Marottichuvadu, Edappally, Kochi, Kerala code :682021, India",682021,Ernakulam,Ernakulam,KERALA,10.029233765060242,76.3353045433735
CLOUDS INTERNATIONAL EXPORTS,"Kanjirappally, Kerala 686507, India",686507,Kanjirappally,Kottayam,KERALA,9.558497567123288,76.79145172602739
COCHIN MARINE ENGINEERING BOAT YARD,"Kochangadi Rd, Kochangadi, Chullickal, Kochi, Kerala 682002, India",682002,Kochi,Ernakulam,KERALA,9.957255232894736,76.25402236842105
COIR YARN TEX,"Kaichoondi, Alappuzha, Aryad South, Kerala 688006, India",688006,Ambalapuzha,Alappuzha,KERALA,9.525584704,76.338968536
ESTEEM RUBBER PRODUCTS,"Perumpanachy Thottakkad Road Thottackad, Perumpanachy, Kerala 686536, India",686536,Changanassery,Kottayam,KERALA,9.4773755375,76.58214364166666
EVERSHINE CHEMICAL INDUSTRIES,"Pallippuram P. O., Cherthala, Kelamangalam, Alleppey, Kerala 688541, India",688541,Cherthala,Alappuzha,KERALA,9.742432095238096,76.36193387142858
EXPOSOFT TECHNOLOGIES,"306, Neospace, KINFRA Techno Industrial Park, Kakkanchery, Kakkanchery, Kerala 673635, India",673635,Tirurangadi,Malappuram,KERALA,51.479168,118.8666109
FABIAN TECHNOLOGIES,"kottiyam, NH 47, Kollam, Kottiyam, Kerala 691571, India",691571,Kollam,Kollam,KERALA,8.862876898076923,76.67408270384615
FINE ART PLASTICS,"Kaloor - Kadavanthara Rd, Kathrikadavu, Kaloor, Kochi, Kerala 682017, India",682017,Ernakulam,Ernakulam,KERALA,9.994298565853658,76.29345620243902
FROTUNE FLEXIPRINT PACK,"P.O, 1/508, Ponjassery, A M Thomas Rd, Perumbavoor, Ponjassery, Kerala 683547, India",683547,Kunnathunad,Ernakulam,KERALA,10.091076425925923,76.43058615555556
G.H.ASSOCIATES,"Golden Plaza, Chittoor Rd, opp. Mymoon Theatre, Padma Junction, Kacheripady, Ernakulam, Kochi, Kerala 682018, India",682018,Ernakulam,Ernakulam,KERALA,9.991596463636364,76.28133009181818
GLOBE C INDIA INTERNATIONAL,"SRCM MANJERI CENTRE, Ajantha Building, C H Bypass, Kuthukal, Manjeri, Kerala 676121, India",676121,Ernad,Malappuram,KERALA,11.122318839583333,76.11755346666666
GOLDEN SPENCER TRADING,"Okkal, Kalady, Chelamattom part, Kerala 683544, India",683544,Kunnathunad,Ernakulam,KERALA,10.166672573758866,76.50774667872341
INNOPOLIS BIO INNOVATIONS,"18/18, Near BPCL Petrol Pump Puthya Road, Vadagode P.O., Mundanpalam, Kollamkudimugal, Kangarappady, Kochi, Kakkanad, Kerala 682021, India",682021,Ernakulam,Ernakulam,KERALA,10.029233765060242,76.3353045433735
JAGADAMBAN CONTAINES,"Factory at :18/789, Development Area, Binanipuram, Edayar, Kochi, Kerala 683502, India",683502,Paravur,Ernakulam,KERALA,10.087692555555556,76.30506273333334
JEEVAGRAM,"VI/450, Manickamangalam, Kalady, Kerala 683574, India",683574,Aluva,Ernakulam,KERALA,10.182817160958905,76.45845344931507
K.K.TECH ENGINEERING COMPANY,"Kakkadampuram, Bus Stop, Kondotty - Tirurangadi Rd, Abdul Rahiman Nagar, Kerala 676305, India",676305,Tirurangadi,Malappuram,KERALA,11.067039103141362,75.96129557801048
KALPAKA PROCESSING CO.,"TAK-Industrial Complex Eara, North P.O, Neelamperoor, Kerala 68653, India",688534,Cherthla,Alappuzha,KERALA,9.871729377142858,76.30438504
KANAKA POLYPACK P.LTD.,"Rd, Ashokapuram, Edayapuram, Aluva, Kerala 683101, India",683101,Aluva,Ernakulam,KERALA,10.095680780412373,76.36233782061856
LULU FLIGHT KITCHEN,"Nedumbassery, XI/300-B, VIP Road, opp. Cochin International Airport, Kochi, Nedumbassery, Kerala 683572, India",683572,Paravur,Ernakulam,KERALA,10.193383310687024,76.38335938931299
MACHINGAL MARKETING AGENCIES,"Machingal, Down Hill, Malappuram, Kerala, India",688534,Cherthla,Alappuzha,KERALA,9.871729377142858,76.30438504
MACHINGAL ENTERPRISES,"Machingal, Down Hill, Malappuram, Kerala, India",688534,Cherthla,Alappuzha,KERALA,9.871729377142858,76.30438504
MATHA BOOK CENTRE,"Salem-Kanyakumari Highway, Service Rd, Karukutty, Angamaly, Kerala 683576, India",683576,Aluva,Ernakulam,KERALA,10.2298903375,76.37638655416666
MINERVA COMBINES,"W9VF+77R, Temple Road, opp. Public Library, Thrippunithura, Thiruvankulam, Kochi, Kerala 682305, India",682305,Kanayannur,Ernakulam,KERALA,9.939008104761903,76.37087710158731
NAS FOOD EXIM,"Cherthala, plot no:36, KSIDC Mega Food Park, Industrial growth centre, Pallipuram, Kerala 688541, India",688541,Cherthala,Alappuzha,KERALA,9.742432095238096,76.36193387142858
NELLIMALAYIL TRADERS,"Anithottam near Bsnl tower, Kanjirappally, Kerala 686507, India",686507,Kanjirappally,Kottayam,KERALA,9.558497567123288,76.79145172602739
NEONA EMBEDDED LABZ,"41/1852, Veekshanam Rd, North Kaloor, Kacheripady, Kochi, Kerala 682018, India",682018,Ernakulam,Ernakulam,KERALA,9.991596463636364,76.28133009181818
UNITED NILGIRIS TEA ESTATE CO. LTD.,"Nilgiris, Tamil Nadu, India",682002,Kochi,Ernakulam,KERALA,9.957255232894736,76.25402236842105
NILGIRIS EXPORTS,"Nilgiris, Tamil Nadu, India",682002,Kochi,Ernakulam,KERALA,9.957255232894736,76.25402236842105
NIVENIA INTERNATIONAL,"Q8CV+H94, Thycattussery, Kerala 688528, India",688528,Cherthala,Alappuzha,KERALA,9.77657956875,76.34386003125
PAZHANGADI OIL MILLS,"3CXM+XFV, Kerala 683547, India",683547,Kunnathunad,Ernakulam,KERALA,10.091076425925923,76.43058615555556
PEGADO FIXING SOLUTIONS,"MANOOR-CHEKANUR, ROAD, KOTTEERI, Vattamkulam, Kerala 679578, India",679578,Ponnani,Malappuram,KERALA,10.795239843181818,76.0287652090909
PRAYAG EXPORTS,"AP/XII-157,Chandiroor P O, 688537, Chandiroor, Cherthala, Kerala 688537, India",688537,Cherthala,Alappuzha,KERALA,9.82172572,76.30522974
S.TOUGHEN GLASS,"Marottichode-Pothiyakkara, Mattoor, Kalady, Kerala 683574, India",683574,Aluva,Ernakulam,KERALA,10.182817160958905,76.45845344931507
SRI THIRUMAL EXPORTS,"# 368, 4, th cross, Vaiyapuri Nagar, Gandhi Puram, Karur, Tamil Nadu 2, India",682002,Kochi,Ernakulam,KERALA,9.957255232894736,76.25402236842105
ST.THOMAS ENGINEERING WORKS,"Opp.South Indian Bank, St.John's Dayara Complex, SH 1, Chingavanam, Kottayam, Chingavanam, Kerala 686531, India",686531,Changanacherry,Kottayam,KERALA,9.5105107,76.52202866666666
TECWA GROUP,"15/58, Desom, Aluva, Kerala 683102, India",683102,Aluva,Ernakulam,KERALA,10.120711972131147,76.33862614918033
THOMSON IMPEX,"Nediyuzhathil Tower, 1333 A, 40, Cannon Shed Rd, Shenoys, Kochi, Kerala 682011, India",682011,Ernakulam,Ernakulam,KERALA,9.989242117391305,76.29452373188406
THRILOKA EXPORTS,"XV/1056, Mylavila, Kerala 691302, India",691302,Kollam,Kollam,KERALA,8.855673983333332,76.71191655
UNITY APPARELS,"X3XP+P8V, Kerala 676503, India",676503,Tirur,Malappuram,KERALA,10.998304046031746,76.01255696507937
VALOOKKARAN MODERN RICE MILL,"5CVJ+3GV, Ezhattumugham, Kerala 683574, India",683574,Aluva,Ernakulam,KERALA,10.182817160958905,76.45845344931507
VYTTAL AQUA SYSTEM,"Calicut Rd, Thurakkal, Manjeri, Kerala 676517, India",676517,Ernad,Malappuram,KERALA,11.081878113043478,76.06632696956521
ACM NATURAL PRODUCTS,"ACM Valley Vazhakunnu Pulipadam, Mampad, Kerala 676542, India",676542,Nilambur,Malappuram,KERALA,11.24328006744186,76.19810685581396
ADIF MAT EXPORTS,"MGP 7, 674, Shanmukhavilasam Road, North, Komalapuram, Aaryad, Mannanchery, Alappuzha, Kerala 688538, India",688538,Mararikulam,Alappuzha,KERALA,9.57088650909091,76.34889931818181
AGHORI TRADING,"11/701, Tirur, Thirunavaya, Kerala 676108, India",676108,Tirur,Malappuram,KERALA,10.85767042173913,75.951353
AGUS ENTERPRISES,"Pudussery Building, Kaloor, Kochi, Kerala 682017, India",682017,Ernakulam,Ernakulam,KERALA,9.994298565853658,76.29345620243902
AKAY NATURAL INGREDIENTS,"Ambunad Malaidumthuruthu, Cochin, Aluva, Kerala 683561, India",683561,Aluva,Ernakulam,KERALA,6.4428692100000005,-73.33767202
ALUNGAL SPICES&OIL MILLS,"Poocholamad, Kannamangalam, Kerala 676304, India",676304,Tirurangadi,Malappuram,KERALA,11.056520428688524,75.98326629672131
AMICUS COMMUNICATIONS,"THE BUILDING 9 degree N 76 degree E, Desabhimani Rd, Kaloor, Kochi, Kerala 682017, India",682017,Ernakulam,Ernakulam,KERALA,9.994298565853658,76.29345620243902
ANNA FRIED MASALA,"Vithayathil Building, 10/563, Meleth Road, Vikas Nagar, Maradu, Kochi, Kerala 682304, India",682304,Ernakulam,Ernakulam,KERALA,9.938877706666666,76.32558967666667
ARAVIND EXPORTS,"8/1488 Hari Pai Compound, Gujarati Rd, Kappalandimukku, Mattancherry, Kochi, Kerala 682002, India",682002,Kochi,Ernakulam,KERALA,9.957255232894736,76.25402236842105
ARYAS FOODS,"near Aarattukadavu Road, Kumaranalloor, Kottayam, Kerala 686016, India",686016,Kottayam,Kottayam,KERALA,9.616360489285714,76.53554135357143
BHARATH MARKETING,"Kozhikode - Malappuram - Palakkad Hwy, Pathaikkara, Perintalmanna, Kerala 679322, India",679322,Perinthalmanna,Malappuram,KERALA,10.977929251428572,76.22854857333334
BULK LINER LOGISTICS,"39/6181, Alappatt Cross Road, Ravipuram, Ravipuram, Perumanoor, Kochi, Kerala 682015, India",682015,Ernakulam,Ernakulam,KERALA,9.948697107692308,76.29266132307693
CENTRAL COIR MILLS,"F8XM+CFC, Vazhicherry Ward, Sea View Ward, Alappuzha, Kerala 688001, India",688001,Ambalapuzha,Alappuzha,KERALA,9.49638391904762,76.33209264761905
CHENNAI FORGE PRODUCTS P.LTD.,"Chennai, Tamil Nadu, India",682024,Ernakulam,Ernakulam,KERALA,10.01888763298969,76.30253450412371
CHENNAI RECLAIMATION(P)LTD.,"Chennai, Tamil Nadu, India",682024,Ernakulam,Ernakulam,KERALA,10.01888763298969,76.30253450412371
CHENNAI FORGE PRODUCTS P.LTD.,"Chennai, Tamil Nadu, India",682002,Kochi,Ernakulam,KERALA,9.957255232894736,76.25402236842105
CHENNAI RECLAIMATION(P)LTD.,"Chennai, Tamil Nadu, India",682002,Kochi,Ernakulam,KERALA,9.957255232894736,76.25402236842105
CHERUSSERIKALAM GROUP,"20/150, neelamperoor, p.o, Kurichy, Chingavanam, Kerala 686534, India",686534,Kuttanad,Alappuzha,KERALA,9.499139,76.50628865625
COCHIN DRUG HOUSE,"Road, Mankuzhy, Nethaji Nagar, Edappally, Kochi, Kerala 682024, India",682024,Ernakulam,Ernakulam,KERALA,10.01888763298969,76.30253450412371
COCHIN CADALAS P.LTD.,"Kochi, Kerala, India",686012,Kottayam,Kottayam,KERALA,9.54856711111111,76.52230786666667
COCHIN CONDIMENTS P.LTD.,"Kochi, Kerala, India",686012,Kottayam,Kottayam,KERALA,9.54856711111111,76.52230786666667
COCHIN COSMOS FOODS LTD.,"Kochi, Kerala, India",686012,Kottayam,Kottayam,KERALA,9.54856711111111,76.52230786666667
COCHIN DIES AND MOULDS,"Kochi, Kerala, India",686012,Kottayam,Kottayam,KERALA,9.54856711111111,76.52230786666667
COCHIN FROZEN FOOD EXPORTS P. LTD.,"Kochi, Kerala, India",686012,Kottayam,Kottayam,KERALA,9.54856711111111,76.52230786666667
COCHIN RECLAIM & RUBBER,"Kochi, Kerala, India",686012,Kottayam,Kottayam,KERALA,9.54856711111111,76.52230786666667
COCHIN RUBBER INDUSTRIES,"Kochi, Kerala, India",686012,Kottayam,Kottayam,KERALA,9.54856711111111,76.52230786666667
COCHIN TRADING,"Kochi, Kerala, India",686012,Kottayam,Kottayam,KERALA,9.54856711111111,76.52230786666667
KOCHI IMPEX,"Kochi, Kerala, India",686012,Kottayam,Kottayam,KERALA,9.54856711111111,76.52230786666667
KOCHI BENNALE,"Kochi, Kerala, India",686012,Kottayam,Kottayam,KERALA,9.54856711111111,76.52230786666667
COCHIN CHEMICALS & RUBBER PRODUCTS,"Kochi, Kerala, India",686012,Kottayam,Kottayam,KERALA,9.54856711111111,76.52230786666667
COCHIN PACKERS,"Kochi, Kerala, India",686012,Kottayam,Kottayam,KERALA,9.54856711111111,76.52230786666667
"COCHIN FOOD TECH P. LTD,","Kochi, Kerala, India",686012,Kottayam,Kottayam,KERALA,9.54856711111111,76.52230786666667
COCHIN PETROMINS,"4/147B Devikripa, Fact Road North Kalamassery Near To Ganapathy Temple, behind Bmart Supermarket, North Kalamassery, Kalamassery, Kochi, Kerala 683104, India",683104,Kanayannur,Ernakulam,KERALA,10.057542963636363,76.31917809090909
COCOHIN RESIDENCY P.LTD.,"Peeliyadu Road, near Amrita Hospital, Amrita Nagar, Edappally, Kochi, Kerala 682041, India",682041,Kanayannur,Ernakulam,KERALA,9.9560633125,76.391855675
COCHIN RESIDENCY P.LTD.,"Peeliyadu Road, near Amrita Hospital, Amrita Nagar, Edappally, Kochi, Kerala 682041, India",682041,Kanayannur,Ernakulam,KERALA,9.9560633125,76.391855675
COIMBATORE POTTERIES & REFRACTORIES,"Coimbatore, Tamil Nadu, India",688534,Cherthla,Alappuzha,KERALA,9.871729377142858,76.30438504
2F WIND POWER COIMBATORE PVT LTD,"Coimbatore, Tamil Nadu, India",688534,Cherthla,Alappuzha,KERALA,9.871729377142858,76.30438504
COIMBATORE SUPER ALLOYS P.LTD.,"Coimbatore, Tamil Nadu, India",688534,Cherthla,Alappuzha,KERALA,9.871729377142858,76.30438504
MIRACLE RECLAIM RUBBER COIMBATORE P.LTD.,"Coimbatore, Tamil Nadu, India",688534,Cherthla,Alappuzha,KERALA,9.871729377142858,76.30438504
COIMBATORE COTS & COATINGS LTD.,"Coimbatore, Tamil Nadu, India",688534,Cherthla,Alappuzha,KERALA,9.871729377142858,76.30438504
COIMBATORE POLYTEX,"Coimbatore, Tamil Nadu, India",688534,Cherthla,Alappuzha,KERALA,9.871729377142858,76.30438504
CYRIX HEALTHCARE,"30/641B, Vandipetta Road, near SBI Bank, Poonithura, Maradu, Ernakulam, Kochi, Kerala 682038, India",682038,Ernakulam,Ernakulam,KERALA,9.951825921428572,76.32976080714285
DOTS CARGO INDIA,"X7MR+XGG, Kathrikadavu, Kaloor, Ernakulam, Kochi, Kerala 682017, India",682017,Ernakulam,Ernakulam,KERALA,9.994298565853658,76.29345620243902
ESTHAPANOSE SONS,"Lemon Grass Avenue, Syrian Church Rd, Kunnathery Thikavu, Aluva, Kerala 683101, India",683101,Aluva,Ernakulam,KERALA,10.095680780412373,76.36233782061856
EUROFINE INTERNATIONAL INDIA,"Noah's Ark, Suit No. 189, NH47 Near Kochi International Airport Jn, Nedumbassery, Angamaly South, Kochi, Angamaly, Kerala 683573, India",683573,Aluva,Ernakulam,KERALA,10.180255566666666,76.38579883333334
EUROTECH POLYMERS,"5574+2MX, Elankur, Kerala 676122, India",676122,Ernad,Malappuram,KERALA,11.122068132142855,76.15194397142858
FOUR G TECHNOLOGIES,"Building no 12/123, Kuzhimattom, Kerala 686533, India",686533,Kottayam,Kottayam,KERALA,9.527813314285716,76.54438353571427
GESCHMACK NATURELLE,"Geshmack Naturelle, PO, Pancode, Vadavucode, Aikaranad North, Kerala 682310, India",682310,Kunnathunad,Ernakulam,KERALA,9.98790642,76.430152955
GREEN COIR HUB,"J8WQ+93V, Post Office Rd, Charamangalam, Mayithara, Cherthala, Kerala 688539, India",688539,Cherthala,Alappuzha,KERALA,9.66428288888889,76.34121377777778
HOSTIA INDUSTRIES,"Neerakkal Building, Muttuchira, Kottayam, Muttuchira, Kerala 686613, India",686613,Vaikom,Kottayam,KERALA,9.7491363125,76.4823580125
J.R.UNIQUE PRINTERS,"T.B Junction, Angamaly, Angamaly, Kerala 683572, India",683572,Paravur,Ernakulam,KERALA,10.193383310687024,76.38335938931299
KAVONE AUTOMATION AND MACHINES,"3rd Floor ,V.E Arcade, Palarivattom JN., Sonia Nagar, Palarivattom, Kochi, Kerala 682020, India",682020,Ernakulam,Ernakulam,KERALA,9.96861736259542,76.30114694656488
KAY ENN TRADING,"Kasmisons Arcade, Mahatma Gandhi Rd, near Padma, Mulavukad, Kochi, Kerala 682035, India",682035,Ernakulam,Ernakulam,KERALA,9.979283159183671,76.28271734081633
KAYAL EXPORTS,"GGJ8+7R5, Chingavanam, Kerala 686007, India",686007,Kottayam,Kottayam,KERALA,9.531553366666667,76.5150448
KERALA TIMBERS,"Appanchira, Kaduthuruthy, Kerala 686604, India",686604,Vaikom,Kottayam,KERALA,9.758229066666669,76.49950541111112
KODUVAYOOR BALAKRISHNASREDHAR,"Koduvayur, Kerala, India",682024,Ernakulam,Ernakulam,KERALA,10.01888763298969,76.30253450412371
KOLUTHARA EXPORTS LTD.,"Postal Box, No. 7, Keltron Rd, Aroor gram panchayat, Kochi, Kerala 688534, India",688534,Cherthla,Alappuzha,KERALA,9.871729377142858,76.30438504
KUNNATHAN POLYMERS P.LTD.,"Assamanoor, P.O, Odakkali Nedungapra Krariyely Rd, Perumbavoor, Kerala 683549, India",683549,Kunnathunad,Ernakulam,KERALA,10.10500877,76.547910502
LIV LONG NUTRACUETICALS LTD.,"Bank Rd, Periyar Nagar, Aluva, Kerala 683101, India",683101,Aluva,Ernakulam,KERALA,10.095680780412373,76.36233782061856
LUCIYA INDUSTRIES,"Industrial Development Plot, VI/188B, North Champannoor, Angamaly, Kerala 683573, India",683573,Aluva,Ernakulam,KERALA,10.180255566666666,76.38579883333334
MACHINGAL MARKETING AGENCIES,"Machingal, Down Hill, Malappuram, Kerala, India",686012,Kottayam,Kottayam,KERALA,9.54856711111111,76.52230786666667
MACHINGAL ENTERPRISES,"Machingal, Down Hill, Malappuram, Kerala, India",686012,Kottayam,Kottayam,KERALA,9.54856711111111,76.52230786666667
MADAVA PHARMACEUTICAL LABORATORIES,"Ground Floor, PNVM Arcade, North End, Madhava Pharmacy Junction, Providence Rd, Banerji Rd, Kacheripady, Ernakulam, Kochi, Kerala 682018, India",682018,Ernakulam,Ernakulam,KERALA,9.991596463636364,76.28133009181818
MALABAR HERBS,"Airport Rd, Kochi, Nedumbassery, Kerala 683111, India",683111,Aluva,Ernakulam,KERALA,10.153445285714286,76.3904808
MALABAR TIMBER INDUSTRIES,"Malabar Timber Industries, Karimugal, Kerala 682303, India",682303,Kunnathunad,Ernakulam,KERALA,9.999956208333332,76.39698640416667
MALAVIKA ENGINEERING WORKS,"Sh 1, Kodimatha, Kodimatha, Kottayam, Kerala 686001, India",686001,Kottayam,Kottayam,KERALA,9.590939220930233,76.52573586744185
MEDAMANA RUBBER INDUSTRIES,"Mulakulam North, Piravom, Kerala 686664, India",686664,Muvattupuzha,Ernakulam,KERALA,9.876670519512194,76.48430996341463
MOMO RUBBER PRDUCTS,"Kalamabattuchira,Ithithanam P. O, Changanassery, Ithithanam, Kerala 686535, India",686535,Changanassery,Kottayam,KERALA,9.479609457894735,76.52609346315789
NAS AGENCIES,"NH544, Koonamthai, Edappally, Ernakulam, Kochi, Kerala 682024, India",682024,Ernakulam,Ernakulam,KERALA,10.01888763298969,76.30253450412371
NUCOMET ENTERPRISES,"13/751-2,Koikkara Building, Koikkara Lane Eden Lane, Marottichuvadu - Thoppil Rd, Thrikkakara, Edappally, Kochi, Kerala 682021, India",682021,Ernakulam,Ernakulam,KERALA,10.029233765060242,76.3353045433735
PERINCHERRIL RUBBERS,"DC Road, Poovanthuruthu, Kerala 686012, India",686012,Kottayam,Kottayam,KERALA,9.54856711111111,76.52230786666667
PERUMCHERIL RUBBERS,"DC Road, Poovanthuruthu, Kerala 686012, India",686012,Kottayam,Kottayam,KERALA,9.54856711111111,76.52230786666667
PIO FOOD PRODUCTS,"WJGJ+GVP, Kerala 686672, India",686672,Muvattupuzha,Ernakulam,KERALA,9.924969829166669,76.6025811875
PKG FIBRES,"18/341A, MADATHIVELIYIL, Kalavoor, Alappuzha, Kerala 688522, India",688522,Ambalapuzha,Alappuzha,KERALA,9.572168202777778,76.32190507222222
PRABHA SPECIALITIES,"33/1784, Madathiparambil Building, B-2, Puthiya Road, P.O, Vennala, Kochi, Kerala 682028, India",682028,Ernakulam,Ernakulam,KERALA,9.99670085,76.32102778
PRIME LINKS GLOBAL,"2nd floor, Sunu Plaza, Mangayil School Road, Maradu, Kochi, Kerala 682304, India",682304,Ernakulam,Ernakulam,KERALA,9.938877706666666,76.32558967666667
PROMPT TRADING COMPANY,"N.A ARCADE, Govt. Veterinary Hospital Rd, CHELARI, Thenhipalam, Chelari, Kerala 673636, India",673636,Tirurangadi,Malappuram,KERALA,11.118472538297873,75.8919613468085
R.R.BUSINESS GROUP,"Valakom, Kerala 691532, India",691532,Kottarakkara,Kollam,KERALA,8.94924200625,76.84236991875
RICE TECH AGRO MILLS,"Malabar rice mill, Mattoor, Kalady, Kerala 683574, India",683574,Aluva,Ernakulam,KERALA,10.182817160958905,76.45845344931507
SALVIA EXPORTS,"NH. 17, 27/456, Toll Junction, Metro Pillar No. 386, near TecQ Mobiles, Edappally North, PO, Ernakulam, Alappuzha, Kerala 682024, India",682024,Ernakulam,Ernakulam,KERALA,10.01888763298969,76.30253450412371
SEVENS ENTERPRISES,"Athirampuzha Junction, MG9P+C3M, near Juma Masjid, Athirampuzha, Kottayam, Athirampuzha, Kerala 686562, India",686562,Kottayam,Kottayam,KERALA,9.6723036,76.54058719333332
SHAVUOT AGRIC,"Shavuot Agric Building No XII /667-B Valanjandakku road, Olakettiambalam, Perungala, Kerala 690510, India",690510,Chengannur,Alappuzha,KERALA,9.20028885,76.53534655
TAG SECTOR,"XI/357, Kidagoor, Kerala 683572, India",683572,Paravur,Ernakulam,KERALA,10.193383310687024,76.38335938931299
TCL CERAMICS LTD,"TCL Ceramics Limited, 26, CSEZ, Kakkanad, Kerala 682037, India",682037,Ernakulam,Ernakulam,KERALA,9.997384706451612,76.34072476129032
V.TEX GARMENTS,"TD Rd, Thuravoor, Thuravoor Thekku, Kerala 688540, India",688540,Cherthala,Alappuzha,KERALA,9.773458592857144,76.30215857142858
VISWAS FOODS,"Viswas Foods, Ramapuram - Aimcombu Rd, Marangadu, Vellilappally, Kerala 686574, India",686574,Meenachil,Kottayam,KERALA,9.722305693333334,76.66728714
YUHAB CRAFTING LLP,"Kallikkadu Road, Malabar Street, Elamkulam, Kerala 679340, India",679340,Perintalmanna,Malappuram,KERALA,10.912338255555555,76.23797407777778
ZAMANI EXPORTS LLC,"4WPQ+2GM, EMEA College - Airport Rd, Karipur, Kerala 673647, India",673647,Tirurangadi,Malappuram,KERALA,11.1203880375,75.9348672875
ZAMORIN WORLD,"P K House Farook College, PO, Kozhikode, Kerala 673632, India",673632,Ernad,Malappuram,KERALA,51.5183605,118.3310501
ZUVA INTERNATIONAL,"76GF+GVC, Nilambur, Kerala 679329, India",679329,Nilambur,Malappuram,KERALA,11.285370839490447,76.23027299235669
24X7  COOLING SOLUTIONS,"29/1713, Bund Rd, Thykoodam, Vyttila, Ernakulam, Kochi, Kerala 682019, India",682019,Ernakulam,Ernakulam,KERALA,9.96996995974026,76.31541058961038
ACUMEN EXPORTERS,"Aruvithura Crossway Rd, Aruvithura, Erattupetta, Kerala 686121, India",686121,Meenachil,Kottayam,KERALA,9.692869868421052,76.77764492631579
ADS APPARELS,"101, Rajdhani Towers, Workshop St, Sirupooluvapatti, Khaderpet, Rayapuram, Tiruppur, Tamil Nadu 641 60, India",688524,Cherthala,Alappuzha,KERALA,9.6891011625,76.33285069583334
ALIMA TIMBER INDUSTRIES,"Old Muvattupuzha Rd, Perumbavoor, Kerala 683542, India",683542,Kunnathunad,Ernakulam,KERALA,10.114937405454544,76.47808056363637
ALTERSOFT INNOVATIONS INDIA P.LTD.,"Second Floor, Valiyaveetil Buildings, NH 544 (Old NH, 47, Kochi - Salem Hwy, Edappally Toll, Nethaji Nagar, Edappally, Ernakulam, Kochi, Kerala 682024, India",682024,Ernakulam,Ernakulam,KERALA,10.01888763298969,76.30253450412371
AMAL PLYWOOD,"35/2229/B, Vazhi, B1, Palli Pradakshina Rd, Pallinada, Palarivattom, Kochi, Kerala 682025, India",682025,Ernakulam,Ernakulam,KERALA,10.000372668965516,76.30783643448275
AMBITN LIFESCIENCES,"386X+V58, HMT Colony Rd, HMT Colony, North Kalamassery, Kalamassery, Ernakulam, Kochi, Kerala 683503, India",683503,Kanayannur,Ernakulam,KERALA,10.0582879625,76.337153153125
AMENSCO MEDICAL TECHNOLOGIES,"KINFRA Road, Nellad, Mazhuvannoor, Kerala 686669, India",686669,Kunnathunad,Ernakulam,KERALA,10.007340951592356,76.52786276496816
AUTOGRADE INDUSTRIES,"6/49 - A2, Thrikkakara, Mundampalam, Kochi, Kakkanad, Kerala 682021, India",682021,Ernakulam,Ernakulam,KERALA,10.029233765060242,76.3353045433735
BONAFIDE SURGICALS,"X7JP+6FP, Adv Easwara Iyer Rd, Shenoys, Kochi, Kerala 682018, India",682018,Ernakulam,Ernakulam,KERALA,9.991596463636364,76.28133009181818
CANNANORE TEX-STYLE INT'L.,"Kannur, Kerala, India",682002,Kochi,Ernakulam,KERALA,9.957255232894736,76.25402236842105
CATLYST CHEMICAL INDUSTRIES,"MASHREQ TRADE CENTRE CALICUT ROAD, Perintalmanna, Kerala 679322, India",679322,Perinthalmanna,Malappuram,KERALA,10.977929251428572,76.22854857333334
COCHIN PLYWOOD,"4F5M+JG5, Perumbavoor, Kerala 683542, India",683542,Kunnathunad,Ernakulam,KERALA,10.114937405454544,76.47808056363637
COIMBATORE POTTERIES & REFRACTORIES,"Coimbatore, Tamil Nadu, India",686012,Kottayam,Kottayam,KERALA,9.54856711111111,76.52230786666667
2F WIND POWER COIMBATORE PVT LTD,"Coimbatore, Tamil Nadu, India",686012,Kottayam,Kottayam,KERALA,9.54856711111111,76.52230786666667
COIMBATORE SUPER ALLOYS P.LTD.,"Coimbatore, Tamil Nadu, India",686012,Kottayam,Kottayam,KERALA,9.54856711111111,76.52230786666667
MIRACLE RECLAIM RUBBER COIMBATORE P.LTD.,"Coimbatore, Tamil Nadu, India",686012,Kottayam,Kottayam,KERALA,9.54856711111111,76.52230786666667
COIMBATORE COTS & COATINGS LTD.,"Coimbatore, Tamil Nadu, India",686012,Kottayam,Kottayam,KERALA,9.54856711111111,76.52230786666667
COIMBATORE POLYTEX,"Coimbatore, Tamil Nadu, India",686012,Kottayam,Kottayam,KERALA,9.54856711111111,76.52230786666667
CORNIER P.LTD.,"Vrindavan Tower, 10/485-G, West Kadungalloor, Aluva, Kerala 683110, India",683110,Paravur,Ernakulam,KERALA,10.106830633333333,76.3292302
COSMOS PACKAGING INTERNATIONAL,"EP 3/60, Thadicadu, Anchal, Arackal, Kerala 691306, India",691306,Pathanapuram,Kollam,KERALA,8.91761572457143,76.91935525
DELCO ENGINEERING WORKS,"V7MQ+CV6, Joras (Market) Rd, North Kumbalangi, Kumbalangi, Kochi, Kerala 682007, India",682007,Kochi,Ernakulam,KERALA,9.873862835294116,76.28911113529412
DRISHYA ENGINEERING,"KOLLPPALLY, KALAVAMKODAM P O CHERTHALA, ALAPPUZHA DIST, Kerala 688524, India",688524,Cherthala,Alappuzha,KERALA,9.6891011625,76.33285069583334
DUA NUT FOODS,"Malayalam nagar TKMC, PO, Vadakkanazhikam, Karicode, Peroor, Kollam, Kerala 691005, India",691005,Kollam,Kollam,KERALA,8.91188756590909,76.63882659886363
EAST COAST SPICES,"11/138, AB-10, Satellite Twp, Padamughal, Kakkanad, Kochi, Kakkanad, Kerala 682030, India",682030,Ernakulam,Ernakulam,KERALA,51.13351584878049,133.02442981463415
EINSTEK-ENGINEERING INSULATION,"Metro Pillar 450, PO Bus Stop, 2nd Floor, National Residency Complex, Bank Jn, Bank Junction, Mamangalam, Edappally, Ernakulam, Kochi, Kerala 682024, India",682024,Ernakulam,Ernakulam,KERALA,10.01888763298969,76.30253450412371
FRUCTUS INC.,"No. 6/858-M, 2nd Floor, Suite No. 552, Valamkottil Towers, Judgemukku, Thrikkakara, Kakkanad, Kochi, Kerala 682021, India",682021,Ernakulam,Ernakulam,KERALA,10.029233765060242,76.3353045433735
GREEN MALABAR TRADING,"V/388C PIPELINE JUNCTION EDAPALLY, Edappally - Pukkattupady Rd, Thrikkakara, PO, Kochi, Kerala 682021, India",682021,Ernakulam,Ernakulam,KERALA,10.029233765060242,76.3353045433735
GREENKERA,"8/253A, MNF BUILDING , KAPPUMTHALA P.O, Muttuchira, Kerala 686613, India",686613,Vaikom,Kottayam,KERALA,9.7491363125,76.4823580125
HAIMA POLYMERS P.LTD.,"2FVR+QR2, Rubber Park Rd, Airapuram, Kerala 683556, India",683556,Kunnathunad,Ernakulam,KERALA,10.083125960465116,76.47373215813954
IBIS MEDICAL EQUIPMENT,"45/279, Koothapady Road, Anjumuri, Thammanam, Anjumuri, Kuthappady, Thammanam, Kochi, Kerala 682032, India",682032,Ernakulam,Ernakulam,KERALA,9.983836255,76.311535635
K.P.B. GLOBAL EXPORTERS PVT LTD,"48GC+GGX, Aluva - Paravoor Rd, Malikampeedika, Kerala 683511, India",683511,Paravur,Ernakulam,KERALA,10.119306989583333,76.29334000833333
KANGAYAM COIR CLUSTER P.LTD.,"Kangayam, Tamil Nadu, India",682002,Kochi,Ernakulam,KERALA,9.957255232894736,76.25402236842105
KERA;LA MATCH INDUSTRIES,"2MC7+CW9, Paingottoor, Kerala 686671, India",686671,Kothamangalam,Ernakulam,KERALA,10.007979096875,76.6938778125
MAC AGRO TECH,"mac agro tech, Kavanur, Kerala 673639, India",673639,Ernad,Malappuram,KERALA,11.22386355755814,76.05105861802325
MADATHIPARAMBIL OPTICALS,"Teejay Estate, Palarivattom Junction, Sonia Nagar, Palarivattom, Ernakulam, Kochi, Kerala 682025, India",682025,Ernakulam,Ernakulam,KERALA,10.000372668965516,76.30783643448275
MARINOS EXPORTS,"XII/240,Hemadri Building, Thirunalloor, P.O, Cherthala, Thirunallur, Kerala 688541, India",688541,Cherthala,Alappuzha,KERALA,9.742432095238096,76.36193387142858
MARWOOD APPARELS,"Payyal, JN, Nedungapra, Vengoor, Kerala 683545, India",683545,Kunnathunad,Ernakulam,KERALA,10.109719963636364,76.52310976666666
MERAKI LINKS,"67/5093, Door No. 17B, DD Oceano Mall, Marine Drive, Kochi, Kerala 682031, India",682031,Ernakulam,Ernakulam,KERALA,9.99692354,76.27468644
NXT INNOVATIONS,"Door No 16 / 138 1st Floor, Karappillil Building Opp Margin Free Market, Pallithazham Junction, PO, Pallithazham, Mulanthuruthy, Kerala 682314, India",682314,Ernakulam,Ernakulam,KERALA,9.904187420689656,76.39910738275861
PLANEX ASSOCIAES INDIA P.LTD.,"Perinchoor Rd, Pookkottumpadam, Amarambalam, Kerala 679332, India",679332,Nilambur,Malappuram,KERALA,11.1941912,76.29018178518518
PREMIUM FERRO ALLOYS LTD.,"Factory: Industrial Area, Binanipuram, Edayar, Binanipuram, Edayar, Aluva , Cochin, Kerala 683502, India",683502,Paravur,Ernakulam,KERALA,10.087692555555556,76.30506273333334
PRISTINE TROPICAL FRUITS AND AGRO PRODUCTS,"66RH+J3, Mampad, Kerala 676542, India",676542,Nilambur,Malappuram,KERALA,11.24328006744186,76.19810685581396
QUE-RICO EXIM P.LTD.,"Vengoor, P.O., Perumbavoor, Kochi, Kerala 683546, India",683546,Kunnathunad,Ernakulam,KERALA,10.1428569,76.52744881481482
ROWLINE SOLUTIONS,"Karthala, thozhuvanoor P. O, Valanchery, Athavanad, Kerala 676552, India",676552,Tirur,Malappuram,KERALA,10.902934205042015,76.05797082941177
S.K.COCO INTERNATIONAL,"3/254 C Pallipuram, P.O, Pin:688541, Cherthala, Pallipuram, Kerala 688541, India",688541,Cherthala,Alappuzha,KERALA,9.742432095238096,76.36193387142858
S.K. COCO INTERNATIONAL,"3/254 C Pallipuram, P.O, Pin:688541, Cherthala, Pallipuram, Kerala 688541, India",688541,Cherthala,Alappuzha,KERALA,9.742432095238096,76.36193387142858
SEAWIND FISHERIES,"Choice Rd, near Choice company, Janatha Nagar, Palluruthy, Kochi, Kerala 682006, India",682006,Kochi,Ernakulam,KERALA,9.917652551851852,76.27326455925926
SERVYOND IMPEX,"DOOR NO:VII / 151A KUMMINIPARAMBA PO Karipur, Kondotty, Karipur, Kerala 673638, India",673638,Ernad,Malappuram,KERALA,11.14718034158416,75.96500935445545
SILIVER OIL MILLS,"Karuvarakundu-Perinthalmanna Road, Melattur, 37JV+732, Malappuram District, Edappatta, Kerala 679326, India",679326,Perintalmanna,Malappuram,KERALA,11.053314714285715,76.29075262428572
SULVER OIL MILLS,"Karuvarakundu-Perinthalmanna Road, Melattur, 37JV+732, Malappuram District, Edappatta, Kerala 679326, India",679326,Perintalmanna,Malappuram,KERALA,11.053314714285715,76.29075262428572
SILVER OIL MILLS,"Karuvarakundu-Perinthalmanna Road, Melattur, 37JV+732, Malappuram District, Edappatta, Kerala 679326, India",679326,Perintalmanna,Malappuram,KERALA,11.053314714285715,76.29075262428572
SIYA RUBBERS,"HG3H+27F, Poovanthuruthu, Kerala 686012, India",686012,Kottayam,Kottayam,KERALA,9.54856711111111,76.52230786666667
ST.JUDE FOODS,"Anjilippa, Kanjirappally, Kerala 686518, India",686518,Kanjirapally,Kottayam,KERALA,9.531795412962962,76.82251328518518
STAARLIGHT EXPORTERS,"175 2A2, Koolipalayam Ring Rd, Vigneshwara Nagar, po, Tiruppur, Tamil Nadu 2, India",682002,Kochi,Ernakulam,KERALA,9.957255232894736,76.25402236842105
SYNTHITE INDUSTRIAL CHEMICALS LTD.,"Synthite Valley, Kadayiruppu, Kadayirippu - Pattimattom Rd, Kadayiruppu, Kadayirippu, Kerala 682311, India",682311,Kunnathunad,Ernakulam,KERALA,9.986131800632911,76.47020598227847
TIRUPUR CITY STYLE COLLECTION,"Tiruppur, Tamil Nadu, India",688524,Cherthala,Alappuzha,KERALA,9.6891011625,76.33285069583334
TIRUPUR STYLE,"Tiruppur, Tamil Nadu, India",688524,Cherthala,Alappuzha,KERALA,9.6891011625,76.33285069583334
TIRUPUR KNITWEAR EXPORTS PVT LTD,"Tiruppur, Tamil Nadu, India",688524,Cherthala,Alappuzha,KERALA,9.6891011625,76.33285069583334
UNIVERSAL BIOSCIENCE,"Office no:6, Second floor, Ompalyil Building,Block Junction, Kolenchery, Kerala 682311, India",682311,Kunnathunad,Ernakulam,KERALA,9.986131800632911,76.47020598227847
AI MARINE PRODUCTS INDIA P.LTD.,"KSIDC Mega Food Park Pallippuram, Cherthala, Pallipuram, Kerala 688541, India",688541,Cherthala,Alappuzha,KERALA,9.742432095238096,76.36193387142858
ALLEPPEY DIESEL SERVICES,"Near Rotary Womens Hostel X-Ray Bypass Junction, CMC-17, Cherthala Rd, Choice Nagar, Cherthala, Kerala 688524, India",688524,Cherthala,Alappuzha,KERALA,9.6891011625,76.33285069583334
AMCON TRADING INTERNATIONAL,"1st Floor, Fenster Arcade, Seaport Airport Road Vallathol Junction, Thrikkakara, Edapally, Kakkanad, Thrikkakara, Kochi, Kakkanad, Kerala 682021, India",682021,Ernakulam,Ernakulam,KERALA,10.029233765060242,76.3353045433735
ARTISE INTERIORS & EXTERIORS,"near Police Station, Changaramkulam, Alamcode, Kerala 679585, India",679585,Ponani,Malappuram,KERALA,10.750000933333332,76.02477622083333
ASIAN MARINE FOODS,"VI/1330, Old No. VII/464, Kochangadi, Chullickal, Kochi, Kerala 682002, India",682002,Kochi,Ernakulam,KERALA,9.957255232894736,76.25402236842105
B.G.PACK,"Chungam, S Aduvassery Rd, North Paravur, Kunnukara, Kerala 683578, India",683578,Paravur,Ernakulam,KERALA,10.155197839473685,76.30713587631578
BE FATHIMA ENTERPRISES,"3F2R+3X, Airapuram, Kerala 683556, India",683556,Kunnathunad,Ernakulam,KERALA,10.083125960465116,76.47373215813954
BIC ASIA,"Kaprassery-Moozhiyal Rd, Nedumbassery, Kerala 683589, India",683589,Aluva,Ernakulam,KERALA,10.164607144444444,76.36327252222222
BIZZARO UNIFORMS,"G-3, National Residency Building, 449, Palarivattom - Edappally Rd, near Metro Pillar No, Bank Junction, Mamangalam, Edappally, Kochi, Kerala 682024, India",682024,Ernakulam,Ernakulam,KERALA,10.01888763298969,76.30253450412371
BLUE MOUNT RUBBERS,"44 C1 I.D PLOT, P.O, Poovanthuruthu, KOTTAYAM, Kerala 686012, India",686012,Kottayam,Kottayam,KERALA,9.54856711111111,76.52230786666667
BRENDOL LUBRICANTS,"59MC+9F3, Angamaly South, Angamaly, Kerala 683573, India",683573,Aluva,Ernakulam,KERALA,10.180255566666666,76.38579883333334
BRIGHTECH INTERIORS&EXTERIORS,"Brightech interiors and exteriors pvt.ltd, Abhaya Matha Church, Vennala, Kochi, Kerala 682028, India",682028,Ernakulam,Ernakulam,KERALA,9.99670085,76.32102778
BRISCOZ,"GMMG+M3Q, Kangazha, Kerala, India",688524,Cherthala,Alappuzha,KERALA,9.6891011625,76.33285069583334
CAPSERVO GLOBAL,"CMC 24/227, Kuruppan Kulangara, Cherthala, Kerala 688524, India",688524,Cherthala,Alappuzha,KERALA,9.6891011625,76.33285069583334
CHANDRIKA PLYWOODS,"4C8V+QVH, Mudickal, Kerala 683547, India",683547,Kunnathunad,Ernakulam,KERALA,10.091076425925923,76.43058615555556
COASTAL CATCH LLP,"Flat No: 5I, Heera Cyber Views, Edachira, Kochi, Kakkanad, Kerala 682030, India",682030,Ernakulam,Ernakulam,KERALA,51.13351584878049,133.02442981463415
COCHIN CHITIN COMPANY,"22/825 A,B,C, Chemical Industrial Area, Aroor gram panchayat, Kochi, Kerala 688534, India",688534,Cherthla,Alappuzha,KERALA,9.871729377142858,76.30438504
ENVIRODESIGNS & EQUIPMENTS,"Janatha Junction, Eco Tower, Banerji Rd, Janatha, Palarivattom, Kochi, Kerala 682025, India",682025,Ernakulam,Ernakulam,KERALA,10.000372668965516,76.30783643448275
ERNAKULAM ARCHIDIOCESAN PUBLICATION TRUST,"Ernakulam, Kerala, India",686012,Kottayam,Kottayam,KERALA,9.54856711111111,76.52230786666667
ERNAKULAM ENGINEERS,"Ernakulam, Kerala, India",686012,Kottayam,Kottayam,KERALA,9.54856711111111,76.52230786666667
EZY SERVE ENTERPRISES,"Eswara Seva Building, FACT Nagar, Thrippunithura, Ernakulam, Kochi, Kerala 682301, India",682301,Ernakulam,Ernakulam,KERALA,9.946698106896552,76.34776633655173
FATHIMA AGRO MILLS,"II/205 A30 A31, Kalappurakkal Building, VK Lane, Vazhakkala, Ernakulam, Vazhakkala, Kochi, Kakkanad, Kerala 682021, India",682021,Ernakulam,Ernakulam,KERALA,10.029233765060242,76.3353045433735
FIAKON EXIM LLP,"AREEKODE mukkom road, pallippadi, 62XW+377, Pathanapuram, Kizhuparamba, Kerala 673639, India",673639,Ernad,Malappuram,KERALA,11.22386355755814,76.05105861802325
FLOWMAX WATER,"Temple Rd, Eravipuram, Kottappuram, Kerala 683511, India",683511,Paravur,Ernakulam,KERALA,10.119306989583333,76.29334000833333
FRESCO EXPORTERS LLP,"30/375 Manakkadavan Building Kuruppath, Kondotty Post Malappuram Dt, Kondotty, Kerala 673638, India",673638,Ernad,Malappuram,KERALA,11.14718034158416,75.96500935445545
GHAN MARINE EXIM,"P9V4+PCP, Pallipuram, Kerala 688541, India",688541,Cherthala,Alappuzha,KERALA,9.742432095238096,76.36193387142858
GREEN WATER SCIENCE,"MG Nagar, Puliyathmukku Jn, Ammannada, Kollam, Kerala 691004, India",691004,Kollam,Kollam,KERALA,8.904030673684211,76.62197661052632
HAYRAS PROVISIOS,"Shop No:20/530C near Rose Dale School, Umayanalloor, Mayyanad, Kerala 691589, India",691589,Kollam,Kollam,KERALA,8.875603633333332,76.6503463
HI - LOOMS TECHNOLOGIES LLP,"326W+7C2, Inkel City, Malappuram, Kerala 676519, India",676519,Ernad,Malappuram,KERALA,11.05071221125,76.03817599
INDROYAL FURNITURE COMPANY P.LTD.,"GROUND FLOOR, METRO PILLER NO 293, Angels Arcade, 22, South Kalamassery, Kalamassery, Kochi, Kerala 682022, India",682022,Ernakulam,Ernakulam,KERALA,10.045582269230769,76.34736526153846
INNOVUS ENERGIEZ,"KRRA-6, Kannanthodath Road, Devankulangara, Mamangalam, Edappally, Kochi, Kerala 682024, India",682024,Ernakulam,Ernakulam,KERALA,10.01888763298969,76.30253450412371
JESMART P. LTD,"Pallithazham, Mulanthuruthy, Pallithazham, Kochi, Mulanthuruthy, Kerala 682314, India",682314,Ernakulam,Ernakulam,KERALA,9.904187420689656,76.39910738275861
JOHNS TRADERS LLP,"Unnamed Road, Kerala 686104, India",686104,Changanacherry,Kottayam,KERALA,9.458240202083331,76.55193638958333
JOHNS UMBRELLA MART,"CCNB Rd, Erezha, Mullakkal, Alappuzha, Kerala 688011, India",688011,Ambalapuzha,Alappuzha,KERALA,9.494271704545454,76.34375952727272
JSK FASTENERS,"2C62+VV4, Chithrappuzha-Ponjassery Rd, Pallikkara, Kerala 682303, India",682303,Kunnathunad,Ernakulam,KERALA,9.999956208333332,76.39698640416667
KALLUNGAL TRADERS,"Kallungal Ln, Periyar Nagar, Aluva, Kerala 683101, India",683101,Aluva,Ernakulam,KERALA,10.095680780412373,76.36233782061856
KASHMIR FRUIT BAZAR,"Vettuveni Rd, NAGAR, Haripad, Kerala 690514, India",690514,Karthikappally,Alappuzha,KERALA,9.289124556179775,76.45218776292134
KLEAN TRADE HYGENE,"Eco links Building, Ground Floor N.H.Bypass, Edappally, Kochi, Kerala 682024, India",682024,Ernakulam,Ernakulam,KERALA,10.01888763298969,76.30253450412371
LENORE INDUSTRIES,"Adi Shankara TBI, Mattoor, Kalady, Kerala 683574, India",683574,Aluva,Ernakulam,KERALA,10.182817160958905,76.45845344931507
M.S.GOLD TECH,"Pallipadi, Edavannappara, Kerala 673645, India",673645,Ernad,Malappuram,KERALA,11.236260745454546,75.97598093636364
MADATHIL EXPORTS,"3JQ5+762, Thrikkariyoor, Kerala 686692, India",686692,Kothamangalam,Ernakulam,KERALA,10.104649851818182,76.59975289818182
MAJEED CARPET HOUSE,"F8XM+HH4, Vazhicherry Rd, Vazhicherry Ward, Sea View Ward, Alappuzha, Kerala 688001, India",688001,Ambalapuzha,Alappuzha,KERALA,9.49638391904762,76.33209264761905
MEGAMALAI HOLDINGS,"Megamalai, Tamil Nadu, India",682024,Ernakulam,Ernakulam,KERALA,10.01888763298969,76.30253450412371
MISTY FROZEN FOODS,"63 3441, Valummel Rd, Valummel, Kochi, Kerala 682005, India",682005,Kochi,Ernakulam,KERALA,9.940253061111113,76.25960161388889
MOM SEA FRESH FISH,"Poojappura Temple, Road, Aroor gram panchayat, Kochi, Kerala 688534, India",688534,Cherthla,Alappuzha,KERALA,9.871729377142858,76.30438504
MUKKAM MUILL STORES P.LD.,"Mukkam, Kerala, India",688524,Cherthala,Alappuzha,KERALA,9.6891011625,76.33285069583334
MYSON TRADING,"Masjid Rd, Hidayath Nagar, Thrikkakara, Kalamassery, Kochi, Kerala 682032, India",682032,Ernakulam,Ernakulam,KERALA,9.983836255,76.311535635
NANDINI COIR WORKS,"Kattoor, Church Road, Pattukalam, Alappuzha, Kerala 688522, India",688522,Ambalapuzha,Alappuzha,KERALA,9.572168202777778,76.32190507222222
NFENIX TOOLS LLP,"29, Unit 1, Kinfra Hi-Tech Park Main Rd, HMT Colony, North Kalamassery, Kalamassery, Kochi, Kerala 683503, India",683503,Kanayannur,Ernakulam,KERALA,10.0582879625,76.337153153125
ORVO EXPORTS P.LTD.,"Building No 22/A, M H Kavala Vengola,Ponjassery, Kochi, Vengola, Kerala 682037, India",682037,Ernakulam,Ernakulam,KERALA,9.997384706451612,76.34072476129032
OSCAR FARM TRADERS,"CENTRE 9/417, PO, near SHIFA DENTAL CLINIC, J,I, Maranchery, Kerala 679581, India",679581,Ponani,Malappuram,KERALA,10.739550295238097,75.97170583809523
PAZINO INFOTECH P.LTD.,"2CGW+G3J, Kunnattunad, Kerala 683562, India",683562,Aluva,Ernakulam,KERALA,10.034164772289158,76.42900358072289
PEBBLE OF TRADING,"VIII/554G, Thanikkamattom Building Kolenchery, Kochi, Kolenchery, Kerala 682311, India",682311,Kunnathunad,Ernakulam,KERALA,9.986131800632911,76.47020598227847
PLANTONORGANIC,"Mini Industrial Estate, Manarcadu, Kerala 686019, India",686019,Kottayam,Kottayam,KERALA,9.592533289090907,76.58230555090908
PVM FRUITS AND VEGETABLES,"29, Market Rd, Convent Junction, Shenoys, Kochi, Kerala 682011, India",682011,Ernakulam,Ernakulam,KERALA,9.989242117391305,76.29452373188406
REEFCO CONTAINER SERVICES,"PRA-43, Padivattom, Edappally, Kochi, Kerala 682024, India",682024,Ernakulam,Ernakulam,KERALA,10.01888763298969,76.30253450412371
REGAL EXPORTERS,"Manathparamba Edayur north (po) ,valanchery, Valanchery, Kerala 676552, India",676552,Tirur,Malappuram,KERALA,10.902934205042015,76.05797082941177
RICHU GARMENTS,"VG6C+J4P, Illikkamukkada, Kerala 686610, India",686610,Vaikom,Kottayam,KERALA,9.827377122222222,76.49235217777778
SAMSCO EXPORTS,"near Kunnathery Thikavu, Kunnathery Thikavu, Aluva, Kerala 683106, India",683106,Aluva,Ernakulam,KERALA,10.080344491666668,76.34267441666667
SHIHAS HOLDING,"Door No.48/1258 A, near Rice Research Station, Ponnurunni, Vyttila, Kochi, Kerala 682019, India",682019,Ernakulam,Ernakulam,KERALA,9.96996995974026,76.31541058961038
SIMPEX TRADING COMPANY,"GROUND FLOOR, PARAKKAT BUILDING, 69/908A, Sebastian Rd, Kaloor, Kochi, Kerala 682017, India",682017,Ernakulam,Ernakulam,KERALA,9.994298565853658,76.29345620243902
SOUTHERN TRADE WING P.LTD.,"Sneha Nagar Rd, Karunagappalli, Kerala 690544, India",690544,Karunagappally,Kollam,KERALA,9.086964940909091,76.52738797272727
SURABHI TRADE CENTRE,"5VH7+CX9, Ramanattukara, Kozhikode, Kerala 673633, India",673633,Eranad,Malappuram,KERALA,51.5876618,118.4566692
T.R.PACKING PRODUCTS,"Punnapra North, Alappuzha, Kerala 688003, India",688003,Ambalapuzha,Alappuzha,KERALA,9.468575348387096,76.33827430967742
TAKE OFF SPORTS,"Pala - Marangattupilly - Kozha Road, [no name], Vellappadu, Pala, Kerala 686575, India",686575,Meenachil,Kottayam,KERALA,9.719589849206349,76.68607506666666
TEMPROZE BUSINESS ASSOICATES,"Door No. 5/202B, Chemanad, Varikoli, Post, Puthenkurish, Kochi, Thiruvaniyoor, Kerala 682308, India",682308,Kunnathunad,Ernakulam,KERALA,9.96100282051282,76.41611203846155
TROPPY FOODS,"IX/235 - B, Manjapra P.O, Chandrapura, Manjapra, Kerala 683581, India",683581,Aluva,Ernakulam,KERALA,10.23640150576923,76.48074006730769
UNIVERSAL PACKS,"V8V7+FCV, Kumbalam, Kochi, Kerala 682506, India",682506,Ernakulam,Ernakulam,KERALA,9.90249192,76.31610951
VALGA COATS,"Plot no-27, sidco industrial Area, Angamaly, Kerala 683572, India",683572,Paravur,Ernakulam,KERALA,10.193383310687024,76.38335938931299
VICTORY SALES ASSOCIATES,"Sreekala Rd, Vennala, Ernakulam, Kochi, Kerala 682028, India",682028,Ernakulam,Ernakulam,KERALA,9.99670085,76.32102778
VINGINISSERY SERVICE,"Venginissery, Paralam, Kerala, India",686012,Kottayam,Kottayam,KERALA,9.54856711111111,76.52230786666667
WADAKKANCHERY SILK GARDEN P.LTD.,"Wadakkanchery, Kerala, India",682002,Kochi,Ernakulam,KERALA,9.957255232894736,76.25402236842105
ZAHRA HOLIDAYS,"2X2W+34G, Tirur - Malappuram - Manjeri Rd, Choothupara, Kottakkal, Changuvetty, Kerala 676503, India",676503,Tirur,Malappuram,KERALA,10.998304046031746,76.01255696507937
ZODIAC ADVERTISERS,"5TH FLOOR, Zodiac Square, Sahodaran Ayyappan Rd, near KADAVANTHRA JUNCTION, Kadavanthra, Kochi, Kerala 682020, India",682020,Ernakulam,Ernakulam,KERALA,9.96861736259542,76.30114694656488
A.A. EXPORTS,"X772+4RX, Pullupalam Rd, Mattancherry, Kochi, Kerala 682002, India",682002,Kochi,Ernakulam,KERALA,9.957255232894736,76.25402236842105
AAVEES FLOOR COVERING,"near Iron Bridge, Pullurithakary, Cherthala, Kerala 688524, India",688524,Cherthala,Alappuzha,KERALA,9.6891011625,76.33285069583334
AGASTHYA AYURVEDIC HOSPITAL,"HQ82+425, Ponkunnam, Kerala 686506, India",686506,Kanjirapally,Kottayam,KERALA,9.550696192125985,76.70441742047244
AGUA ENGINEERING,"6985+4VH Agua Engineering, Peechanicadu, Angamaly, Kerala 683572, India",683572,Paravur,Ernakulam,KERALA,10.193383310687024,76.38335938931299
AMBIT N  LIFESCIENCES,"Door No 130, Mangattiri, Tirur, Kerala 676105, India",676105,Tirur,Malappuram,KERALA,10.89965167826087,75.91356985217391
AMK TRADERS,"4614, Market Rd, Shenoys, Kochi, Kerala 682031, India",682031,Ernakulam,Ernakulam,KERALA,9.99692354,76.27468644
AQUASTAR MARINE EXPORTS,"39-3633, E-1, 4th Landmark Enclave, Valanjambalam, Kochi, Kerala 682016, India",682016,Ernakulam,Ernakulam,KERALA,9.965396735294116,76.28713604901961
ARRIKAR FOODS P.LTD.,"Perumbavoor, 19/636, Koovappady, Kerala 683544, India",683544,Kunnathunad,Ernakulam,KERALA,10.166672573758866,76.50774667872341
AUTOKAST LTD.,"SN Puram Post Salem, State Highway 66, Kanjikuzhy, Cherthala South, Kerala 688530, India",688530,Cherthala,Alappuzha,KERALA,9.646816892307692,76.30059679230769
AVANI AGRO MILLS,"6FHC+R8W, Kollakode, Ayyampuzha, Kerala 683581, India",683581,Aluva,Ernakulam,KERALA,10.23640150576923,76.48074006730769
AYAMON INDIA POLYMERS,"Paloor Kotta, PP 10-520 B-8, PO, INDUSTRIAL DEVELOPMENT PLOT, Palachode, Kerala 679338, India",679338,Perinthalmanna,Malappuram,KERALA,10.9514341875,76.13756319166666
BAY FILED FOOD INGRDIENTS P.LTD.,"XXV/578F1, 4th Floor, Pathicheril Enclave Kalamassery, Eranakulam, South Kalamassery, Edappally, Kochi, Kerala 682033, India",682033,Kanayannur,Ernakulam,KERALA,10.0430806875,76.31714245625
BISMI CASHEW COMPANY,"Mangad P.O, Kilikolloor, Mangad, Kollam, Kerala 691015, India",691015,Kollam,Kollam,KERALA,8.910343165384615,76.6223384
BLUE HAWK TRADING LLP,"Door no. 2, Padinjarechalil (H, 286, PBK Myna Rd, Vazhakkala, Kochi, Kakkanad, Kerala 682021, India",682021,Ernakulam,Ernakulam,KERALA,10.029233765060242,76.3353045433735
CADILLAC AUTOMATION&CONTROLS,"Cadillac Square,Ground Floor, Metro Pillar 333, August Nursing home road, behind Axis Bank, Changampuzha Nagar, P.O, Kalamassery, Ernakulam, Kochi, Kerala 682033, India",682033,Kanayannur,Ernakulam,KERALA,10.0430806875,76.31714245625
CAPITEVO TRADING LLP,"12 /347 C, Chempu, Maravanthuruthu, Kerala 686608, India",686608,Vaikom,Kottayam,KERALA,9.80238914861111,76.40246834027778
CHANGAMPALLY VAIDYA BHAVAN,"Changampally Road, Edakkulam, Thirunavaya, Kerala 676301, India",676301,Tirur,Malappuram,KERALA,10.895407549152544,75.99675428474576
COGENT EXPORTS,"Rose Villa, Aarattuvazhi, Kanjiramchira, Alappuzha, Aryad South, Kerala 688006, India",688006,Ambalapuzha,Alappuzha,KERALA,9.525584704,76.338968536
CONTINENTAL EXPORTS EMPIRE ,"5F84+HJQ, Kalady Cheranaloor Rd, Onampilly, Kerala 683544, India",683544,Kunnathunad,Ernakulam,KERALA,10.166672573758866,76.50774667872341
DELTA RUBBER FACTORY,"Paika Pinnakkanadu Road, Mallikassery, Kerala 686577, India",686577,Meenachil,Kottayam,KERALA,9.640891316,76.737008176
DITEYA EXPORTS,"Tharayil Building TC: 65/1873A Ground Floor Thekkumtala Road, PO, Kaloor, Ernakulam, Kochi, Kerala 682017, India",682017,Ernakulam,Ernakulam,KERALA,9.994298565853658,76.29345620243902
DRONA ENGINEERING,"Opp.Lee fibre Factory, P.O, CMC-21, Cherthala, Nedumprakkad, Kerala 688524, India",688524,Cherthala,Alappuzha,KERALA,9.6891011625,76.33285069583334
ELECTRO TRADING CORPORATION,"No:58, 9449, Narakathara Rd, off Mahatma Gandhi Road, opposite Shenoys, Shenoys Junction, Shenoys, Kochi, Kerala 682035, India",682035,Ernakulam,Ernakulam,KERALA,9.979283159183671,76.28271734081633
EMAD EXPORTS,"21/ 433-A, First Floor, Aruvithura Crossway Road, Muhiyadheen, Ninar Juma Masjid, Complex, Causeway Junction, Thekkekara, Erattupetta, Kerala 686122, India",686122,Meenachil,Kottayam,KERALA,9.686214525,76.777240075
EURANAUS PLY AND BOARDS LLP   ,"Nooleli Rd, Odakkali, Kerala 683549, India",683549,Kunnathunad,Ernakulam,KERALA,10.10500877,76.547910502
EXOTIC WOOD ZONE INDIA,"Exotic Wood Zone India Ground Floor, 8/2549, Panakkal Building, MK Raghavan Rd, Pandikudy, Fort Kochi, Kochi, Kerala 682002, India",682002,Kochi,Ernakulam,KERALA,9.957255232894736,76.25402236842105
FABDEC INTERIORS,"28/60, Peechampilly Rd, P.O, Thrikkakara, Vazhakkala, Kochi, Kakkanad, Kerala 682021, India",682021,Ernakulam,Ernakulam,KERALA,10.029233765060242,76.3353045433735
FIRMER IMPEX ETERPRISES,"282G+MR3, Dr Ambedkar Rd, Vennala, Kochi, Kerala 682028, India",682028,Ernakulam,Ernakulam,KERALA,9.99670085,76.32102778
FOREMEX FOODS LLP,"Ground Floor,27/1963, Manath Enclave, Vayu Sena Rd, Thrikkakara, Vazhakkala, Kochi, Kakkanad, Kerala 682030, India",682030,Ernakulam,Ernakulam,KERALA,51.13351584878049,133.02442981463415
FORMOST POWER SYSTEMS,"Ponnani - Tirur Rd, Keezhillam, Ponnani, Kerala 679586, India",679586,Ponani,Malappuram,KERALA,10.762784689361702,75.9335939
G.R.ACCOUSTICS P.LTD.,"147, PJ Antony Rd, Sonia Nagar, Palarivattom, Kochi, Kerala 682025, India",682025,Ernakulam,Ernakulam,KERALA,10.000372668965516,76.30783643448275
GRYND FRESH,"12/266, Kundannoor - Willingdon Island Rd, Maradu North, Maradu, Kochi, Kerala 682304, India",682304,Ernakulam,Ernakulam,KERALA,9.938877706666666,76.32558967666667
HI CARE GLOVES,"Ayyankanal Road Marangattupilly P.O, Elackad, Kerala 686635, India",686635,Meenachil,Kottayam,KERALA,9.750672510714285,76.62233675714285
HOPUZ PRINTERS AND PACKAGES,"SH28, Ramanattukara, Neelangoth, Kerala 673637, India",673637,Ernad,Malappuram,KERALA,11.173863454285714,75.90456773285715
IMS TRADING INDIA LLP,"Room No, AP, Golden Square, 1524 Y, Mukkam Road, near SBI Bank, Areekode, Kerala 673639, India",673639,Ernad,Malappuram,KERALA,11.22386355755814,76.05105861802325
INFINITY TRADING COMPANY,"Triveni Courtt, Opp: Reliance Fresh, KP Vallon Rd, Giri Nagar, Kadavanthra, Kochi, Kerala 682020, India",682020,Ernakulam,Ernakulam,KERALA,9.96861736259542,76.30114694656488
J.J. POLYMERS,"p.o, Kuttamassery, Thottumugham, Aluva, Kerala 683105, India",683105,Kunnathunad,Ernakulam,KERALA,10.094288535294115,76.41706858235294
J.K.TRADING INTERNATIONAL,"Vadavathoor, Kerala 686010, India",686010,Kottayam,Kottayam,KERALA,9.590680228,76.56449500800001
JASPER PHYTOEXTRACTS,"VII/109, VALLIKADA, BUILDING, Arakuzha Rd, Thottumkalpeedika, Muvattupuzha, Kerala 686673, India",686673,Muvattupuzha,Ernakulam,KERALA,9.98582857409836,76.58100003016393
JUNGLE FRUITS THIRUVANNAMALAI LLP,"Tiruvannamalai, Tamil Nadu, India",688534,Cherthla,Alappuzha,KERALA,9.871729377142858,76.30438504
KATTUKULAM EXPORTING AD IMPORTING,"Kattukulam, Kerala, India",688534,Cherthla,Alappuzha,KERALA,9.871729377142858,76.30438504
KAVITHA POLY PACK,"Rayamangalam, Keezhillam - Kurichilacode Rd, Perumbavoor, Panikarambalam, Kerala 683545, India",683545,Kunnathunad,Ernakulam,KERALA,10.109719963636364,76.52310976666666
KAYIL CROCKERY,"Alia Arcade, Machingal - Munduparamba Rd, Munduparamba, Malappuram, Kerala 676505, India",676505,Ernad,Malappuram,KERALA,11.044320151851853,76.07271957777778
KUMARAKAM LAKE,"Kumarakom, Kerala, India",686012,Kottayam,Kottayam,KERALA,9.54856711111111,76.52230786666667
KUMARAKOM TREASURE,"Kumarakom, Kerala, India",686012,Kottayam,Kottayam,KERALA,9.54856711111111,76.52230786666667
LEE MARINE EXPORTS,"V826+55H, Chandiroor, Kerala 688535, India",688535,Cherthala,Alappuzha,KERALA,9.8564922,76.32294531666666
LUMEN SURGICALS,"X/135B, K N Krishnankutty Arcade, Vattakunnu, Chottanikkara, Ernakulam, Kerala 682312, India",682312,Kanayannur,Ernakulam,KERALA,9.93112196923077,76.39003445384616
MALAYALAM VEHICLES INDIA P.LTD.,"No 52/3171, 3172, Sharon Tower, opposite Salafi Masjid, Vyttila, Ernakulam, Kochi, Kerala 682019, India",682019,Ernakulam,Ernakulam,KERALA,9.96996995974026,76.31541058961038
MEGHA GRANITES,"2FVJ+XF8, Unnamed Road, Mazhuvannoor, Kerala 683556, India",683556,Kunnathunad,Ernakulam,KERALA,10.083125960465116,76.47373215813954
MOGO KIDS,"Thottinkkara, Mampad, Kerala 676542, India",676542,Nilambur,Malappuram,KERALA,11.24328006744186,76.19810685581396
MR.COOK PRIME STORE,"49Q3+487, Kochi, Kerala 683102, India",683102,Aluva,Ernakulam,KERALA,10.120711972131147,76.33862614918033
NATURAL SPICES TRADING COMPANY,"387/ B KARIPUZA KARIPUZA MASJID, P.O, Panayikulam, Aluva, Kerala 683511, India",683511,Paravur,Ernakulam,KERALA,10.119306989583333,76.29334000833333
NEDIYAMALA BASMATI AND SPICES,"Masjid Road Market P O, near Central Juma Masjid, Muvattupuzha, Kerala 686673, India",686673,Muvattupuzha,Ernakulam,KERALA,9.98582857409836,76.58100003016393
NEDUMCHALIL PRINT GRAPHS,"Nedumchalil Near Beverages outlet, SH 1, opposite SBI, Muvattupuzha, Kerala 686669, India",686669,Kunnathunad,Ernakulam,KERALA,10.007340951592356,76.52786276496816
NILAMBUR FURNITURE,"SN Junction, 25, opp. ESAF Bank, Palarivattom, Kochi, Kerala 682025, India",682025,Ernakulam,Ernakulam,KERALA,10.000372668965516,76.30783643448275
NKA FRUITS,"Market Rd, Kacheripady, Ernakulam, Kochi, Kerala 682031, India",682031,Ernakulam,Ernakulam,KERALA,9.99692354,76.27468644
ONEIRO COLLECTIONS,"Mannar, Kerala 689622, India",689622,Chengannur,Alappuzha,KERALA,9.31451967586207,76.53582117241379
OOTY TEA COMPANY,"Ooty, Tamil Nadu, India",682024,Ernakulam,Ernakulam,KERALA,10.01888763298969,76.30253450412371
PACKMEN MACHINERIES P.LTD.,"683572, Karukutty – Moozhikulam Rd, Puliyanm, Kerala 683572, India",683572,Paravur,Ernakulam,KERALA,10.193383310687024,76.38335938931299
PANICKERS GRANITES,"M.C.Road, Kozhippalam - Karakkad Rd, Chengannur, Mulakuzha, Kerala 689504, India",689504,Chengannur,Alappuzha,KERALA,9.28720845,76.65541802999999
PARAKKADANS AGRO MILLS,"7CFP+J8J, Edalakadu Ezhattumugham Rd, Kerala 683581, India",683581,Aluva,Ernakulam,KERALA,10.23640150576923,76.48074006730769
PEEKAY IN STORE,"No. 9, Service Rd, Padivattom, Edappally, Kochi, Kerala 682024, India",682024,Ernakulam,Ernakulam,KERALA,10.01888763298969,76.30253450412371
PLEASANT COFFEE WORKS,"MQMH+H43, Aruvithura, Erattupetta, Kerala 686122, India",686122,Meenachil,Kottayam,KERALA,9.686214525,76.777240075
PROSNOOKERS,"Pai Brothers Lane, Mahatma Gandhi Rd, Padma Junction, Shenoys, Ernakulam, Kochi, Kerala 682035, India",682035,Ernakulam,Ernakulam,KERALA,9.979283159183671,76.28271734081633
RADX FASHION,"PGQ8+XRM, Kuruppanthara, Kerala 686603, India",686603,Vaikom,Kottayam,KERALA,9.73685573,76.51328257200001
RED SHIPEX TECHNOLOGIES,"2nd floor, Sunu Plaza, Maradu, Ernakulam, Kochi, Kerala 682304, India",682304,Ernakulam,Ernakulam,KERALA,9.938877706666666,76.32558967666667
ROTARY CLUB OF TIRUPUR NORTH,"Tiruppur North, Tamil Nadu, India",688534,Cherthla,Alappuzha,KERALA,9.871729377142858,76.30438504
SANTHOM ON LINE,"Santhome, Chennai, Tamil Nadu, India",686012,Kottayam,Kottayam,KERALA,9.54856711111111,76.52230786666667
SC EXPORTS,"Bismillah Trade Centre, 24/1056, St George St, Erezha, Sea View Ward, Alappuzha, Kerala 688001, India",688001,Ambalapuzha,Alappuzha,KERALA,9.49638391904762,76.33209264761905
SURABHI INNOVATION,"SH 1, Vengoor, Angamaly, Kerala 683572, India",683572,Paravur,Ernakulam,KERALA,10.193383310687024,76.38335938931299
TAASCO ENGINEERING P.LTD.,"4XW8+2WP, Chungam, Kondotty, Kerala 673638, India",673638,Ernad,Malappuram,KERALA,11.14718034158416,75.96500935445545
TATEZ FOODS ,"Kolenchery - Mazhuvannoor Road, Kadayirippu, Aikaranad North, Kerala 682311, India",682311,Kunnathunad,Ernakulam,KERALA,9.986131800632911,76.47020598227847
TATEZ FOODS,"Kolenchery - Mazhuvannoor Road, Kadayirippu, Aikaranad North, Kerala 682311, India",682311,Kunnathunad,Ernakulam,KERALA,9.986131800632911,76.47020598227847
TIRUPUR CITY STYLE COLLECTION,"Tiruppur, Tamil Nadu, India",688534,Cherthla,Alappuzha,KERALA,9.871729377142858,76.30438504
TIRUPUR STYLE,"Tiruppur, Tamil Nadu, India",688534,Cherthla,Alappuzha,KERALA,9.871729377142858,76.30438504
TIRUPUR KNITWEAR EXPORTS PVT LTD,"Tiruppur, Tamil Nadu, India",688534,Cherthla,Alappuzha,KERALA,9.871729377142858,76.30438504
TRAVANCORE TRADES AND SERVICES,"FGP9+XXM, Thuruthy, Kerala 686535, India",686535,Changanassery,Kottayam,KERALA,9.479609457894735,76.52609346315789
TRI SQUARE GENERAL TRADING,"4XPC+66X, Karipur, Kerala 673638, India",673638,Ernad,Malappuram,KERALA,11.14718034158416,75.96500935445545
UDAYA SAW MILLS AND TIMBER INDUSTRIES,"Mudickal - Vanchinadu Road, Mudickal, Kerala 683547, India",683547,Kunnathunad,Ernakulam,KERALA,10.091076425925923,76.43058615555556
UNIQUE INVENTIONS AND SERVICES,"Dubaipadi, Ponniakurussi, Perintalmanna, Kerala 679322, India",679322,Perinthalmanna,Malappuram,KERALA,10.977929251428572,76.22854857333334
V. PUBLISHERS,"V Publishers, Sreenivasa Iyer Rd, Puthiya Thrikovil Residents Association, Kottayam, Kerala 686001, India",686001,Kottayam,Kottayam,KERALA,9.590939220930233,76.52573586744185
VOILET GARMENTS,"674C+RR8, Emangad Rd, Wandoor, Kerala 679339, India",679339,Nilambur,Malappuram,KERALA,11.187674797560977,76.25314723414634
WAYANAD FOOD INC.,"Wayanad, Kerala, India",686012,Kottayam,Kottayam,KERALA,9.54856711111111,76.52230786666667
WYANAD FOOD INCORPORATED,"Wayanad, Kerala, India",686012,Kottayam,Kottayam,KERALA,9.54856711111111,76.52230786666667
WAYANAD ORGANIC RESEARCH P LTD,"Wayanad, Kerala, India",686012,Kottayam,Kottayam,KERALA,9.54856711111111,76.52230786666667
ZULI EXPORTS,"near GLPS Nottappuram, C Building, 12- 281, Pullisseri Rd, Kannamangalam, Kerala 676304, India",676304,Tirurangadi,Malappuram,KERALA,11.056520428688524,75.98326629672131
